{"type":"FeatureCollection","crs":{"type":"name","properties":{"name":"urn:ogc:def:crs:EPSG::32632"}},"features":[
{"type":"Feature","geometry":{"type":"Polygon","coordinates":[[[24.069404200000037,34.872328],[24.099839100000054,34.867903099999964],[24.122982500000035,34.85553110000002],[24.11136840000009,34.83234289999997],[24.12195660000006,34.80175650000001],[24.049918100000042,34.83954980000004],[24.069404200000037,34.872328]]]},"properties":{"cat":177,"name_en":"Greece","ISO3166_1_":"GRC"}},
{"type":"Feature","geometry":null,"properties":{"cat":177,"name_en":"Greece","ISO3166_1_":"GRC"}},
{"type":"Feature","geometry":null,"properties":{"cat":177,"name_en":"Greece","ISO3166_1_":"GRC"}},
{"type":"Feature","geometry":null,"properties":{"cat":177,"name_en":"Greece","ISO3166_1_":"GRC"}},
{"type":"Feature","geometry":null,"properties":{"cat":177,"name_en":"Greece","ISO3166_1_":"GRC"}},
{"type":"Feature","geometry":null,"properties":{"cat":177,"name_en":"Greece","ISO3166_1_":"GRC"}},
{"type":"Feature","geometry":null,"properties":{"cat":177,"name_en":"Greece","ISO3166_1_":"GRC"}},
{"type":"Feature","geometry":null,"properties":{"cat":177,"name_en":"Greece","ISO3166_1_":"GRC"}},
{"type":"Feature","geometry":null,"properties":{"cat":177,"name_en":"Greece","ISO3166_1_":"GRC"}},
{"type":"Feature","geometry":{"type":"Polygon","coordinates":[[[27.001851900000048,35.433146100000016],[27.000849300000056,35.40876730000005],[26.973526200000094,35.391970199999975],[26.959011600000082,35.39387820000002],[26.927648900000094,35.36588830000005],[26.905117400000023,35.361673199999984],[26.880885800000073,35.34216360000002],[26.855978200000038,35.3474738],[26.845665200000013,35.36364560000003],[26.90240730000005,35.421084399999984],[26.93154910000004,35.41631250000003],[27.001851900000048,35.433146100000016]]]},"properties":{"cat":177,"name_en":"Greece","ISO3166_1_":"GRC"}},
{"type":"Feature","geometry":null,"properties":{"cat":177,"name_en":"Greece","ISO3166_1_":"GRC"}},
{"type":"Feature","geometry":{"type":"Polygon","coordinates":[[[25.217420200000078,35.4663102],[25.242940300000072,35.45020440000002],[25.23640510000007,35.4301735],[25.189682400000095,35.4472853],[25.217420200000078,35.4663102]]]},"properties":{"cat":177,"name_en":"Greece","ISO3166_1_":"GRC"}},
{"type":"Feature","geometry":null,"properties":{"cat":177,"name_en":"Greece","ISO3166_1_":"GRC"}},
{"type":"Feature","geometry":{"type":"Polygon","coordinates":[[[27.22791520000004,35.90565980000005],[27.240593200000063,35.84655230000004],[27.21723540000002,35.836004400000036],[27.20090520000005,35.84205560000005],[27.203245200000026,35.869405199999974],[27.22791520000004,35.90565980000005]]]},"properties":{"cat":177,"name_en":"Greece","ISO3166_1_":"GRC"}},
{"type":"Feature","geometry":{"type":"Polygon","coordinates":[[[23.27058180000003,35.906023],[23.288722800000016,35.888016200000024],[23.311583,35.88711030000003],[23.32723550000003,35.8535441],[23.32932080000009,35.82647080000001],[23.288574,35.85471550000001],[23.27058180000003,35.906023]]]},"properties":{"cat":177,"name_en":"Greece","ISO3166_1_":"GRC"}},
{"type":"Feature","geometry":null,"properties":{"cat":177,"name_en":"Greece","ISO3166_1_":"GRC"}},
{"type":"Feature","geometry":null,"properties":{"cat":177,"name_en":"Greece","ISO3166_1_":"GRC"}},
{"type":"Feature","geometry":{"type":"Polygon","coordinates":[[[29.59545060000002,36.16562630000004],[29.601569200000114,36.1403449],[29.573196900000113,36.123257100000046],[29.573147500000033,36.1531211],[29.59545060000002,36.16562630000004]]]},"properties":{"cat":177,"name_en":"Greece","ISO3166_1_":"GRC"}},
{"type":"Feature","geometry":{"type":"Polygon","coordinates":[[[27.599105,36.248469],[27.621719,36.240132],[27.60590560000003,36.21763749999998],[27.521156,36.213504],[27.546059,36.238189],[27.599105,36.248469]]]},"properties":{"cat":177,"name_en":"Greece","ISO3166_1_":"GRC"}},
{"type":"Feature","geometry":null,"properties":{"cat":177,"name_en":"Greece","ISO3166_1_":"GRC"}},
{"type":"Feature","geometry":null,"properties":{"cat":177,"name_en":"Greece","ISO3166_1_":"GRC"}},
{"type":"Feature","geometry":null,"properties":{"cat":177,"name_en":"Greece","ISO3166_1_":"GRC"}},
{"type":"Feature","geometry":{"type":"Polygon","coordinates":[[[26.675229800000096,36.360012699999984],[26.69769210000004,36.3426],[26.682680900000037,36.3243184],[26.66072420000009,36.335306500000016],[26.675229800000096,36.360012699999984]]]},"properties":{"cat":177,"name_en":"Greece","ISO3166_1_":"GRC"}},
{"type":"Feature","geometry":{"type":"Polygon","coordinates":[[[25.767464300000057,36.404895],[25.78177740000004,36.39048550000004],[25.823420500000083,36.37319320000003],[25.823044500000066,36.354665],[25.769568200000037,36.34457649999999],[25.738566300000087,36.352900700000035],[25.727614,36.36685020000003],[25.767464300000057,36.404895]]]},"properties":{"cat":177,"name_en":"Greece","ISO3166_1_":"GRC"}},
{"type":"Feature","geometry":null,"properties":{"cat":177,"name_en":"Greece","ISO3166_1_":"GRC"}},
{"type":"Feature","geometry":{"type":"Polygon","coordinates":[[[25.344268,36.4540958],[25.34963310000009,36.416478],[25.324067400000047,36.431605],[25.344268,36.4540958]]]},"properties":{"cat":177,"name_en":"Greece","ISO3166_1_":"GRC"}},
{"type":"Feature","geometry":{"type":"Polygon","coordinates":[[[25.387585800000068,36.4817875],[25.41774870000006,36.4754101],[25.487777300000033,36.4043937],[25.48711350000002,36.36280029999996],[25.444232500000027,36.33267990000002],[25.421301300000096,36.3463296],[25.382643800000068,36.35037040000002],[25.377077100000093,36.366824500000035],[25.415405400000054,36.36326109999999],[25.43429210000002,36.39177160000004],[25.426352500000064,36.40267670000004],[25.4234254000001,36.44433080000003],[25.411705500000096,36.459923299999986],[25.369239500000077,36.460887900000046],[25.387585800000068,36.4817875]]]},"properties":{"cat":177,"name_en":"Greece","ISO3166_1_":"GRC"}},
{"type":"Feature","geometry":{"type":"Polygon","coordinates":[[[27.35153520000003,36.48144950000001],[27.385645000000125,36.446676],[27.394608,36.426863],[27.435582000000124,36.391134],[27.410423,36.380946],[27.389827500000052,36.38589249999997],[27.338319,36.423695],[27.292701000000108,36.424715],[27.300127,36.454116],[27.33467040000005,36.458812099999975],[27.35153520000003,36.48144950000001]]]},"properties":{"cat":177,"name_en":"Greece","ISO3166_1_":"GRC"}},
{"type":"Feature","geometry":null,"properties":{"cat":177,"name_en":"Greece","ISO3166_1_":"GRC"}},
{"type":"Feature","geometry":{"type":"Polygon","coordinates":[[[22.98112990000004,36.51124370000005],[22.98235610000009,36.47618909999997],[22.926743600000066,36.4802128],[22.96077210000007,36.506786],[22.98112990000004,36.51124370000005]]]},"properties":{"cat":177,"name_en":"Greece","ISO3166_1_":"GRC"}},
{"type":"Feature","geometry":null,"properties":{"cat":177,"name_en":"Greece","ISO3166_1_":"GRC"}},
{"type":"Feature","geometry":null,"properties":{"cat":177,"name_en":"Greece","ISO3166_1_":"GRC"}},
{"type":"Feature","geometry":null,"properties":{"cat":177,"name_en":"Greece","ISO3166_1_":"GRC"}},
{"type":"Feature","geometry":null,"properties":{"cat":177,"name_en":"Greece","ISO3166_1_":"GRC"}},
{"type":"Feature","geometry":null,"properties":{"cat":177,"name_en":"Greece","ISO3166_1_":"GRC"}},
{"type":"Feature","geometry":{"type":"Polygon","coordinates":[[[27.17093820000008,36.61999030000001],[27.188085100000052,36.620019],[27.214454,36.584822],[27.193519,36.557494],[27.143215,36.56553],[27.126993,36.579037],[27.133624500000053,36.61323240000006],[27.17093820000008,36.61999030000001]]]},"properties":{"cat":177,"name_en":"Greece","ISO3166_1_":"GRC"}},
{"type":"Feature","geometry":null,"properties":{"cat":177,"name_en":"Greece","ISO3166_1_":"GRC"}},
{"type":"Feature","geometry":null,"properties":{"cat":177,"name_en":"Greece","ISO3166_1_":"GRC"}},
{"type":"Feature","geometry":{"type":"Polygon","coordinates":[[[27.837286200000023,36.64365849999997],[27.881025700000095,36.60654050000005],[27.87359890000002,36.550231],[27.816591,36.57117],[27.814947,36.581458],[27.771548,36.589968],[27.774723,36.604849],[27.797956600000077,36.613459700000035],[27.798334200000056,36.63012380000002],[27.837286200000023,36.64365849999997]]]},"properties":{"cat":177,"name_en":"Greece","ISO3166_1_":"GRC"}},
{"type":"Feature","geometry":{"type":"Polygon","coordinates":[[[24.857532200000065,36.66698789999998],[24.90383870000005,36.6406146],[24.946598200000125,36.62352809999999],[24.948344200000065,36.594037900000046],[24.910993800000114,36.598560399999954],[24.89408510000004,36.6309288],[24.860390200000097,36.631313],[24.83783920000002,36.65938650000005],[24.857532200000065,36.66698789999998]]]},"properties":{"cat":177,"name_en":"Greece","ISO3166_1_":"GRC"}},
{"type":"Feature","geometry":null,"properties":{"cat":177,"name_en":"Greece","ISO3166_1_":"GRC"}},
{"type":"Feature","geometry":null,"properties":{"cat":177,"name_en":"Greece","ISO3166_1_":"GRC"}},
{"type":"Feature","geometry":{"type":"Polygon","coordinates":[[[25.16636230000006,36.716922],[25.179386600000072,36.7012194],[25.13908960000012,36.6725497],[25.129712100000035,36.6592217],[25.068955800000026,36.63357549999998],[25.06850520000006,36.65336630000003],[25.09331020000002,36.6915648],[25.139744100000087,36.7144623],[25.16636230000006,36.716922]]]},"properties":{"cat":177,"name_en":"Greece","ISO3166_1_":"GRC"}},
{"type":"Feature","geometry":{"type":"Polygon","coordinates":[[[21.762630500000057,36.757086],[21.787873700000034,36.73982809999998],[21.766522400000014,36.702175400000044],[21.748521200000056,36.71960310000007],[21.762630500000057,36.757086]]]},"properties":{"cat":177,"name_en":"Greece","ISO3166_1_":"GRC"}},
{"type":"Feature","geometry":{"type":"Polygon","coordinates":[[[24.623233700000043,36.7878672],[24.65915490000006,36.77753490000005],[24.665814300000022,36.7527504],[24.65076030000003,36.743977600000036],[24.61727760000008,36.7533291],[24.605600800000104,36.77467060000002],[24.623233700000043,36.7878672]]]},"properties":{"cat":177,"name_en":"Greece","ISO3166_1_":"GRC"}},
{"type":"Feature","geometry":{"type":"Polygon","coordinates":[[[25.307005100000083,36.792233400000015],[25.346421,36.7511929],[25.386222800000013,36.7314832],[25.40145750000002,36.710936],[25.38078210000006,36.692474],[25.389037100000053,36.67499830000001],[25.34878740000002,36.6488731],[25.29085550000002,36.70582439999998],[25.25326670000004,36.7292376],[25.25928970000004,36.76849339999997],[25.279886800000014,36.78790789999998],[25.307005100000083,36.792233400000015]]]},"properties":{"cat":177,"name_en":"Greece","ISO3166_1_":"GRC"}},
{"type":"Feature","geometry":null,"properties":{"cat":177,"name_en":"Greece","ISO3166_1_":"GRC"}},
{"type":"Feature","geometry":null,"properties":{"cat":177,"name_en":"Greece","ISO3166_1_":"GRC"}},
{"type":"Feature","geometry":null,"properties":{"cat":177,"name_en":"Greece","ISO3166_1_":"GRC"}},
{"type":"Feature","geometry":null,"properties":{"cat":177,"name_en":"Greece","ISO3166_1_":"GRC"}},
{"type":"Feature","geometry":{"type":"Polygon","coordinates":[[[24.559036700000092,36.84846789999999],[24.59500620000003,36.82248880000003],[24.589235500000058,36.7925767],[24.572025,36.77628889999998],[24.538475900000122,36.77201549999998],[24.522185500000035,36.80198570000002],[24.520557,36.8227568],[24.559036700000092,36.84846789999999]]]},"properties":{"cat":177,"name_en":"Greece","ISO3166_1_":"GRC"}},
{"type":"Feature","geometry":null,"properties":{"cat":177,"name_en":"Greece","ISO3166_1_":"GRC"}},
{"type":"Feature","geometry":{"type":"Polygon","coordinates":[[[25.474358700000096,36.87159229999999],[25.47974130000003,36.830676],[25.455837300000013,36.81957850000002],[25.427038100000033,36.821641100000065],[25.43767950000006,36.8513577],[25.474358700000096,36.87159229999999]]]},"properties":{"cat":177,"name_en":"Greece","ISO3166_1_":"GRC"}},
{"type":"Feature","geometry":null,"properties":{"cat":177,"name_en":"Greece","ISO3166_1_":"GRC"}},
{"type":"Feature","geometry":{"type":"Polygon","coordinates":[[[25.52668650000004,36.89137149999998],[25.52765320000009,36.85696859999999],[25.499691,36.876601],[25.52668650000004,36.89137149999998]]]},"properties":{"cat":177,"name_en":"Greece","ISO3166_1_":"GRC"}},
{"type":"Feature","geometry":{"type":"Polygon","coordinates":[[[25.649531900000085,36.90696950000003],[25.67170290000007,36.9013108],[25.679507300000097,36.87419070000004],[25.651067900000072,36.8742322],[25.630539500000083,36.8957055],[25.649531900000085,36.90696950000003]]]},"properties":{"cat":177,"name_en":"Greece","ISO3166_1_":"GRC"}},
{"type":"Feature","geometry":null,"properties":{"cat":177,"name_en":"Greece","ISO3166_1_":"GRC"}},
{"type":"Feature","geometry":null,"properties":{"cat":177,"name_en":"Greece","ISO3166_1_":"GRC"}},
{"type":"Feature","geometry":null,"properties":{"cat":177,"name_en":"Greece","ISO3166_1_":"GRC"}},
{"type":"Feature","geometry":null,"properties":{"cat":177,"name_en":"Greece","ISO3166_1_":"GRC"}},
{"type":"Feature","geometry":null,"properties":{"cat":177,"name_en":"Greece","ISO3166_1_":"GRC"}},
{"type":"Feature","geometry":{"type":"Polygon","coordinates":[[[27.132390800000024,36.9578035],[27.172106,36.952544],[27.132958300000098,36.92217570000001],[27.10821160000006,36.95471770000003],[27.132390800000024,36.9578035]]]},"properties":{"cat":177,"name_en":"Greece","ISO3166_1_":"GRC"}},
{"type":"Feature","geometry":{"type":"Polygon","coordinates":[[[24.990027600000076,36.976499200000035],[25.02468790000006,36.9608984],[24.99233940000005,36.94943840000002],[24.975347500000026,36.96263570000005],[24.990027600000076,36.976499200000035]]]},"properties":{"cat":177,"name_en":"Greece","ISO3166_1_":"GRC"}},
{"type":"Feature","geometry":null,"properties":{"cat":177,"name_en":"Greece","ISO3166_1_":"GRC"}},
{"type":"Feature","geometry":null,"properties":{"cat":177,"name_en":"Greece","ISO3166_1_":"GRC"}},
{"type":"Feature","geometry":{"type":"Polygon","coordinates":[[[26.459455500000047,37.02328640000002],[26.497826500000087,36.999058],[26.448834500000117,36.99432859999999],[26.459455500000047,37.02328640000002]]]},"properties":{"cat":177,"name_en":"Greece","ISO3166_1_":"GRC"}},
{"type":"Feature","geometry":{"type":"Polygon","coordinates":[[[24.64165180000012,37.040464499999985],[24.67434440000008,37.024543],[24.697055800000015,37.02645970000003],[24.763856900000036,36.955658100000036],[24.7566355000001,36.94175360000003],[24.694731800000113,36.90989910000005],[24.666639900000035,36.9900865],[24.64165180000012,37.040464499999985]]]},"properties":{"cat":177,"name_en":"Greece","ISO3166_1_":"GRC"}},
{"type":"Feature","geometry":{"type":"Polygon","coordinates":[[[25.081462900000048,37.049391],[25.07340320000003,36.983281799999986],[25.04891790000005,36.95888419999997],[25.02948280000004,36.97356479999998],[25.02033730000005,37.00526420000001],[25.053146600000076,37.0374022],[25.081462900000048,37.049391]]]},"properties":{"cat":177,"name_en":"Greece","ISO3166_1_":"GRC"}},
{"type":"Feature","geometry":null,"properties":{"cat":177,"name_en":"Greece","ISO3166_1_":"GRC"}},
{"type":"Feature","geometry":null,"properties":{"cat":177,"name_en":"Greece","ISO3166_1_":"GRC"}},
{"type":"Feature","geometry":{"type":"Polygon","coordinates":[[[25.832216700000032,37.133565700000034],[25.81958810000006,37.12251790000005],[25.835104400000034,37.09389960000004],[25.81287160000008,37.0903396],[25.789461800000083,37.10050640000003],[25.81098810000003,37.131837799999985],[25.832216700000032,37.133565700000034]]]},"properties":{"cat":177,"name_en":"Greece","ISO3166_1_":"GRC"}},
{"type":"Feature","geometry":{"type":"Polygon","coordinates":[[[26.810474,37.20084669999997],[26.846920400000045,37.18818520000005],[26.86408540000008,37.15594080000004],[26.861655700000057,37.141431],[26.891985300000073,37.1118437],[26.886903800000084,37.10099930000004],[26.84305120000002,37.09892879999997],[26.812524400000115,37.126069500000014],[26.828078400000066,37.152428599999965],[26.795917100000025,37.15359960000005],[26.766977300000065,37.179296],[26.781367700000033,37.19386140000003],[26.810474,37.20084669999997]]]},"properties":{"cat":177,"name_en":"Greece","ISO3166_1_":"GRC"}},
{"type":"Feature","geometry":{"type":"Polygon","coordinates":[[[24.492596700000036,37.21001949999999],[24.532492700000034,37.19322520000006],[24.523718100000025,37.16737959999996],[24.539564100000092,37.143864499999964],[24.50018810000003,37.113848300000015],[24.493464800000083,37.12492569999996],[24.412464700000044,37.12486579999998],[24.435933300000016,37.16107630000005],[24.44059450000003,37.18608],[24.492596700000036,37.21001949999999]]]},"properties":{"cat":177,"name_en":"Greece","ISO3166_1_":"GRC"}},
{"type":"Feature","geometry":null,"properties":{"cat":177,"name_en":"Greece","ISO3166_1_":"GRC"}},
{"type":"Feature","geometry":null,"properties":{"cat":177,"name_en":"Greece","ISO3166_1_":"GRC"}},
{"type":"Feature","geometry":null,"properties":{"cat":177,"name_en":"Greece","ISO3166_1_":"GRC"}},
{"type":"Feature","geometry":null,"properties":{"cat":177,"name_en":"Greece","ISO3166_1_":"GRC"}},
{"type":"Feature","geometry":null,"properties":{"cat":177,"name_en":"Greece","ISO3166_1_":"GRC"}},
{"type":"Feature","geometry":{"type":"Polygon","coordinates":[[[23.117096400000037,37.28238939999997],[23.14376560000005,37.27507980000003],[23.17034890000008,37.25732329999998],[23.155934900000034,37.236255500000055],[23.128393800000055,37.2366853],[23.092278900000082,37.27804419999998],[23.117096400000037,37.28238939999997]]]},"properties":{"cat":177,"name_en":"Greece","ISO3166_1_":"GRC"}},
{"type":"Feature","geometry":null,"properties":{"cat":177,"name_en":"Greece","ISO3166_1_":"GRC"}},
{"type":"Feature","geometry":{"type":"Polygon","coordinates":[[[26.72362880000003,37.3271346],[26.748039100000028,37.309052500000035],[26.783620400000075,37.308792800000035],[26.78927780000012,37.285935],[26.76311540000009,37.278890700000034],[26.72079860000008,37.30028589999996],[26.72362880000003,37.3271346]]]},"properties":{"cat":177,"name_en":"Greece","ISO3166_1_":"GRC"}},
{"type":"Feature","geometry":{"type":"Polygon","coordinates":[[[23.353946800000102,37.3503056],[23.356556100000063,37.33086190000003],[23.300930600000044,37.32091310000003],[23.298260200000072,37.338816],[23.353946800000102,37.3503056]]]},"properties":{"cat":177,"name_en":"Greece","ISO3166_1_":"GRC"}},
{"type":"Feature","geometry":{"type":"Polygon","coordinates":[[[23.560553500000026,37.371180700000025],[23.49510580000009,37.318902500000036],[23.447761700000058,37.316681],[23.411545100000097,37.300346],[23.381776300000098,37.31468949999997],[23.42111760000006,37.3281456],[23.462542900000017,37.3519515],[23.507936800000095,37.36627270000001],[23.560553500000026,37.371180700000025]]]},"properties":{"cat":177,"name_en":"Greece","ISO3166_1_":"GRC"}},
{"type":"Feature","geometry":null,"properties":{"cat":177,"name_en":"Greece","ISO3166_1_":"GRC"}},
{"type":"Feature","geometry":{"type":"Polygon","coordinates":[[[26.567466600000074,37.378928900000034],[26.594515200000046,37.36207919999997],[26.560165200000085,37.34241580000007],[26.56107970000008,37.287284],[26.534676100000098,37.28705779999997],[26.533975,37.37856390000003],[26.567466600000074,37.378928900000034]]]},"properties":{"cat":177,"name_en":"Greece","ISO3166_1_":"GRC"}},
{"type":"Feature","geometry":null,"properties":{"cat":177,"name_en":"Greece","ISO3166_1_":"GRC"}},
{"type":"Feature","geometry":null,"properties":{"cat":177,"name_en":"Greece","ISO3166_1_":"GRC"}},
{"type":"Feature","geometry":null,"properties":{"cat":177,"name_en":"Greece","ISO3166_1_":"GRC"}},
{"type":"Feature","geometry":null,"properties":{"cat":177,"name_en":"Greece","ISO3166_1_":"GRC"}},
{"type":"Feature","geometry":null,"properties":{"cat":177,"name_en":"Greece","ISO3166_1_":"GRC"}},
{"type":"Feature","geometry":{"type":"Polygon","coordinates":[[[26.97828370000002,37.47459759999998],[27.00649,37.454656],[26.96021680000004,37.4436299],[26.945495300000033,37.44736560000001],[26.939003100000036,37.47661440000006],[26.97828370000002,37.47459759999998]]]},"properties":{"cat":177,"name_en":"Greece","ISO3166_1_":"GRC"}},
{"type":"Feature","geometry":null,"properties":{"cat":177,"name_en":"Greece","ISO3166_1_":"GRC"}},
{"type":"Feature","geometry":{"type":"Polygon","coordinates":[[[25.34617060000005,37.5003639],[25.405497200000042,37.4835579],[25.46123970000008,37.4752009],[25.457154500000087,37.44971870000002],[25.42267750000002,37.44242130000002],[25.401966600000037,37.42356779999999],[25.352913700000016,37.406604],[25.29971260000002,37.43177380000003],[25.324496500000038,37.444526600000046],[25.31166520000002,37.47017440000002],[25.314146600000072,37.49206530000002],[25.34617060000005,37.5003639]]]},"properties":{"cat":177,"name_en":"Greece","ISO3166_1_":"GRC"}},
{"type":"Feature","geometry":null,"properties":{"cat":177,"name_en":"Greece","ISO3166_1_":"GRC"}},
{"type":"Feature","geometry":{"type":"Polygon","coordinates":[[[24.886021000000113,37.51358260000002],[24.93085860000005,37.501103800000024],[24.946794100000062,37.485901],[24.949380200000093,37.45058820000003],[24.936907,37.435352899999955],[24.967609100000033,37.41428139999998],[24.95174170000007,37.38685420000003],[24.882560400000017,37.3763715],[24.882253800000058,37.3965783],[24.85698880000004,37.41132260000005],[24.896747600000054,37.4432766],[24.89348620000004,37.47858129999999],[24.90087180000006,37.48856959999998],[24.886021000000113,37.51358260000002]]]},"properties":{"cat":177,"name_en":"Greece","ISO3166_1_":"GRC"}},
{"type":"Feature","geometry":null,"properties":{"cat":177,"name_en":"Greece","ISO3166_1_":"GRC"}},
{"type":"Feature","geometry":{"type":"Polygon","coordinates":[[[23.485108100000048,37.559733800000046],[23.485231100000078,37.537600400000045],[23.522371600000014,37.51757759999998],[23.490961500000026,37.50096349999997],[23.428727900000098,37.51914330000004],[23.474402500000025,37.53402550000003],[23.485108100000048,37.559733800000046]]]},"properties":{"cat":177,"name_en":"Greece","ISO3166_1_":"GRC"}},
{"type":"Feature","geometry":{"type":"Polygon","coordinates":[[[26.436940400000083,37.60253250000005],[26.459145200000023,37.57874340000002],[26.449386,37.5634314],[26.416555300000056,37.58026780000003],[26.436940400000083,37.60253250000005]]]},"properties":{"cat":177,"name_en":"Greece","ISO3166_1_":"GRC"}},
{"type":"Feature","geometry":null,"properties":{"cat":177,"name_en":"Greece","ISO3166_1_":"GRC"}},
{"type":"Feature","geometry":{"type":"Polygon","coordinates":[[[24.734498400000064,37.6340318],[24.734175800000088,37.607192900000015],[24.709769,37.59427430000004],[24.685498400000057,37.60654190000005],[24.70941160000004,37.62930870000005],[24.734498400000064,37.6340318]]]},"properties":{"cat":177,"name_en":"Greece","ISO3166_1_":"GRC"}},
{"type":"Feature","geometry":null,"properties":{"cat":177,"name_en":"Greece","ISO3166_1_":"GRC"}},
{"type":"Feature","geometry":{"type":"Polygon","coordinates":[[[26.516224,37.6558664],[26.541231,37.61375120000005],[26.522917300000074,37.58734060000002],[26.496213100000062,37.576795399999966],[26.509231400000033,37.55173090000001],[26.49090640000003,37.53863610000003],[26.47308650000005,37.5854531],[26.496778300000045,37.58235069999998],[26.51374530000004,37.5939892],[26.497055200000034,37.64111359999998],[26.516224,37.6558664]]]},"properties":{"cat":177,"name_en":"Greece","ISO3166_1_":"GRC"}},
{"type":"Feature","geometry":null,"properties":{"cat":177,"name_en":"Greece","ISO3166_1_":"GRC"}},
{"type":"Feature","geometry":{"type":"Polygon","coordinates":[[[24.351130400000017,37.68768730000005],[24.392302,37.6747376],[24.403096600000026,37.6378151],[24.39396760000011,37.6163966],[24.357634200000064,37.57480920000003],[24.32517940000008,37.55535630000004],[24.294383900000042,37.52383659999997],[24.27184680000005,37.527929300000025],[24.28114730000007,37.57179910000002],[24.265113100000065,37.58137560000003],[24.268126400000057,37.609678100000025],[24.294697700000086,37.65910989999996],[24.351130400000017,37.68768730000005]]]},"properties":{"cat":177,"name_en":"Greece","ISO3166_1_":"GRC"}},
{"type":"Feature","geometry":null,"properties":{"cat":177,"name_en":"Greece","ISO3166_1_":"GRC"}},
{"type":"Feature","geometry":null,"properties":{"cat":177,"name_en":"Greece","ISO3166_1_":"GRC"}},
{"type":"Feature","geometry":{"type":"Polygon","coordinates":[[[23.347835900000035,37.71434139999998],[23.373701,37.694283],[23.32275690000003,37.681708499999985],[23.347835900000035,37.71434139999998]]]},"properties":{"cat":177,"name_en":"Greece","ISO3166_1_":"GRC"}},
{"type":"Feature","geometry":{"type":"Polygon","coordinates":[[[24.143618100000083,37.7562845],[24.151286800000094,37.72077530000004],[24.115013300000044,37.6981679],[24.131715400000076,37.746237],[24.143618100000083,37.7562845]]]},"properties":{"cat":177,"name_en":"Greece","ISO3166_1_":"GRC"}},
{"type":"Feature","geometry":{"type":"Polygon","coordinates":[[[23.505862500000063,37.774561300000016],[23.543493000000126,37.77304810000004],[23.565377700000056,37.76423720000004],[23.50140620000002,37.679451600000036],[23.469315700000067,37.6769604],[23.45806320000011,37.720426699999976],[23.436672300000083,37.72717559999998],[23.418512800000087,37.76288860000001],[23.45672380000002,37.77174790000002],[23.505862500000063,37.774561300000016]]]},"properties":{"cat":177,"name_en":"Greece","ISO3166_1_":"GRC"}},
{"type":"Feature","geometry":null,"properties":{"cat":177,"name_en":"Greece","ISO3166_1_":"GRC"}},
{"type":"Feature","geometry":null,"properties":{"cat":177,"name_en":"Greece","ISO3166_1_":"GRC"}},
{"type":"Feature","geometry":null,"properties":{"cat":177,"name_en":"Greece","ISO3166_1_":"GRC"}},
{"type":"Feature","geometry":{"type":"Polygon","coordinates":[[[24.256929100000065,38.023995599999964],[24.279382600000076,38.01103330000002],[24.277774600000072,37.978256799999954],[24.22871120000005,37.9845573],[24.256929100000065,38.023995599999964]]]},"properties":{"cat":177,"name_en":"Greece","ISO3166_1_":"GRC"}},
{"type":"Feature","geometry":null,"properties":{"cat":177,"name_en":"Greece","ISO3166_1_":"GRC"}},
{"type":"Feature","geometry":null,"properties":{"cat":177,"name_en":"Greece","ISO3166_1_":"GRC"}},
{"type":"Feature","geometry":null,"properties":{"cat":177,"name_en":"Greece","ISO3166_1_":"GRC"}},
{"type":"Feature","geometry":null,"properties":{"cat":177,"name_en":"Greece","ISO3166_1_":"GRC"}},
{"type":"Feature","geometry":null,"properties":{"cat":177,"name_en":"Greece","ISO3166_1_":"GRC"}},
{"type":"Feature","geometry":null,"properties":{"cat":177,"name_en":"Greece","ISO3166_1_":"GRC"}},
{"type":"Feature","geometry":null,"properties":{"cat":177,"name_en":"Greece","ISO3166_1_":"GRC"}},
{"type":"Feature","geometry":null,"properties":{"cat":177,"name_en":"Greece","ISO3166_1_":"GRC"}},
{"type":"Feature","geometry":null,"properties":{"cat":177,"name_en":"Greece","ISO3166_1_":"GRC"}},
{"type":"Feature","geometry":null,"properties":{"cat":177,"name_en":"Greece","ISO3166_1_":"GRC"}},
{"type":"Feature","geometry":null,"properties":{"cat":177,"name_en":"Greece","ISO3166_1_":"GRC"}},
{"type":"Feature","geometry":{"type":"Polygon","coordinates":[[[26.18568920000007,38.5433957],[26.22522630000006,38.53782539999999],[26.263753600000058,38.52140730000002],[26.257401100000067,38.50450890000002],[26.21971910000002,38.5122602],[26.18568920000007,38.5433957]]]},"properties":{"cat":177,"name_en":"Greece","ISO3166_1_":"GRC"}},
{"type":"Feature","geometry":null,"properties":{"cat":177,"name_en":"Greece","ISO3166_1_":"GRC"}},
{"type":"Feature","geometry":null,"properties":{"cat":177,"name_en":"Greece","ISO3166_1_":"GRC"}},
{"type":"Feature","geometry":null,"properties":{"cat":177,"name_en":"Greece","ISO3166_1_":"GRC"}},
{"type":"Feature","geometry":{"type":"Polygon","coordinates":[[[25.57010720000008,38.6087647],[25.620534,38.5891125],[25.621172100000052,38.5746932],[25.603999600000094,38.532968700000055],[25.555732800000015,38.548747599999984],[25.566652700000077,38.56071229999998],[25.530571200000026,38.592977700000034],[25.57010720000008,38.6087647]]]},"properties":{"cat":177,"name_en":"Greece","ISO3166_1_":"GRC"}},
{"type":"Feature","geometry":null,"properties":{"cat":177,"name_en":"Greece","ISO3166_1_":"GRC"}},
{"type":"Feature","geometry":{"type":"Polygon","coordinates":[[[20.952885,38.653872400000026],[20.960931,38.644132499999984],[20.927735400000017,38.61528439999998],[20.869484800000038,38.600636],[20.902476300000046,38.64665729999999],[20.952885,38.653872400000026]]]},"properties":{"cat":177,"name_en":"Greece","ISO3166_1_":"GRC"}},
{"type":"Feature","geometry":{"type":"Polygon","coordinates":[[[20.783006800000067,38.6782404],[20.799352,38.650812300000055],[20.7532317000001,38.625863],[20.735145900000077,38.64263580000005],[20.741569200000043,38.66856419999998],[20.76434130000004,38.65999450000004],[20.783006800000067,38.6782404]]]},"properties":{"cat":177,"name_en":"Greece","ISO3166_1_":"GRC"}},
{"type":"Feature","geometry":null,"properties":{"cat":177,"name_en":"Greece","ISO3166_1_":"GRC"}},
{"type":"Feature","geometry":null,"properties":{"cat":177,"name_en":"Greece","ISO3166_1_":"GRC"}},
{"type":"Feature","geometry":{"type":"Polygon","coordinates":[[[24.50686980000006,38.83867450000001],[24.491917400000062,38.79839059999996],[24.478082300000096,38.80634970000001],[24.50686980000006,38.83867450000001]]]},"properties":{"cat":177,"name_en":"Greece","ISO3166_1_":"GRC"}},
{"type":"Feature","geometry":null,"properties":{"cat":177,"name_en":"Greece","ISO3166_1_":"GRC"}},
{"type":"Feature","geometry":null,"properties":{"cat":177,"name_en":"Greece","ISO3166_1_":"GRC"}},
{"type":"Feature","geometry":null,"properties":{"cat":177,"name_en":"Greece","ISO3166_1_":"GRC"}},
{"type":"Feature","geometry":null,"properties":{"cat":177,"name_en":"Greece","ISO3166_1_":"GRC"}},
{"type":"Feature","geometry":null,"properties":{"cat":177,"name_en":"Greece","ISO3166_1_":"GRC"}},
{"type":"Feature","geometry":null,"properties":{"cat":177,"name_en":"Greece","ISO3166_1_":"GRC"}},
{"type":"Feature","geometry":{"type":"Polygon","coordinates":[[[23.461195400000094,39.21126079999998],[23.505241100000063,39.192994500000026],[23.508293700000053,39.15980860000002],[23.47625,39.16075],[23.44197850000009,39.141245799999965],[23.41563290000002,39.13962609999997],[23.38981030000005,39.158376],[23.440829500000063,39.180076],[23.441478300000085,39.19819890000005],[23.461195400000094,39.21126079999998]]]},"properties":{"cat":177,"name_en":"Greece","ISO3166_1_":"GRC"}},
{"type":"Feature","geometry":{"type":"Polygon","coordinates":[[[23.604933100000125,39.21141089999996],[23.638839500000046,39.1796639],[23.68245170000006,39.15704780000003],[23.724134700000036,39.14494269999996],[23.72226,39.13118239999997],[23.783277400000088,39.12959740000002],[23.790835400000077,39.11979969999999],[23.766290200000128,39.08824490000002],[23.7325407000001,39.071981],[23.70102330000003,39.08557840000002],[23.662278300000054,39.08700270000001],[23.654986600000058,39.1224],[23.60988820000003,39.16834690000002],[23.589489600000036,39.203876400000055],[23.604933100000125,39.21141089999996]]]},"properties":{"cat":177,"name_en":"Greece","ISO3166_1_":"GRC"}},
{"type":"Feature","geometry":{"type":"Polygon","coordinates":[[[23.97405930000005,39.23784369999997],[23.98742940000008,39.182971],[23.96918480000005,39.16403419999996],[23.93841820000003,39.1809404],[23.978622500000057,39.1947804],[23.964274300000085,39.21470940000003],[23.97405930000005,39.23784369999997]]]},"properties":{"cat":177,"name_en":"Greece","ISO3166_1_":"GRC"}},
{"type":"Feature","geometry":{"type":"Polygon","coordinates":[[[20.13098860000005,39.24116089999998],[20.169184900000033,39.223334800000046],[20.20274770000006,39.18986349999996],[20.19695450000006,39.178177099999985],[20.162861100000015,39.1845922],[20.127004300000095,39.22280039999997],[20.13098860000005,39.24116089999998]]]},"properties":{"cat":177,"name_en":"Greece","ISO3166_1_":"GRC"}},
{"type":"Feature","geometry":{"type":"Polygon","coordinates":[[[23.9545,39.292],[23.958962100000036,39.27213710000004],[23.978197600000072,39.25576819999996],[23.9453611000001,39.223812799999976],[23.91925,39.175],[23.898598400000026,39.1692441],[23.865612300000095,39.1368215],[23.82833320000009,39.15034290000001],[23.87475,39.17125],[23.8735,39.1985],[23.887,39.2195],[23.91625,39.235],[23.91575,39.2495],[23.9545,39.292]]]},"properties":{"cat":177,"name_en":"Greece","ISO3166_1_":"GRC"}},
{"type":"Feature","geometry":{"type":"Polygon","coordinates":[[[24.072803600000015,39.3681268],[24.09904530000003,39.348916600000024],[24.094936500000045,39.31051559999999],[24.069505700000093,39.293308800000034],[24.047972300000083,39.304297],[24.04476340000005,39.3412541],[24.072803600000015,39.3681268]]]},"properties":{"cat":177,"name_en":"Greece","ISO3166_1_":"GRC"}},
{"type":"Feature","geometry":null,"properties":{"cat":177,"name_en":"Greece","ISO3166_1_":"GRC"}},
{"type":"Feature","geometry":{"type":"Polygon","coordinates":[[[24.17611890000009,39.4296797],[24.183994,39.398548],[24.175229700000045,39.37792350000002],[24.15207980000008,39.37774440000004],[24.15915540000003,39.407186399999986],[24.17611890000009,39.4296797]]]},"properties":{"cat":177,"name_en":"Greece","ISO3166_1_":"GRC"}},
{"type":"Feature","geometry":{"type":"Polygon","coordinates":[[[25.00553990000006,39.56148009999998],[25.052631200000064,39.53201690000006],[25.05299080000006,39.52109830000002],[25.024821900000035,39.4953428],[24.99949870000009,39.48271349999999],[24.974662600000016,39.482380300000045],[24.97092920000003,39.507962800000044],[24.97792250000009,39.535491700000065],[25.00553990000006,39.56148009999998]]]},"properties":{"cat":177,"name_en":"Greece","ISO3166_1_":"GRC"}},
{"type":"Feature","geometry":null,"properties":{"cat":177,"name_en":"Greece","ISO3166_1_":"GRC"}},
{"type":"Feature","geometry":null,"properties":{"cat":177,"name_en":"Greece","ISO3166_1_":"GRC"}},
{"type":"Feature","geometry":null,"properties":{"cat":177,"name_en":"Greece","ISO3166_1_":"GRC"}},
{"type":"Feature","geometry":null,"properties":{"cat":177,"name_en":"Greece","ISO3166_1_":"GRC"}},
{"type":"Feature","geometry":{"type":"Polygon","coordinates":[[[23.916879600000044,40.341182900000035],[23.91596930000003,40.3149494],[23.885822800000057,40.33028270000001],[23.916879600000044,40.341182900000035]]]},"properties":{"cat":177,"name_en":"Greece","ISO3166_1_":"GRC"}},
{"type":"Feature","geometry":{"type":"Polygon","coordinates":[[[25.565066,40.510277],[25.652520300000077,40.49400360000001],[25.699644800000073,40.46374950000002],[25.696705100000116,40.4230493],[25.599472700000092,40.393742699999976],[25.559186800000077,40.39625280000001],[25.542685800000072,40.41429440000002],[25.509127800000016,40.425397],[25.458850900000044,40.4582843],[25.49471520000006,40.49476380000003],[25.565066,40.510277]]]},"properties":{"cat":177,"name_en":"Greece","ISO3166_1_":"GRC"}},
{"type":"Feature","geometry":{"type":"Polygon","coordinates":[[[22.75710030000002,41.27427480000004],[22.756805300000025,41.27431510000001],[22.7572988,41.2770483],[22.75748009999998,41.27694150000006],[22.756344300000023,41.30443269999998],[22.78037130000007,41.3272396],[22.780438300000014,41.327203400000016],[22.807830300000063,41.33845689999997],[22.808109400000063,41.33836970000006],[22.81918740000006,41.33643019999998],[22.819467100000026,41.336352],[22.820040800000072,41.336222800000044],[22.820306600000038,41.33612639999997],[22.835887600000035,41.33757310000003],[22.836188200000038,41.3375942],[22.86973839999999,41.3412073],[22.870036400000032,41.34119219999998],[22.8737308,41.34035469999996],[22.874026600000036,41.340312500000024],[22.87462030000006,41.34025530000001],[22.874917500000038,41.340222200000014],[22.879080300000027,41.341117400000016],[22.881150900000023,41.340372],[22.932477100000085,41.3405214],[22.97387530000003,41.33249660000003],[23.038353500000056,41.33224470000006],[23.076279200000016,41.320044],[23.162261200000074,41.322397],[23.18003340000007,41.3187336],[23.220403,41.33280680000003],[23.2322688000001,41.37584309999998],[23.258526800000027,41.38257130000005],[23.28172480000009,41.39979020000003],[23.322695900000042,41.39911019999998],[23.34049330000002,41.3635213],[23.400846400000034,41.40027589999997],[23.438669100000084,41.4065869],[23.482421,41.39923449999996],[23.525530400000065,41.4051485],[23.551538,41.38638989999998],[23.577896500000065,41.39061890000005],[23.615637900000053,41.37537160000005],[23.640376400000036,41.376652],[23.647942800000095,41.39444279999998],[23.67422730000007,41.4107002],[23.691362800000093,41.4043984],[23.742628900000085,41.4057659],[23.76758840000005,41.39604160000002],[23.800690700000075,41.437491],[23.82292380000007,41.43633209999997],[23.907470300000085,41.458726100000035],[23.91390860000007,41.48176210000001],[23.965987800000022,41.439435300000056],[24.021594200000067,41.4645341],[24.048301400000042,41.4519113],[24.07334830000005,41.46992350000005],[24.059635100000065,41.52021040000005],[24.076927,41.5416028],[24.101958100000076,41.55047920000001],[24.11622440000008,41.539751],[24.149804600000124,41.538965900000065],[24.18234750000002,41.514643100000015],[24.198093,41.539065500000035],[24.229239200000052,41.546749200000036],[24.26046,41.572820599999986],[24.303194800000057,41.53801259999996],[24.302167300000036,41.512253],[24.383565600000082,41.5361],[24.450382400000052,41.521872499999986],[24.47649250000009,41.5529126],[24.53491690000007,41.56522640000003],[24.562635500000056,41.5172643],[24.559116400000022,41.5014663],[24.57239990000008,41.47506879999999],[24.594867600000015,41.46721570000001],[24.608091900000062,41.427678600000036],[24.649307600000014,41.43483960000003],[24.65971550000009,41.4206697],[24.730387600000114,41.41576469999997],[24.735628700000063,41.39678480000005],[24.770230900000087,41.364798100000044],[24.80403990000005,41.34636270000006],[24.816653600000024,41.35457880000004],[24.820737300000047,41.40135250000006],[24.881970900000027,41.39208119999998],[24.900252700000095,41.40750430000004],[24.976878400000032,41.376056],[25.041724,41.36743260000007],[25.063975500000083,41.3598],[25.082742600000074,41.338133200000016],[25.122791800000044,41.334587900000045],[25.13273680000009,41.3229339],[25.181632600000114,41.307535],[25.18980360000009,41.29444410000005],[25.2224322000001,41.2792669],[25.239052600000093,41.24525339999998],[25.336622700000078,41.2414815],[25.36712360000007,41.25995790000002],[25.385856600000068,41.256172400000054],[25.475362800000056,41.2884719],[25.532045700000083,41.280669699999976],[25.54530580000005,41.3106848],[25.57481050000004,41.319292200000035],[25.591365900000085,41.30790050000002],[25.627268300000054,41.3054152],[25.65811560000003,41.31454449999997],[25.694678700000026,41.301357399999986],[25.717758400000065,41.31569480000002],[25.779349300000035,41.3218487],[25.819528700000035,41.34008170000003],[25.84604020000006,41.33744149999998],[25.883919,41.30440909999997],[25.934451600000045,41.320581799999985],[25.97472360000009,41.318060299999985],[25.99892580000008,41.32697360000002],[26.011738600000086,41.34444890000006],[26.041847600000068,41.3503134],[26.07943290000003,41.346055500000034],[26.107186700000085,41.357416800000024],[26.132219200000065,41.355014700000055],[26.164287700000074,41.407943],[26.159526300000124,41.419858300000016],[26.192704700000036,41.44675260000001],[26.155398100000042,41.47373889999999],[26.18391440000005,41.51896610000003],[26.176779100000033,41.554496500000056],[26.147386600000033,41.5545055],[26.150063300000056,41.596281599999955],[26.120680000000107,41.62414310000004],[26.09421270000007,41.62682210000001],[26.06425480000007,41.662425200000015],[26.06036540000005,41.68860590000003],[26.08590550000008,41.71691420000006],[26.113603800000107,41.71425060000003],[26.122021300000057,41.7308567],[26.166360700000013,41.74759020000005],[26.214584100000053,41.73195390000002],[26.234245700000088,41.73882410000003],[26.277109700000068,41.713305199999965],[26.367112600000013,41.71132530000001],[26.377529800000048,41.698861800000046],[26.421959100000066,41.68482959999996],[26.441364900000053,41.68639120000002],[26.471085500000044,41.66945460000005],[26.529210900000066,41.62181020000003],[26.56844440000006,41.61025629999999],[26.595173300000056,41.61019049999997],[26.5986324000001,41.58032790000004],[26.587180300000057,41.57055480000001],[26.59850860000006,41.54535729999998],[26.591149,41.52829410000001],[26.613245400000096,41.462983],[26.61315570000005,41.42415430000001],[26.629539900000054,41.4175201],[26.635428200000092,41.38373140000003],[26.62765890000003,41.3487666],[26.586631300000107,41.322602],[26.544099600000067,41.34218270000005],[26.497946400000046,41.3282615],[26.488900700000073,41.3062664],[26.465775800000017,41.3010636],[26.460519100000027,41.28179440000004],[26.435378600000092,41.278513],[26.39144890000003,41.249642200000025],[26.323162900000085,41.2533053],[26.317681300000032,41.236163800000014],[26.33072290000004,41.2181307],[26.30743080000002,41.171893300000036],[26.336784600000044,41.14341890000004],[26.32088640000009,41.133772],[26.331935800000025,41.097026200000016],[26.310484900000034,41.08031170000004],[26.34526820000005,41.03078760000001],[26.36673060000004,41.017966899999976],[26.358924800000068,41.000865500000046],[26.325626300000067,40.979558200000014],[26.348678100000086,40.9640015],[26.356998100000084,40.94343179999997],[26.32733440000007,40.94400489999997],[26.284715400000096,40.92400009999997],[26.30183930000004,40.90270279999997],[26.251441,40.88586],[26.220752300000072,40.884739],[26.20431110000004,40.8476651],[26.220153,40.83536890000002],[26.157789500000035,40.80896850000002],[26.12669390000005,40.77118850000004],[26.125003,40.74272690000002],[26.073596500000036,40.72744679999998],[26.036273,40.73019870000003],[26.036163,40.775658],[26.011121,40.813187],[25.949847,40.841657],[25.914594,40.847492],[25.867257200000097,40.84160160000003],[25.815344700000054,40.851054599999955],[25.7300240000001,40.846121],[25.624564500000076,40.864901],[25.587895,40.868472],[25.562433,40.857375],[25.509342,40.872618],[25.498612,40.883518],[25.455325,40.89758],[25.379576,40.90989],[25.360611100000085,40.935057400000034],[25.31991610000003,40.9440773],[25.294489,40.942037],[25.258391,40.924296],[25.251326,40.935485],[25.174577900000116,40.94036970000002],[25.129746400000016,40.9560848],[25.13550000000012,40.997465],[25.08136,41.006588],[25.054497,40.998179],[25.00103450000006,40.96209430000002],[24.985720100000094,40.93114990000002],[24.95825360000009,40.932720300000014],[24.892805800000048,40.91511270000004],[24.822997900000047,40.86645239999997],[24.804586400000062,40.845921399999966],[24.754882200000054,40.86013949999999],[24.707184000000126,40.8513214],[24.693821500000098,40.86717470000005],[24.66156360000005,40.87334949999999],[24.625721700000014,40.8653823],[24.58415190000008,40.90661870000005],[24.55486010000004,40.9504461],[24.511206100000038,40.95880479999998],[24.4689149000001,40.9442725],[24.42769610000005,40.94392840000003],[24.394507800000042,40.9339309],[24.37490820000008,40.90797039999998],[24.33494790000009,40.893075199999984],[24.306249,40.84255519999998],[24.31496720000004,40.81900249999997],[24.289987600000018,40.811822200000066],[24.203877100000057,40.774044299999986],[24.147337200000067,40.7413331],[24.067012100000085,40.71785820000002],[24.04528810000005,40.7186446],[23.92128960000005,40.7534901],[23.84835670000004,40.786244099999976],[23.74435480000008,40.7573641],[23.715578800000088,40.72757139999999],[23.69842390000008,40.69747220000002],[23.69557,40.6672029],[23.74172260000006,40.65575],[23.78111370000005,40.61406730000003],[23.780888300000044,40.59984559999998],[23.803126300000088,40.57992590000002],[23.819769,40.579392600000034],[23.83346910000003,40.55698039999997],[23.893291900000065,40.554983200000024],[23.895112200000057,40.51912690000003],[23.830965400000082,40.51742469999998],[23.820325300000093,40.48857259999998],[23.838315400000084,40.440573],[23.891425,40.3938899],[23.930850400000026,40.381005],[23.971869300000037,40.377124],[24.01073430000008,40.3893138],[23.999653,40.41185220000001],[24.019713100000047,40.424162],[24.066866900000065,40.36709620000005],[24.16043,40.35685449999997],[24.194027,40.339705],[24.191177800000048,40.32240920000004],[24.2485889000001,40.30969750000004],[24.270956500000096,40.289177],[24.285455400000075,40.24741619999999],[24.328299800000053,40.2228696],[24.342381300000056,40.2053521],[24.374508800000058,40.192736],[24.397936300000026,40.14910839999999],[24.39234950000005,40.13729020000004],[24.30175310000004,40.115328400000024],[24.279440700000066,40.163326800000036],[24.217580800000064,40.20318769999997],[24.217755200000028,40.223472699999974],[24.194502600000078,40.2394535],[24.155948400000057,40.28383780000003],[24.091457,40.286512199999976],[24.039617400000054,40.293048699999986],[23.979603600000047,40.3248561],[23.963540200000097,40.346554],[23.93384450000005,40.360147800000064],[23.888653800000014,40.3605519],[23.850720900000056,40.37002049999998],[23.806852200000066,40.35457310000004],[23.783297300000072,40.336659300000036],[23.735715600000077,40.35394630000005],[23.70815610000011,40.33436190000002],[23.693627800000087,40.28710779999996],[23.70985950000008,40.25714159999998],[23.737135100000017,40.22963629999997],[23.761294100000015,40.222422899999984],[23.762993800000032,40.2036261],[23.79122330000004,40.187335700000034],[23.915139,40.15801840000002],[23.934309900000017,40.138139599999974],[23.993117500000068,40.11283580000003],[23.981926100000095,40.078283799999966],[24.008172800000068,40.0583064],[23.986199800000037,40.0459088],[24.022646800000047,40.017150899999976],[23.98722440000006,39.9830112],[23.994899700000076,39.955428399999974],[23.942528800000048,39.938082],[23.903108400000036,39.96095940000002],[23.903629100000046,39.9835369],[23.873393600000014,39.996028],[23.854733100000033,40.0167809],[23.813525900000087,40.02437130000001],[23.812850500000053,40.04157730000007],[23.78652770000008,40.06473450000003],[23.79207610000006,40.0888428],[23.772902900000048,40.096051400000036],[23.774117,40.11531460000005],[23.732603100000034,40.14300390000001],[23.724196900000038,40.16716010000003],[23.697223600000058,40.192550200000014],[23.651689400000095,40.2247868],[23.585177500000043,40.225270200000026],[23.52097740000002,40.24126690000003],[23.498141900000036,40.25815149999997],[23.46104580000005,40.262098200000025],[23.429480100000063,40.27584850000005],[23.389322700000037,40.274699],[23.337619300000057,40.2242756],[23.31641440000007,40.217052],[23.292000200000018,40.236987],[23.218827,40.2561865],[23.195814800000022,40.257297],[23.170302900000024,40.27187650000003],[23.139682,40.2752785],[23.122661,40.290672600000036],[23.018039100000095,40.32575180000002],[23.01247720000009,40.346733600000036],[22.979235,40.36922609999998],[22.951897900000063,40.37860279999998],[22.910424500000033,40.37984510000001],[22.881928800000026,40.426532],[22.866693800000093,40.4317196],[22.851164900000043,40.46918880000004],[22.821834900000056,40.4753082],[22.816522400000053,40.50192],[22.90992890000004,40.505389],[22.947628100000117,40.518123100000025],[22.97438770000005,40.53525220000003],[22.980756300000053,40.5523316],[22.937986900000055,40.5794426],[22.95183890000007,40.62096210000004],[22.92859040000002,40.63682630000001],[22.89402640000003,40.64400350000001],[22.861126600000063,40.62665],[22.856724300000053,40.59461439999997],[22.794934700000084,40.5641713],[22.773980900000083,40.5697913],[22.741271200000057,40.5583353],[22.732150600000097,40.517908],[22.704525,40.529615500000034],[22.65659240000008,40.523380900000035],[22.65585930000009,40.48211780000007],[22.62974820000005,40.47290339999998],[22.594394600000015,40.473182199999954],[22.58595340000005,40.459932],[22.606563,40.44168949999998],[22.61984390000009,40.38731489999998],[22.66223890000009,40.363606],[22.62831630000005,40.319381900000025],[22.5994400000001,40.27128329999998],[22.586511700000045,40.22576810000001],[22.590938300000033,40.21133739999998],[22.565989200000047,40.18548070000003],[22.547767700000065,40.1423339],[22.568219800000037,40.09793230000005],[22.569725300000073,40.05812569999998],[22.586674300000084,40.03840920000003],[22.595057300000036,40.011405],[22.64658120000007,39.98063890000002],[22.706654100000094,39.954320300000035],[22.718483200000065,39.9350322],[22.713466500000038,39.90986369999999],[22.739128900000082,39.8666188],[22.770004500000056,39.85548850000002],[22.813118300000042,39.816378],[22.852274400000027,39.8005],[22.865264600000046,39.737128],[22.887132,39.6818004],[22.903731600000043,39.62589589999999],[22.935666,39.573472200000026],[23.012154500000037,39.5330961],[23.048810400000093,39.5279618],[23.09178390000008,39.5016342],[23.11446730000003,39.46387190000004],[23.169973300000095,39.408274100000014],[23.1931321000001,39.3950383],[23.207759100000033,39.364314200000024],[23.232947100000075,39.34181380000004],[23.254635100000087,39.33591170000001],[23.275180500000033,39.31446740000003],[23.282086900000024,39.2773042],[23.317174200000068,39.245659200000034],[23.332517700000096,39.21011190000003],[23.35126790000004,39.187292300000024],[23.323578500000053,39.15019370000002],[23.301967800000057,39.1402534],[23.271643700000055,39.140591700000016],[23.249095600000032,39.1262642],[23.219182600000096,39.1290207],[23.201523800000075,39.101880299999976],[23.17551590000005,39.1027535],[23.114365700000036,39.08564750000005],[23.073486100000025,39.08484120000004],[23.05238390000008,39.09484030000003],[23.069486900000044,39.13960740000002],[23.101180500000055,39.15200810000003],[23.114946600000053,39.1381494],[23.094724200000087,39.10667380000001],[23.112945300000035,39.1042905],[23.142126500000074,39.1210901],[23.178136900000112,39.1290251],[23.222178,39.1764791],[23.195759500000065,39.201423],[23.164155300000033,39.27264290000005],[23.12112480000002,39.304875],[23.073951100000045,39.31518450000003],[23.020583500000043,39.316126100000034],[23.01124520000002,39.33943],[22.991949600000083,39.351218200000034],[22.943874700000066,39.34396510000005],[22.925251700000075,39.31962630000001],[22.936235400000015,39.2944279],[22.876421900000025,39.2925074],[22.821952500000094,39.2774405],[22.814343800000103,39.2385795],[22.822494600000084,39.207496900000024],[22.855493300000063,39.15245619999999],[22.871303900000044,39.164144500000035],[22.910634,39.160191299999966],[22.922393,39.112892],[22.955298300000038,39.1181154],[22.994356,39.0712004],[22.990505600000063,39.03968120000006],[22.961652100000038,39.03220970000004],[22.957835600000095,39.00945910000004],[22.998361700000032,39.01711519999998],[23.047444900000073,39.038823100000016],[23.05944020000004,39.02102240000005],[23.02553380000009,39.01442819999997],[22.991831,38.94525079999998],[22.96422830000003,38.95184909999996],[22.917647600000095,38.91832610000003],[22.855163600000054,38.92631890000003],[22.83103120000004,38.8886883],[22.753860100000082,38.86893230000004],[22.67293920000003,38.88220740000001],[22.646204,38.903946499999975],[22.605202200000093,38.909608300000016],[22.558283300000056,38.8856037],[22.56298130000002,38.852577],[22.55525620000006,38.83238880000005],[22.605263900000068,38.82055940000005],[22.63170990000009,38.83785780000002],[22.643907500000097,38.83036960000004],[22.686157200000054,38.84100449999997],[22.72326760000007,38.825641800000014],[22.766366900000094,38.78069589999997],[22.80686850000012,38.78033309999998],[22.838676700000093,38.772640200000026],[22.870122500000093,38.75478240000004],[22.898114100000015,38.776458600000026],[22.922036100000042,38.77069620000002],[22.9350127000001,38.7551138],[22.964566,38.745563300000015],[23.018944600000054,38.74866],[23.032540200000085,38.75599340000005],[23.066983300000032,38.715397600000045],[23.060968400000093,38.69281229999997],[23.101644100000044,38.62711760000002],[23.12930630000008,38.632743600000026],[23.139922,38.64636829999996],[23.16450960000003,38.64328339999999],[23.192378200000093,38.6559555],[23.195754900000054,38.680471],[23.25562020000004,38.6434146],[23.284710300000086,38.649365400000065],[23.320525700000076,38.63866639999998],[23.34048080000005,38.6051159],[23.30716510000005,38.58934669999998],[23.30860480000004,38.5679991],[23.328676500000086,38.53626210000006],[23.364002600000077,38.53495540000003],[23.36573960000007,38.5199277],[23.334961900000025,38.51817650000005],[23.340687800000126,38.4975345],[23.371645500000056,38.51050540000003],[23.40527710000009,38.509562299999985],[23.410582800000043,38.49878540000003],[23.46401730000008,38.49938970000002],[23.478192700000022,38.486436200000014],[23.51277440000007,38.480077799999975],[23.53474920000008,38.5006326],[23.55987740000006,38.5017724],[23.59233240000006,38.4723203],[23.569903700000083,38.446776900000046],[23.59823760000009,38.4419406],[23.603139200000015,38.4189835],[23.63294910000002,38.4096994],[23.630892900000077,38.3783092],[23.676572,38.340337],[23.73235920000002,38.33377470000006],[23.767397500000072,38.339216600000015],[23.786763600000057,38.32148579999996],[23.806481100000013,38.3277969],[23.83296340000004,38.3119514],[23.86807520000005,38.3079576],[23.956847800000077,38.28330649999998],[24.0482827000001,38.20803369999997],[24.072304600000024,38.1999822],[24.055564600000054,38.14173170000004],[24.035548900000066,38.14177220000002],[23.988679700000034,38.11635879999997],[23.981473900000083,38.09368840000005],[23.99853630000007,38.065503],[23.999984700000084,38.034378],[24.029382500000025,37.9942614],[24.006819800000045,37.96725930000005],[24.016784700000045,37.9389411],[24.04285580000004,37.8951484],[24.015545100000054,37.878038399999966],[24.05787150000006,37.8568766],[24.045881300000104,37.82223829999998],[24.08378410000003,37.79729080000003],[24.07396150000008,37.755061400000045],[24.05280860000002,37.73268710000002],[24.066791900000084,37.71325709999998],[24.066907600000064,37.6770831],[24.010953700000044,37.655002],[23.937918400000058,37.67194719999996],[23.935689500000024,37.70904020000003],[23.903555400000073,37.7320193],[23.9013,37.77413770000004],[23.870006200000034,37.799581300000014],[23.804189800000046,37.819194400000015],[23.79708670000005,37.79978250000005],[23.76670930000006,37.81712160000002],[23.770108200000095,37.8316912],[23.729829,37.875285700000035],[23.71901660000003,37.90289050000003],[23.66954240000004,37.94212129999997],[23.632093800000035,37.92635],[23.60377170000004,37.9614009],[23.557454300000018,37.96235770000003],[23.551984,37.97987560000004],[23.59732790000004,38.00967630000001],[23.597379500000045,38.0287794],[23.576421400000044,38.044567200000046],[23.541517300000066,38.0344601],[23.527063400000088,38.04378880000003],[23.494052900000014,38.026820500000014],[23.446871500000015,38.02057330000004],[23.417504500000064,37.99079909999996],[23.381254500000097,37.97211469999998],[23.32510980000012,37.9772728],[23.314432500000038,37.97028210000005],[23.27903020000005,37.97762440000004],[23.243336400000032,37.9760503],[23.19740180000008,37.954173],[23.1662989000001,37.94892570000003],[23.138906600000013,37.921575200000035],[23.056679500000058,37.91229840000004],[23.04984120000003,37.92229239999996],[23.008245500000072,37.91331140000001],[23.016046500000073,37.89979570000001],[22.992148800000052,37.877676100000016],[23.00449310000002,37.84876050000001],[23.04627840000012,37.84705810000003],[23.063278300000064,37.8389605],[23.1080051000001,37.8483233],[23.140183900000096,37.83364120000003],[23.177340600000036,37.80521129999998],[23.179598600000077,37.777431900000025],[23.1482252000001,37.75928760000005],[23.11689,37.755546],[23.138473600000083,37.725791599999965],[23.172584800000095,37.703593699999956],[23.153642200000036,37.66987559999997],[23.168362400000035,37.652946099999966],[23.15973580000002,37.61668079999998],[23.218480700000043,37.5891576],[23.263675900000095,37.572564],[23.268901200000073,37.556936],[23.3321624000001,37.53243380000005],[23.368332200000083,37.552507],[23.334654,37.5996927],[23.307416600000067,37.6179123],[23.344942100000054,37.6369424],[23.38519160000007,37.6408699],[23.402827800000125,37.63507879999999],[23.41529520000006,37.61293940000003],[23.407295800000043,37.59223279999998],[23.373857500000014,37.5553247],[23.40307580000004,37.53430079999998],[23.40396260000003,37.509426799999986],[23.43634780000005,37.503941900000015],[23.498264900000095,37.472027599999976],[23.519272900000033,37.4556578],[23.51647520000003,37.43030940000001],[23.40909330000008,37.40390910000002],[23.33917620000011,37.41438879999998],[23.295769300000046,37.393604],[23.26882040000004,37.40657570000003],[23.247196200000076,37.3837471],[23.246044200000057,37.34611160000006],[23.194415500000076,37.3407887],[23.17985740000009,37.32128069999999],[23.200776500000046,37.30522570000004],[23.174954900000074,37.285872200000014],[23.12009620000009,37.3207679],[23.124971600000066,37.341969800000015],[23.110201300000085,37.35102540000001],[23.067656,37.352063],[23.074024200000053,37.37301310000004],[23.134503,37.419434],[23.123263600000058,37.44977020000002],[23.092085200000042,37.45539990000006],[23.062936500000035,37.4498761],[23.045726,37.48035559999998],[23.00697130000006,37.46535279999996],[22.976432600000066,37.5168575],[22.93751850000004,37.5199157],[22.92199080000009,37.529715900000056],[22.86915520000008,37.5277772],[22.856089900000057,37.513094],[22.819920400000086,37.5281562],[22.799368600000037,37.562949],[22.80128140000005,37.57381659999997],[22.769512900000052,37.5907346],[22.726035,37.5733177],[22.717030600000044,37.5621968],[22.73703210000005,37.521131699999984],[22.72794190000002,37.49467930000003],[22.744979300000068,37.46488990000003],[22.748443300000076,37.440694],[22.765307400000097,37.424902600000024],[22.752845900000096,37.39465050000001],[22.774081600000073,37.387269500000016],[22.860904600000083,37.24765369999999],[22.8822708000001,37.2336637],[22.899504800000074,37.17790589999997],[22.89296070000003,37.12792179999998],[22.906030100000038,37.11210410000004],[22.958354700000058,37.1156707],[22.954263900000086,37.0979009],[22.98365170000008,37.081230300000016],[22.972783700000036,37.07010960000004],[23.005025800000027,37.02286059999996],[23.006184500000074,36.983621],[22.99232850000007,36.97165949999999],[23.031949600000075,36.9085686],[23.04773960000003,36.85307030000003],[23.073035700000048,36.8310546],[23.098136200000056,36.778983],[23.084209400000077,36.759962400000035],[23.085920800000082,36.728850799999975],[23.04704840000005,36.74314049999997],[23.026383700000082,36.72808170000002],[23.025637900000106,36.7090599],[23.039546500000085,36.687053699999964],[23.025098100000093,36.65657319999998],[23.031719500000037,36.6272811],[23.056892800000128,36.60718269999998],[23.07488490000003,36.57941229999997],[23.109697700000083,36.55953509999996],[23.12719880000006,36.559095900000045],[23.14302680000003,36.515399900000034],[23.130056900000085,36.4967621],[23.162389400000023,36.48499560000005],[23.202247500000084,36.45033250000003],[23.197924,36.43508870000005],[23.15132610000009,36.44152580000002],[23.131576400000057,36.42852240000005],[23.087430900000072,36.44189],[23.062361100000032,36.474294299999954],[23.066938900000082,36.50235769999996],[23.03375230000003,36.52633879999998],[22.968405,36.5199358],[22.945160100000095,36.572840500000055],[22.925880500000062,36.59335119999999],[22.875719500000088,36.6213225],[22.879475500000098,36.65464329999999],[22.85101860000003,36.67286870000002],[22.845761,36.686161200000015],[22.803925,36.6819961],[22.821055400000034,36.70905250000001],[22.802665500000074,36.7431366],[22.782854100000094,36.79846630000006],[22.75253980000008,36.8042816],[22.65604860000002,36.806158],[22.581199800000093,36.78786770000002],[22.56489430000005,36.7749452],[22.576698400000083,36.73427910000005],[22.53265760000005,36.719492100000025],[22.523724200000032,36.677391],[22.49955730000002,36.65531770000001],[22.529049100000094,36.6177134],[22.51171370000006,36.60311840000006],[22.495378700000032,36.61987770000002],[22.476918,36.6160689],[22.471978100000086,36.590311],[22.481862300000074,36.55378220000003],[22.472433200000097,36.52650130000002],[22.501940800000057,36.496643400000025],[22.50165750000005,36.44366259999998],[22.492987500000083,36.4007716],[22.46929810000003,36.4043615],[22.458033700000072,36.4520936],[22.36784940000004,36.47797480000001],[22.346955500000035,36.51398640000005],[22.364635,36.53155149999998],[22.391222300000095,36.5415561],[22.36430370000005,36.600933],[22.365993100000026,36.67890070000004],[22.337702100000087,36.717291300000014],[22.31581490000005,36.7606737],[22.29636910000002,36.81431790000005],[22.25928,36.84456340000004],[22.226099900000037,36.89378550000005],[22.207499200000058,36.902857],[22.170512100000025,36.88973950000003],[22.125942,36.91470470000003],[22.146386500000034,36.938786],[22.140951200000018,36.9664552],[22.155261400000114,36.99548530000003],[22.1519550000001,37.01610229999997],[22.07604170000002,37.02845970000004],[22.021363400000013,37.02144809999997],[21.972764500000068,37.00496080000005],[21.93015870000002,36.982518],[21.935112200000077,36.93191560000004],[21.924657500000052,36.90317260000002],[21.921305300000057,36.86692320000003],[21.94016570000005,36.80609920000002],[21.958720800000094,36.793118400000054],[21.935058300000065,36.77965519999998],[21.934652700000072,36.761084900000014],[21.87418860000011,36.72384080000005],[21.862303500000024,36.74947739999999],[21.8312375000001,36.77315730000004],[21.812669400000033,36.8072656],[21.76935590000005,36.7993094],[21.727826200000067,36.799870900000016],[21.70309640000002,36.817689699999974],[21.689985900000067,36.83967910000004],[21.67968740000009,36.88598250000004],[21.68926120000006,36.91305319999998],[21.70670350000003,36.92228330000003],[21.71032550000004,36.94317940000005],[21.686540700000023,36.956126],[21.65724380000009,36.950828],[21.659188400000062,36.97344],[21.63749540000009,37.00773360000005],[21.613398800000027,37.02116960000002],[21.57721660000007,37.06206129999998],[21.57880780000002,37.08845920000003],[21.56548970000003,37.16258440000004],[21.576623900000044,37.19327310000003],[21.59476920000003,37.213992],[21.67078740000008,37.25753740000002],[21.69886390000002,37.312612200000046],[21.67962090000009,37.38077339999997],[21.650105300000092,37.437836],[21.611882900000097,37.4917106],[21.572893600000043,37.53413019999998],[21.52884920000008,37.5703561],[21.449573400000077,37.61337640000005],[21.382766200000077,37.65594850000005],[21.301284700000082,37.67017250000002],[21.31894150000005,37.70764480000004],[21.30117910000004,37.76111680000005],[21.258482200000117,37.79496890000003],[21.22361740000008,37.8109984],[21.115194700000018,37.839410800000024],[21.105974900000035,37.8478962],[21.111385400000046,37.891046],[21.130568500000095,37.938125600000035],[21.171756600000066,37.926549600000044],[21.206816400000065,37.9397224],[21.263575200000048,37.981652299999965],[21.30821300000011,38.03108719999999],[21.33154270000003,38.068973399999976],[21.34194510000009,38.09971370000005],[21.354757,38.1032769],[21.368783300000075,38.137359],[21.364519400000063,38.180851],[21.389743100000032,38.214615700000024],[21.40736250000009,38.19233730000002],[21.452320900000018,38.19897250000004],[21.53178260000007,38.15514679999997],[21.546306100000038,38.158488799999986],[21.605239,38.14282489999998],[21.66831920000004,38.1664345],[21.679709900000063,38.1861441],[21.71499090000006,38.21111549999996],[21.73857890000005,38.26952590000002],[21.786253900000048,38.309064099999986],[21.826113100000015,38.316821600000054],[21.850292800000034,38.3387247],[21.87670840000004,38.3266753],[21.959266100000093,38.3262921],[21.99035980000002,38.3113143],[22.01881320000004,38.3101087],[22.026751300000058,38.2850926],[22.066753800000072,38.27154510000001],[22.08800830000007,38.2544964],[22.108851100000038,38.2663172],[22.1278305000001,38.25369],[22.14850480000007,38.2184153],[22.175683900000024,38.200766100000024],[22.18917760000005,38.204236],[22.213630500000022,38.18159740000003],[22.276308,38.1712157],[22.335270200000053,38.17671840000001],[22.349123600000013,38.15421890000002],[22.389722400000068,38.136112],[22.451351,38.130140200000014],[22.490996100000075,38.1358787],[22.542402800000076,38.10605],[22.63891510000002,38.07782409999999],[22.660882100000094,38.061126],[22.72726890000004,38.03418059999997],[22.770922400000075,38.00118780000004],[22.794370300000026,37.9693636],[22.87531670000007,37.93326050000002],[22.909259700000092,37.93433559999997],[22.954165500000016,37.94612470000001],[22.972185300000092,37.98204160000003],[22.91892210000003,38.01337680000003],[22.84967580000003,38.0289113],[22.886801,38.05196830000001],[22.962575600000065,38.0799453],[23.002692400000058,38.060852200000014],[23.029177600000054,38.062742],[23.056631100000033,38.052131899999964],[23.113612600000096,38.0594094],[23.172909,38.0759778],[23.184342900000047,38.08987090000002],[23.2160200000001,38.0999954],[23.21746930000009,38.11650450000003],[23.1784,38.126478],[23.175716600000044,38.14013889999997],[23.210091,38.1462268],[23.20031380000006,38.1633077],[23.162387200000097,38.16773580000002],[23.107873900000072,38.20635170000007],[23.07202510000002,38.170265],[23.050904200000048,38.19651220000004],[23.023645300000084,38.21404380000004],[22.990806500000105,38.210742700000026],[22.947023700000017,38.21789320000005],[22.963959500000016,38.19155890000002],[22.939211700000072,38.183780099999964],[22.90402010000011,38.18653840000002],[22.89360240000002,38.222425],[22.864050400000025,38.2331643],[22.832948300000055,38.22443690000004],[22.778329,38.23343289999998],[22.765497900000042,38.2505727],[22.785432,38.282104100000055],[22.692115400000034,38.3169269],[22.679561,38.332934],[22.688716300000067,38.34976490000007],[22.680004700000097,38.3726103],[22.64604580000008,38.38437240000002],[22.64732170000005,38.3580588],[22.61328190000009,38.36007310000005],[22.594857800000057,38.3528771],[22.588525900000093,38.286957700000016],[22.55038440000004,38.286183900000026],[22.52173480000002,38.33420109999999],[22.502845,38.38260120000001],[22.481909100000053,38.39596610000005],[22.450721900000048,38.4288099],[22.40636290000006,38.42877849999998],[22.410318600000068,38.40932109999997],[22.38466070000004,38.40570340000005],[22.379059900000073,38.3330129],[22.34887240000009,38.349415800000045],[22.32267870000007,38.343807],[22.298563200000018,38.35595879999998],[22.275991900000037,38.340857499999984],[22.25378520000004,38.36123580000006],[22.231002,38.3598288],[22.193433100000078,38.33761750000005],[22.154784600000085,38.350286400000044],[22.125084300000083,38.3671873],[22.101589300000057,38.3667688],[22.051044400000023,38.39503760000005],[22.006389,38.389357600000025],[21.994559400000043,38.399399299999985],[21.935959900000057,38.407146],[21.895657,38.371323],[21.85179340000002,38.37452130000001],[21.82589590000009,38.3909569],[21.786305900000087,38.3739544],[21.76156,38.33050240000003],[21.730611400000043,38.33615530000003],[21.700146700000033,38.3507259],[21.681613700000042,38.345880099999974],[21.63890370000007,38.35697520000005],[21.57659270000005,38.329021100000034],[21.529837700000087,38.314195800000036],[21.511587400000025,38.29634120000006],[21.451763800000123,38.31996049999998],[21.418278,38.3256704],[21.42918290000003,38.35104009999996],[21.419448800000026,38.36329020000005],[21.3716122000001,38.393958],[21.347954300000083,38.42870510000003],[21.335753200000084,38.402799],[21.342202400000076,38.38608519999998],[21.290469500000057,38.3428168],[21.218661800000035,38.32345210000004],[21.183712100000037,38.298725200000035],[21.14037630000007,38.305849],[21.128372,38.337969400000034],[21.106711100000012,38.3388321],[21.104717700000094,38.3722144],[21.12896090000004,38.394476],[21.110406500000067,38.45341339999999],[21.080274300000042,38.48916770000007],[21.097471200000058,38.52929669999999],[21.076798800000063,38.5314906],[21.044435700000093,38.50274860000003],[21.020968800000077,38.517061399999974],[21.0136203000001,38.552250199999975],[21.022953800000096,38.5912887],[21.018541800000094,38.61235050000005],[20.988141200000058,38.64817929999998],[20.988130500000068,38.669963400000015],[20.921989,38.67007439999996],[20.89466570000002,38.70605070000002],[20.894313100000062,38.734081299999986],[20.869634200000064,38.795937799999976],[20.833835900000082,38.788424],[20.81389990000008,38.765803400000024],[20.76476130000006,38.75653950000002],[20.75360830000008,38.7866579],[20.729648300000036,38.81342989999999],[20.742508500000042,38.8366208],[20.727991200000048,38.84654310000002],[20.78995240000009,38.869768699999966],[20.75374180000003,38.905849],[20.748141600000025,38.92480840000002],[20.779482400000035,38.934343399999975],[20.791774300000043,38.92088070000001],[20.837145100000043,38.92031029999998],[20.84828230000005,38.93945939999996],[20.907760700000097,38.9219829],[20.928192300000063,38.94004950000003],[20.944312100000047,38.93248150000002],[20.979492,38.945206300000024],[20.993470200000075,38.92800049999998],[21.022945,38.927314],[21.03484480000003,38.892969100000045],[21.07105160000006,38.8710025],[21.090766000000116,38.878807100000046],[21.087043100000102,38.90094519999998],[21.100207400000045,38.91308440000003],[21.138251800000063,38.89196889999998],[21.160618200000044,38.869971100000015],[21.176125700000085,38.87664979999998],[21.165545300000048,38.90605310000002],[21.144693900000078,38.914815],[21.141990800000087,38.96207230000002],[21.15308,38.994418199999984],[21.118416,39.04044970000005],[21.09243040000007,39.048029],[21.043341500000054,39.02288890000003],[20.984739,39.0148065],[20.959378,39.03675830000006],[20.917094400000025,39.00938490000003],[20.890047,39.03410489999999],[20.828867600000052,39.0353427],[20.816758,39.058703],[20.790729700000014,39.05913810000001],[20.75928680000007,39.0314043],[20.754815,39.0083862],[20.80773920000007,38.97445580000003],[20.756867500000084,38.9705492],[20.756957,38.95110209999997],[20.725908400000037,38.95027970000005],[20.699722200000082,38.99884770000001],[20.712568300000015,39.006317],[20.711244100000044,39.0380779],[20.661929900000075,39.0873975],[20.640755100000064,39.09258530000007],[20.60528770000002,39.114927099999974],[20.530197300000083,39.19039330000001],[20.485568700000016,39.210879100000014],[20.47216080000007,39.24319810000006],[20.465745800000064,39.279159400000026],[20.43332,39.274015400000025],[20.392588500000016,39.28528069999997],[20.339103200000068,39.28474909999996],[20.334532100000047,39.2944355],[20.287151700000095,39.32696780000002],[20.269238700000074,39.39271790000004],[20.2434813000001,39.399517],[20.216777,39.44053570000001],[20.272871400000014,39.444623],[20.22735760000006,39.4832814],[20.256018900000072,39.483551],[20.261711900000023,39.5070595],[20.234025200000076,39.51951510000002],[20.1852564000001,39.5188633],[20.155396,39.53623540000004],[20.19056530000006,39.6160042],[20.151199800000086,39.655281399999964],[20.190567800000025,39.645468800000046],[20.21986090000007,39.646308],[20.231394,39.685131],[20.26468530000008,39.67147549999997],[20.26605690000008,39.695465],[20.3220807000001,39.734797300000054],[20.295197300000098,39.755436699999976],[20.307371500000045,39.78124789999997],[20.291100500000056,39.800584500000014],[20.30470130000009,39.81670939999998],[20.348112100000037,39.80383889999999],[20.368385400000022,39.78848829999997],[20.38977060000002,39.78779050000006],[20.41444590000009,39.8152917],[20.41064470000009,39.84444309999998],[20.36470920000005,39.903811499999975],[20.337397700000082,39.924475],[20.345053800000017,39.94580680000004],[20.31876490000002,39.974162299999975],[20.330492600000042,39.99354410000002],[20.373573400000026,39.98919980000002],[20.39486910000008,39.99779429999997],[20.415156700000125,40.034820400000015],[20.41086590000009,40.05164690000002],[20.449673200000092,40.073956600000045],[20.493816400000043,40.065319700000046],[20.511710700000037,40.082820900000016],[20.54986480000008,40.0638377],[20.600616500000058,40.0728129],[20.637489200000033,40.093021599999986],[20.676758900000095,40.1025099],[20.675127300000014,40.12566990000002],[20.693203200000085,40.154066200000045],[20.674806,40.165287800000016],[20.678646500000042,40.18973460000002],[20.70703750000007,40.1992861],[20.721272800000094,40.21604530000005],[20.722125100000085,40.253922900000035],[20.71293,40.28309320000005],[20.777068600000092,40.356950900000044],[20.789647500000086,40.36175790000006],[20.787202900000068,40.428844],[20.82171850000006,40.44627820000004],[20.84265190000005,40.4801474],[20.870931800000022,40.471032900000026],[20.908482400000054,40.47589130000003],[20.93189070000011,40.46257540000005],[20.955474700000025,40.46897329999997],[20.968771900000064,40.48835029999998],[20.96791810000002,40.518512200000075],[20.999991600000016,40.5354375],[21.005825300000055,40.55159059999998],[21.042777200000018,40.5581024],[21.040164600000026,40.59173080000002],[21.057100800000057,40.616979600000036],[21.0573064000001,40.6677684],[21.024497400000087,40.70878670000005],[20.98375110000009,40.73705],[20.984762,40.75673440000003],[20.96023720000008,40.772116],[20.985079300000024,40.7950798],[20.98007510000005,40.855127],[21.118292499999967,40.854620200000014],[21.118883700000055,40.854618],[21.159141900000037,40.8577684],[21.177478400000012,40.873283899999976],[21.215492100000034,40.8826168],[21.237121400000063,40.87573779999998],[21.2405547,40.874699399999955],[21.261299400000013,40.86002010000006],[21.2612509,40.8598445],[21.266351600000064,40.863036399999956],[21.26660910000004,40.862913800000015],[21.27088230000004,40.8645869],[21.271027799999985,40.864451399999965],[21.277770300000014,40.864038399999984],[21.277972,40.86395989999998],[21.283275600000053,40.864502700000045],[21.283272100000033,40.864382],[21.28615570000005,40.864784099999966],[21.286274800000058,40.86471920000001],[21.289162300000044,40.865444299999965],[21.2892443,40.86532990000002],[21.29127870000002,40.865577399999964],[21.2914944,40.8654297],[21.291673200000048,40.86545509999998],[21.291746200000063,40.865395700000036],[21.292216699999983,40.86526560000003],[21.2923036,40.86516969999998],[21.297298200000057,40.8653545],[21.297479500000065,40.8650644],[21.298298500000044,40.86542619999999],[21.298333500000012,40.865378800000045],[21.298417400000034,40.865402100000026],[21.2985502,40.86531410000002],[21.29927630000003,40.865449],[21.29956759999999,40.8652149],[21.3090269,40.866757299999975],[21.309122700000017,40.86666990000005],[21.309957100000048,40.866779799999975],[21.310265,40.86658],[21.311345200000062,40.866812900000056],[21.31146210000003,40.86656729999997],[21.3154578,40.8646934],[21.315769,40.86455759999997],[21.321917300000024,40.8677825],[21.3220093,40.8677056],[21.322874299999967,40.8679814],[21.322888,40.867865600000016],[21.32620910000003,40.869857],[21.32625550000006,40.86973550000003],[21.339531700000066,40.87296140000004],[21.339649700000024,40.87296140000002],[21.343976,40.8738253],[21.344059500000043,40.873732100000026],[21.347506200000026,40.875431699999965],[21.3476939,40.8753871],[21.3519512,40.87726410000006],[21.352068300000013,40.87719989999998],[21.352732400000065,40.87725720000002],[21.35279349999996,40.87722710000001],[21.3530858,40.87727660000003],[21.3531374,40.877206100000066],[21.3549707,40.87758419999999],[21.354976,40.877562699999984],[21.402164200000016,40.907279600000024],[21.402231300000068,40.90721879999997],[21.432711900000044,40.917153],[21.433173200000027,40.91714080000007],[21.4342944,40.91706180000001],[21.435555,40.9170152],[21.44810190000004,40.9138146],[21.448217700000043,40.9137316],[21.477928600000013,40.9095013],[21.477949499999966,40.909472800000046],[21.48425,40.91080659999999],[21.484284900000063,40.9107681],[21.485790099999974,40.911131],[21.485811599999977,40.91110870000004],[21.49228860000005,40.91200050000002],[21.495041100000066,40.91162150000001],[21.50232539999996,40.910679],[21.50279210000005,40.910638400000025],[21.511970599999984,40.90931270000003],[21.513322500000015,40.90913440000001],[21.52688370000004,40.9093209],[21.52758110000002,40.908356],[21.566398,40.866418199999984],[21.586464200000023,40.868994200000046],[21.586522600000052,40.86891090000002],[21.5928424,40.866320800000025],[21.592874100000046,40.8662862],[21.607057600000047,40.881095900000034],[21.607200300000045,40.880842500000014],[21.60808490000005,40.8805889],[21.608286099999987,40.8802583],[21.6084095,40.88029889999997],[21.608549500000038,40.880207699999985],[21.648820900000032,40.9013558],[21.6717096000001,40.90004589999997],[21.67092510000009,40.9253314],[21.684497,40.94031359999998],[21.684790700000065,40.94037359999997],[21.72644820000005,40.933844],[21.726695100000057,40.933713699999956],[21.7381138,40.93151539999998],[21.738410600000037,40.931485199999955],[21.781759099999988,40.92862559999996],[21.782054100000067,40.928604299999975],[21.804424100000034,40.944381],[21.80080970000003,40.9746127],[21.848194800000073,40.99861090000002],[21.854173100000025,41.01442210000003],[21.8927961,41.03990490000005],[21.893089700000047,41.0398743],[21.91422650000004,41.050446100000045],[21.904128800000052,41.06875470000003],[21.931867500000124,41.104105],[21.97243670000003,41.128794499999984],[22.009464800000046,41.13098969999997],[22.00975470000006,41.13093169999998],[22.02184850000006,41.13268029999996],[22.022147899999965,41.1326764],[22.067366700000036,41.15642160000003],[22.081032900000025,41.143995],[22.08133150000006,41.143973],[22.108061599999957,41.135245799999964],[22.10835270000007,41.135196499999964],[22.1118865,41.1340205],[22.1121379,41.13389850000006],[22.1281592,41.12354939999996],[22.12842790000002,41.1234457],[22.14872680000005,41.12834950000001],[22.180496600000026,41.1588297],[22.1808077,41.158894],[22.201864,41.16171690000003],[22.20216030000006,41.16169450000005],[22.218626800000038,41.16730070000001],[22.21888590000006,41.16719670000002],[22.221854,41.16569329999997],[22.222101899999956,41.165562],[22.25406780000006,41.165943],[22.29344240000006,41.151346799999985],[22.293716499999988,41.151260799999974],[22.297756700000065,41.15050990000002],[22.2980353,41.1504239],[22.335394700000023,41.1284514],[22.3356972,41.1283567],[22.353603,41.13533360000004],[22.353889500000037,41.13526560000001],[22.3974184,41.13791520000002],[22.397716400000036,41.1379104],[22.415961800000048,41.11966130000006],[22.4508207,41.122054],[22.4511135,41.12196790000003],[22.4589005,41.120117699999966],[22.459155899999985,41.120004],[22.459976600000033,41.11973579999999],[22.460251500000055,41.11964940000003],[22.48138270000007,41.119929899999974],[22.48166120000002,41.119843500000016],[22.53715120000001,41.1301588],[22.5372497,41.129993],[22.5402197,41.13040120000004],[22.54040930000005,41.13036680000003],[22.540586400000024,41.13041930000004],[22.5405872,41.13038710000005],[22.54443409999999,41.13052980000002],[22.544818900000024,41.13050009999996],[22.547927600000037,41.13083140000002],[22.547936400000054,41.130603299999976],[22.550998200000066,41.130778800000016],[22.551113900000047,41.13078269999998],[22.55157360000007,41.130886200000035],[22.551651899999968,41.13078679999997],[22.589381100000054,41.117557],[22.6279983,41.145013299999974],[22.62809850000002,41.144975400000035],[22.649371400000092,41.180787600000016],[22.667190900000065,41.1859043],[22.706177699999984,41.1432206],[22.73256310000002,41.14695480000003],[22.748586100000068,41.168189900000044],[22.760859700000054,41.26524089999997],[22.75710030000002,41.27427480000004]]]},"properties":{"cat":177,"name_en":"Greece","ISO3166_1_":"GRC"}},
{"type":"Feature","geometry":null,"properties":{"cat":177,"name_en":"Greece","ISO3166_1_":"GRC"}},
{"type":"Feature","geometry":null,"properties":{"cat":177,"name_en":"Greece","ISO3166_1_":"GRC"}},
{"type":"Feature","geometry":null,"properties":{"cat":177,"name_en":"Greece","ISO3166_1_":"GRC"}},
{"type":"Feature","geometry":null,"properties":{"cat":177,"name_en":"Greece","ISO3166_1_":"GRC"}},
{"type":"Feature","geometry":null,"properties":{"cat":177,"name_en":"Greece","ISO3166_1_":"GRC"}},
{"type":"Feature","geometry":null,"properties":{"cat":177,"name_en":"Greece","ISO3166_1_":"GRC"}},
{"type":"Feature","geometry":null,"properties":{"cat":177,"name_en":"Greece","ISO3166_1_":"GRC"}},
{"type":"Feature","geometry":null,"properties":{"cat":177,"name_en":"Greece","ISO3166_1_":"GRC"}},
{"type":"Feature","geometry":null,"properties":{"cat":177,"name_en":"Greece","ISO3166_1_":"GRC"}},
{"type":"Feature","geometry":null,"properties":{"cat":177,"name_en":"Greece","ISO3166_1_":"GRC"}},
{"type":"Feature","geometry":null,"properties":{"cat":177,"name_en":"Greece","ISO3166_1_":"GRC"}},
{"type":"Feature","geometry":null,"properties":{"cat":177,"name_en":"Greece","ISO3166_1_":"GRC"}},
{"type":"Feature","geometry":null,"properties":{"cat":177,"name_en":"Greece","ISO3166_1_":"GRC"}},
{"type":"Feature","geometry":null,"properties":{"cat":177,"name_en":"Greece","ISO3166_1_":"GRC"}},
{"type":"Feature","geometry":null,"properties":{"cat":177,"name_en":"Greece","ISO3166_1_":"GRC"}},
{"type":"Feature","geometry":null,"properties":{"cat":177,"name_en":"Greece","ISO3166_1_":"GRC"}},
{"type":"Feature","geometry":null,"properties":{"cat":177,"name_en":"Greece","ISO3166_1_":"GRC"}},
{"type":"Feature","geometry":null,"properties":{"cat":177,"name_en":"Greece","ISO3166_1_":"GRC"}},
{"type":"Feature","geometry":null,"properties":{"cat":177,"name_en":"Greece","ISO3166_1_":"GRC"}},
{"type":"Feature","geometry":null,"properties":{"cat":177,"name_en":"Greece","ISO3166_1_":"GRC"}},
{"type":"Feature","geometry":null,"properties":{"cat":177,"name_en":"Greece","ISO3166_1_":"GRC"}},
{"type":"Feature","geometry":null,"properties":{"cat":177,"name_en":"Greece","ISO3166_1_":"GRC"}},
{"type":"Feature","geometry":null,"properties":{"cat":177,"name_en":"Greece","ISO3166_1_":"GRC"}},
{"type":"Feature","geometry":null,"properties":{"cat":177,"name_en":"Greece","ISO3166_1_":"GRC"}},
{"type":"Feature","geometry":null,"properties":{"cat":177,"name_en":"Greece","ISO3166_1_":"GRC"}},
{"type":"Feature","geometry":null,"properties":{"cat":177,"name_en":"Greece","ISO3166_1_":"GRC"}},
{"type":"Feature","geometry":null,"properties":{"cat":177,"name_en":"Greece","ISO3166_1_":"GRC"}},
{"type":"Feature","geometry":null,"properties":{"cat":177,"name_en":"Greece","ISO3166_1_":"GRC"}},
{"type":"Feature","geometry":null,"properties":{"cat":177,"name_en":"Greece","ISO3166_1_":"GRC"}},
{"type":"Feature","geometry":null,"properties":{"cat":177,"name_en":"Greece","ISO3166_1_":"GRC"}},
{"type":"Feature","geometry":null,"properties":{"cat":177,"name_en":"Greece","ISO3166_1_":"GRC"}},
{"type":"Feature","geometry":null,"properties":{"cat":177,"name_en":"Greece","ISO3166_1_":"GRC"}},
{"type":"Feature","geometry":null,"properties":{"cat":177,"name_en":"Greece","ISO3166_1_":"GRC"}},
{"type":"Feature","geometry":null,"properties":{"cat":177,"name_en":"Greece","ISO3166_1_":"GRC"}},
{"type":"Feature","geometry":null,"properties":{"cat":177,"name_en":"Greece","ISO3166_1_":"GRC"}},
{"type":"Feature","geometry":null,"properties":{"cat":177,"name_en":"Greece","ISO3166_1_":"GRC"}},
{"type":"Feature","geometry":null,"properties":{"cat":177,"name_en":"Greece","ISO3166_1_":"GRC"}},
{"type":"Feature","geometry":null,"properties":{"cat":177,"name_en":"Greece","ISO3166_1_":"GRC"}},
{"type":"Feature","geometry":null,"properties":{"cat":177,"name_en":"Greece","ISO3166_1_":"GRC"}},
{"type":"Feature","geometry":null,"properties":{"cat":177,"name_en":"Greece","ISO3166_1_":"GRC"}},
{"type":"Feature","geometry":null,"properties":{"cat":177,"name_en":"Greece","ISO3166_1_":"GRC"}},
{"type":"Feature","geometry":null,"properties":{"cat":177,"name_en":"Greece","ISO3166_1_":"GRC"}},
{"type":"Feature","geometry":null,"properties":{"cat":177,"name_en":"Greece","ISO3166_1_":"GRC"}},
{"type":"Feature","geometry":null,"properties":{"cat":177,"name_en":"Greece","ISO3166_1_":"GRC"}},
{"type":"Feature","geometry":null,"properties":{"cat":177,"name_en":"Greece","ISO3166_1_":"GRC"}},
{"type":"Feature","geometry":null,"properties":{"cat":177,"name_en":"Greece","ISO3166_1_":"GRC"}},
{"type":"Feature","geometry":null,"properties":{"cat":177,"name_en":"Greece","ISO3166_1_":"GRC"}},
{"type":"Feature","geometry":null,"properties":{"cat":177,"name_en":"Greece","ISO3166_1_":"GRC"}},
{"type":"Feature","geometry":null,"properties":{"cat":177,"name_en":"Greece","ISO3166_1_":"GRC"}},
{"type":"Feature","geometry":null,"properties":{"cat":177,"name_en":"Greece","ISO3166_1_":"GRC"}},
{"type":"Feature","geometry":null,"properties":{"cat":177,"name_en":"Greece","ISO3166_1_":"GRC"}},
{"type":"Feature","geometry":null,"properties":{"cat":177,"name_en":"Greece","ISO3166_1_":"GRC"}},
{"type":"Feature","geometry":null,"properties":{"cat":177,"name_en":"Greece","ISO3166_1_":"GRC"}},
{"type":"Feature","geometry":null,"properties":{"cat":177,"name_en":"Greece","ISO3166_1_":"GRC"}},
{"type":"Feature","geometry":null,"properties":{"cat":177,"name_en":"Greece","ISO3166_1_":"GRC"}},
{"type":"Feature","geometry":null,"properties":{"cat":177,"name_en":"Greece","ISO3166_1_":"GRC"}},
{"type":"Feature","geometry":null,"properties":{"cat":177,"name_en":"Greece","ISO3166_1_":"GRC"}},
{"type":"Feature","geometry":null,"properties":{"cat":177,"name_en":"Greece","ISO3166_1_":"GRC"}},
{"type":"Feature","geometry":null,"properties":{"cat":177,"name_en":"Greece","ISO3166_1_":"GRC"}},
{"type":"Feature","geometry":null,"properties":{"cat":177,"name_en":"Greece","ISO3166_1_":"GRC"}},
{"type":"Feature","geometry":null,"properties":{"cat":177,"name_en":"Greece","ISO3166_1_":"GRC"}},
{"type":"Feature","geometry":null,"properties":{"cat":177,"name_en":"Greece","ISO3166_1_":"GRC"}},
{"type":"Feature","geometry":null,"properties":{"cat":177,"name_en":"Greece","ISO3166_1_":"GRC"}},
{"type":"Feature","geometry":null,"properties":{"cat":177,"name_en":"Greece","ISO3166_1_":"GRC"}},
{"type":"Feature","geometry":null,"properties":{"cat":177,"name_en":"Greece","ISO3166_1_":"GRC"}},
{"type":"Feature","geometry":null,"properties":{"cat":177,"name_en":"Greece","ISO3166_1_":"GRC"}},
{"type":"Feature","geometry":null,"properties":{"cat":177,"name_en":"Greece","ISO3166_1_":"GRC"}},
{"type":"Feature","geometry":null,"properties":{"cat":177,"name_en":"Greece","ISO3166_1_":"GRC"}},
{"type":"Feature","geometry":null,"properties":{"cat":177,"name_en":"Greece","ISO3166_1_":"GRC"}},
{"type":"Feature","geometry":null,"properties":{"cat":177,"name_en":"Greece","ISO3166_1_":"GRC"}},
{"type":"Feature","geometry":null,"properties":{"cat":177,"name_en":"Greece","ISO3166_1_":"GRC"}},
{"type":"Feature","geometry":null,"properties":{"cat":177,"name_en":"Greece","ISO3166_1_":"GRC"}},
{"type":"Feature","geometry":null,"properties":{"cat":177,"name_en":"Greece","ISO3166_1_":"GRC"}},
{"type":"Feature","geometry":null,"properties":{"cat":177,"name_en":"Greece","ISO3166_1_":"GRC"}},
{"type":"Feature","geometry":null,"properties":{"cat":177,"name_en":"Greece","ISO3166_1_":"GRC"}},
{"type":"Feature","geometry":null,"properties":{"cat":177,"name_en":"Greece","ISO3166_1_":"GRC"}},
{"type":"Feature","geometry":null,"properties":{"cat":177,"name_en":"Greece","ISO3166_1_":"GRC"}},
{"type":"Feature","geometry":null,"properties":{"cat":177,"name_en":"Greece","ISO3166_1_":"GRC"}},
{"type":"Feature","geometry":null,"properties":{"cat":177,"name_en":"Greece","ISO3166_1_":"GRC"}},
{"type":"Feature","geometry":null,"properties":{"cat":177,"name_en":"Greece","ISO3166_1_":"GRC"}},
{"type":"Feature","geometry":null,"properties":{"cat":177,"name_en":"Greece","ISO3166_1_":"GRC"}},
{"type":"Feature","geometry":null,"properties":{"cat":177,"name_en":"Greece","ISO3166_1_":"GRC"}},
{"type":"Feature","geometry":null,"properties":{"cat":177,"name_en":"Greece","ISO3166_1_":"GRC"}},
{"type":"Feature","geometry":null,"properties":{"cat":177,"name_en":"Greece","ISO3166_1_":"GRC"}},
{"type":"Feature","geometry":null,"properties":{"cat":177,"name_en":"Greece","ISO3166_1_":"GRC"}},
{"type":"Feature","geometry":null,"properties":{"cat":177,"name_en":"Greece","ISO3166_1_":"GRC"}},
{"type":"Feature","geometry":null,"properties":{"cat":177,"name_en":"Greece","ISO3166_1_":"GRC"}},
{"type":"Feature","geometry":null,"properties":{"cat":177,"name_en":"Greece","ISO3166_1_":"GRC"}},
{"type":"Feature","geometry":null,"properties":{"cat":177,"name_en":"Greece","ISO3166_1_":"GRC"}},
{"type":"Feature","geometry":{"type":"Polygon","coordinates":[[[24.18317940000003,35.505634400000034],[24.1654037000001,35.49499909999999],[24.07863610000004,35.50847040000002],[24.061297600000046,35.492343800000015],[24.118580900000097,35.47100360000002],[24.149674900000036,35.4720984],[24.177509200000088,35.451638600000024],[24.203313600000087,35.44987940000004],[24.242152900000036,35.47216820000001],[24.25765410000008,35.45435110000001],[24.26136560000006,35.420672700000026],[24.25729620000004,35.378469100000046],[24.264404,35.36109],[24.299901200000022,35.353514600000054],[24.358985200000035,35.351555],[24.37461680000004,35.3620384],[24.407305100000087,35.360145200000034],[24.551820800000087,35.37566820000002],[24.60677840000008,35.39041640000002],[24.650377500000076,35.4197964],[24.699869400000097,35.4273268],[24.742373800000024,35.419511499999956],[24.78293850000003,35.41992810000005],[24.834139700000065,35.405965799999976],[24.87422230000007,35.409881],[24.88761980000004,35.42048319999998],[24.92073520000008,35.40288059999996],[24.955624300000068,35.402398600000055],[24.973049700000075,35.424087],[25.043764700000082,35.39566919999997],[25.03705030000009,35.37932770000003],[25.046636400000097,35.34471960000003],[25.110748700000045,35.33890890000002],[25.15140770000005,35.346774],[25.18501290000009,35.345401200000026],[25.196959100000072,35.33231170000005],[25.234870300000097,35.33042320000001],[25.372298,35.339561899999964],[25.391726800000043,35.318804],[25.427912300000088,35.294316600000016],[25.479006600000076,35.295220600000036],[25.54417520000004,35.321000500000025],[25.57266190000007,35.3201101],[25.594537400000036,35.33147860000004],[25.665644,35.3474565],[25.688989400000025,35.33612609999999],[25.729457900000085,35.34045529999999],[25.75476630000003,35.3358987],[25.765173,35.3217182],[25.72683340000009,35.3031195],[25.721672200000086,35.262463299999965],[25.73373310000005,35.2569042],[25.73072330000005,35.22448809999999],[25.71371510000003,35.21967850000003],[25.721146400000094,35.1918134],[25.70973790000002,35.177799],[25.725008,35.132135600000055],[25.752434700000038,35.130312300000014],[25.812835600000028,35.1097095],[25.848098200000095,35.156501400000025],[25.87714920000002,35.1586417],[25.891066400000085,35.180924600000026],[25.95356360000008,35.183895900000024],[25.96004030000003,35.1984872],[25.997792200000077,35.198785800000024],[26.025706,35.22962329999997],[26.059230900000074,35.2300799],[26.13524410000005,35.19558209999998],[26.17131880000008,35.203041100000036],[26.22517780000004,35.2499548],[26.234126700000104,35.27907280000005],[26.263265500000074,35.28122370000003],[26.28557010000003,35.30974689999998],[26.307659,35.2941157],[26.287799100000086,35.275377],[26.263871600000044,35.26730259999998],[26.277543300000076,35.2231056],[26.278978,35.19523920000003],[26.317963600000013,35.1808922],[26.28071340000008,35.1674026],[26.28053790000004,35.111497],[26.271790500000066,35.0880836],[26.21200040000008,35.02597930000002],[26.149957200000074,35.0116785],[26.111099500000023,34.995833],[26.08661010000003,35.018654],[26.026721900000013,35.01351689999997],[25.97706130000006,35.039239],[25.89778850000002,35.02823609999997],[25.822070500000024,35.0056],[25.81431070000005,34.99955550000004],[25.737313300000068,35.00356289999998],[25.708175,35.01253780000005],[25.662527,35.0046002],[25.59509470000006,35.00714240000002],[25.54671760000008,34.9887227],[25.504911900000053,34.98251029999997],[25.456204200000087,34.9913136],[25.417021800000043,34.98664920000003],[25.374175400000098,34.998629100000045],[25.329476800000094,34.98188869999997],[25.280208800000025,34.98357040000002],[25.270973500000082,34.96789490000003],[25.196410600000092,34.94673080000004],[25.18050230000003,34.9536581],[25.137305100000077,34.953569],[25.102545400000054,34.934929699999984],[25.044339800000074,34.9429173],[25.031787500000036,34.934624599999964],[24.934704200000112,34.9324717],[24.915919400000064,34.92860750000003],[24.83773350000007,34.94097409999996],[24.800443800000068,34.929627899999986],[24.731286,34.92217350000004],[24.75047150000006,34.95283330000004],[24.746969200000024,35.00319579999997],[24.759962200000018,35.00952490000007],[24.753363300000075,35.0533747],[24.73916890000004,35.08251109999998],[24.691161600000015,35.097888],[24.642147200000068,35.095397],[24.561095800000032,35.100715100000016],[24.53011980000008,35.13722690000006],[24.47799860000009,35.153026],[24.463504300000068,35.14805540000002],[24.40924030000008,35.17120379999996],[24.39518140000007,35.190188800000044],[24.364467,35.19169880000001],[24.352763200000027,35.182582599999975],[24.323527700000113,35.18944050000003],[24.279002700000063,35.177969300000015],[24.230965,35.18050840000005],[24.20268070000003,35.19941590000002],[24.14169160000003,35.19304859999997],[24.134271100000063,35.20229290000003],[24.09002440000006,35.2025705],[24.051283,35.193613],[24.025162200000068,35.19668630000004],[23.994284,35.2273791],[23.954184500000054,35.22935680000003],[23.923425400000042,35.2208987],[23.880776300000036,35.23877330000005],[23.865010700000056,35.236029400000035],[23.83399060000002,35.248436],[23.763597600000082,35.22881130000002],[23.75802070000006,35.23843959999998],[23.663494300000025,35.238545],[23.587989400000083,35.23168320000005],[23.57430410000009,35.242286799999974],[23.576786800000093,35.2627944],[23.547861900000015,35.26806129999996],[23.514671,35.306066],[23.547464300000087,35.32068739999997],[23.535850400000044,35.33549740000002],[23.531972800000034,35.36827029999996],[23.550479600000074,35.39485349999998],[23.545870500000092,35.4116544],[23.567942200000033,35.4246142],[23.570071800000022,35.444858],[23.553852,35.464784],[23.578966500000035,35.486021200000025],[23.565178800000098,35.511345599999984],[23.582191100000045,35.56956720000004],[23.601792,35.59176190000004],[23.61247890000007,35.56436539999997],[23.611430100000064,35.520747700000044],[23.656447600000064,35.49818040000004],[23.721226200000075,35.5106081],[23.729208300000067,35.546727200000035],[23.708564200000126,35.60660420000002],[23.709287500000016,35.659022],[23.737290700000017,35.69541239999997],[23.773876200000018,35.668687400000024],[23.762142,35.64848520000004],[23.778072500000036,35.59471460000002],[23.78161870000008,35.54349390000003],[23.841696900000017,35.527142900000015],[23.943994400000065,35.51477759999999],[23.99490060000008,35.51113070000005],[24.048082900000082,35.524283],[24.052399100000088,35.55082460000003],[24.086296400000066,35.55312759999998],[24.070417,35.584419899999986],[24.120935400000036,35.60191580000006],[24.175574200000057,35.58609019999999],[24.201840400000037,35.539742],[24.18317940000003,35.505634400000034]]]},"properties":{"cat":177,"name_en":"Greece","ISO3166_1_":"GRC"}},
{"type":"Feature","geometry":{"type":"Polygon","coordinates":[[[27.105201,35.432279100000045],[27.082137600000067,35.445308500000024],[27.110916900000063,35.469132],[27.120228500000024,35.48758410000002],[27.10569360000008,35.5109669],[27.113489100000095,35.5460968],[27.073228800000038,35.573587100000026],[27.063937200000055,35.598670799999965],[27.083577600000098,35.62161140000005],[27.121018700000036,35.64366290000001],[27.125878800000066,35.687170499999965],[27.13969780000002,35.70896110000001],[27.163411500000024,35.7264164],[27.16512270000004,35.79419890000004],[27.231126200000062,35.82954479999998],[27.231822,35.79879789999998],[27.209474800000066,35.77114880000005],[27.217766,35.726470600000056],[27.190712400000024,35.6989575],[27.192370700000083,35.6839859],[27.161057100000107,35.65395010000003],[27.159550700000068,35.602185199999965],[27.20457150000007,35.57298630000005],[27.219395700000064,35.5433561],[27.198636500000106,35.52487620000005],[27.242320100000057,35.497347799999986],[27.22217340000003,35.48101409999998],[27.201786,35.48138010000007],[27.173846300000093,35.46256540000003],[27.133475300000043,35.4256799],[27.105201,35.432279100000045]]]},"properties":{"cat":177,"name_en":"Greece","ISO3166_1_":"GRC"}},
{"type":"Feature","geometry":{"type":"Polygon","coordinates":[[[22.90680210000008,36.310299700000044],[22.89114230000004,36.31902619999998],[22.92339350000009,36.377471199999974],[22.955172200000106,36.37995490000003],[22.985178700000034,36.321868200000026],[23.059591200000085,36.27847849999996],[23.102969300000098,36.233795],[23.054436200000083,36.21857390000001],[23.045381800000087,36.189837],[23.047791500000073,36.13019550000001],[23.02354930000004,36.14191130000002],[22.98461240000006,36.14387209999998],[22.94675650000002,36.155259],[22.915915700000056,36.1896678],[22.916266800000074,36.212920300000036],[22.900581,36.230503],[22.923609700000014,36.245035],[22.91547620000003,36.2626348],[22.92144060000004,36.2921579],[22.90680210000008,36.310299700000044]]]},"properties":{"cat":177,"name_en":"Greece","ISO3166_1_":"GRC"}},
{"type":"Feature","geometry":{"type":"Polygon","coordinates":[[[27.97630440000009,36.05467550000006],[27.9419520000001,36.03556990000003],[27.89264440000005,35.96314759999997],[27.862856500000078,35.931949],[27.820150900000044,35.91011550000003],[27.798378900000017,35.89038010000003],[27.7703025000001,35.8874578],[27.75966680000002,35.90359139999997],[27.734463,35.915486],[27.71816670000007,35.94080750000002],[27.72646460000007,35.94924190000005],[27.755612,36.015302],[27.76110950000009,36.0814252],[27.750634,36.105398],[27.71157560000006,36.11254749999998],[27.716365700000097,36.131865],[27.703627,36.16406850000003],[27.73322170000006,36.169699],[27.76587340000009,36.18707509999997],[27.78961080000002,36.220864200000065],[27.78917700000011,36.239144],[27.812976300000088,36.2745414],[27.827113,36.272418],[27.858773,36.294934],[27.878395,36.32263550000002],[27.914703900000063,36.342455199999975],[27.961376000000115,36.353631],[28.053661600000083,36.398],[28.1236574000001,36.42003540000003],[28.19449590000005,36.424949800000036],[28.221408900000085,36.45743],[28.239183,36.43942209999996],[28.228287,36.403569099999984],[28.243065,36.390728],[28.20728610000006,36.34914170000006],[28.211375600000025,36.33014540000002],[28.175126900000066,36.28203919999997],[28.158830400000056,36.23276569999999],[28.148996400000044,36.2290645],[28.13639560000007,36.18559250000004],[28.099165700000043,36.177005],[28.075676100000095,36.1429063],[28.070644300000055,36.10493070000001],[28.09075670000007,36.08544279999997],[28.06050890000006,36.061365],[28.04106850000005,36.0774654],[28.014831600000093,36.07482380000002],[27.97630440000009,36.05467550000006]]]},"properties":{"cat":177,"name_en":"Greece","ISO3166_1_":"GRC"}},
{"type":"Feature","geometry":{"type":"Polygon","coordinates":[[[26.337579400000067,36.581118600000025],[26.38305470000003,36.59112570000005],[26.371477300000123,36.63647850000001],[26.395395500000063,36.64283060000004],[26.422657600000036,36.627786],[26.462306900000073,36.594108099999985],[26.429083700000064,36.5840682],[26.416769,36.57119170000006],[26.385710800000084,36.57661680000004],[26.353986900000052,36.5661265],[26.359885400000053,36.54953020000002],[26.342297600000023,36.5130593],[26.32739550000008,36.506424199999984],[26.298362500000025,36.51435049999998],[26.272258700000066,36.54875020000006],[26.26829450000008,36.59767040000004],[26.2925010000001,36.59871519999997],[26.337579400000067,36.581118600000025]]]},"properties":{"cat":177,"name_en":"Greece","ISO3166_1_":"GRC"}},
{"type":"Feature","geometry":{"type":"Polygon","coordinates":[[[24.336491100000046,36.7211364],[24.353603100000043,36.7468905],[24.37053210000002,36.73121410000002],[24.39293550000005,36.73011060000002],[24.39297010000007,36.70749870000006],[24.445086900000035,36.689019],[24.469699200000065,36.70294510000005],[24.457127,36.722987],[24.43479670000005,36.72025670000005],[24.414580500000056,36.740643],[24.412189600000033,36.767706799999985],[24.45744410000009,36.743812100000014],[24.476500500000043,36.742119400000036],[24.50700960000009,36.7564602],[24.53158890000003,36.741666],[24.548187600000034,36.701941300000044],[24.53510680000005,36.67739040000005],[24.483017800000084,36.66680859999998],[24.456975000000114,36.66901520000003],[24.432723200000083,36.66005920000002],[24.33169920000003,36.651132],[24.317552300000045,36.6623227],[24.332434800000073,36.681550199999975],[24.336491100000046,36.7211364]]]},"properties":{"cat":177,"name_en":"Greece","ISO3166_1_":"GRC"}},
{"type":"Feature","geometry":{"type":"Polygon","coordinates":[[[27.062784800000117,36.840241900000066],[27.171862900000036,36.89079079999998],[27.235322400000058,36.894428600000055],[27.278593,36.91615940000004],[27.30766950000003,36.8867916],[27.33750960000006,36.89103190000003],[27.354435500000022,36.860905700000046],[27.32433260000002,36.8454281],[27.230832600000014,36.82622870000003],[27.164995900000036,36.80470380000003],[27.112323900000035,36.75768110000001],[27.060946500000057,36.76731809999998],[27.015580600000078,36.76388570000002],[26.97664020000002,36.74831650000003],[26.984294900000094,36.716281500000036],[26.966846700000076,36.705405699999986],[26.955060400000093,36.6759761],[26.917193100000077,36.71876369999998],[26.917938700000036,36.75048969999999],[26.93258590000002,36.76807640000001],[26.990748400000086,36.76935720000003],[27.029202,36.8123045],[27.062784800000117,36.840241900000066]]]},"properties":{"cat":177,"name_en":"Greece","ISO3166_1_":"GRC"}},
{"type":"Feature","geometry":{"type":"Polygon","coordinates":[[[25.900278400000076,36.86626679999998],[25.91018710000003,36.866487],[25.977377700000034,36.90185159999997],[25.969179900000057,36.92584430000005],[26.019659900000022,36.9319237],[26.043582300000082,36.9125939],[25.976202000000114,36.87927660000004],[25.927184800000077,36.83992360000002],[25.879275,36.79375240000003],[25.826967500000023,36.7862164],[25.802705400000036,36.76718680000005],[25.773625500000094,36.768561],[25.746896200000066,36.7824121],[25.773161300000055,36.80823609999999],[25.829555300000095,36.8074033],[25.853219100000047,36.81662560000004],[25.844559100000083,36.85070990000004],[25.900278400000076,36.86626679999998]]]},"properties":{"cat":177,"name_en":"Greece","ISO3166_1_":"GRC"}},
{"type":"Feature","geometry":{"type":"Polygon","coordinates":[[[26.911284200000097,37.056990700000014],[26.956346600000018,37.062962899999974],[26.993015700000086,37.04088720000006],[26.97977220000007,37.031123900000026],[27.04569,37.00096],[27.034137,36.950609],[26.983411,36.94718369999998],[26.987241500000096,36.9267646],[26.959680100000043,36.9257176],[26.90918090000008,36.95217370000003],[26.955167200000034,37.03366629999998],[26.911284200000097,37.056990700000014]]]},"properties":{"cat":177,"name_en":"Greece","ISO3166_1_":"GRC"}},
{"type":"Feature","geometry":{"type":"Polygon","coordinates":[[[25.13213230000008,37.097706299999984],[25.16449250000008,37.12544],[25.221690400000085,37.14762409999999],[25.23097990000008,37.1239921],[25.28177350000007,37.12200059999998],[25.255529600000045,37.079563],[25.27089810000004,37.048250800000034],[25.248129900000038,37.01189390000002],[25.181730800000054,36.97518410000002],[25.124329600000095,36.9940637],[25.106185,37.00636250000002],[25.09738590000009,37.03042009999997],[25.111401200000046,37.067324],[25.14157190000006,37.078846200000015],[25.13213230000008,37.097706299999984]]]},"properties":{"cat":177,"name_en":"Greece","ISO3166_1_":"GRC"}},
{"type":"Feature","geometry":{"type":"Polygon","coordinates":[[[25.350972300000052,37.088699],[25.37124350000005,37.090260400000034],[25.377816,37.1085108],[25.41326970000003,37.1357938],[25.44945030000011,37.14020470000001],[25.49384930000008,37.18846180000001],[25.53575060000003,37.20345470000002],[25.547969800000033,37.182909],[25.575748100000084,37.164803300000045],[25.5989048000001,37.1159409],[25.589668800000084,37.09821450000001],[25.57813950000005,37.0236501],[25.548949500000077,36.95706139999997],[25.493664600000074,36.94713050000003],[25.447793100000126,36.9171917],[25.42361150000002,36.932032500000034],[25.42736460000006,36.9628551],[25.38915910000003,36.978408900000034],[25.39082380000002,36.99577530000005],[25.371763,37.0216944],[25.378439,37.03938520000003],[25.341704700000093,37.0776631],[25.350972300000052,37.088699]]]},"properties":{"cat":177,"name_en":"Greece","ISO3166_1_":"GRC"}},
{"type":"Feature","geometry":{"type":"Polygon","coordinates":[[[24.373309600000056,37.433934899999954],[24.396352,37.45860209999998],[24.428059800000057,37.4805855],[24.428489100000036,37.444977200000025],[24.448860600000074,37.4283997],[24.467882,37.427781700000025],[24.48389780000005,37.40629349999996],[24.45623020000002,37.3896631],[24.450136100000094,37.3602771],[24.416892200000092,37.33306810000006],[24.409923900000052,37.31802270000007],[24.370728200000087,37.29946570000004],[24.367003500000095,37.32194580000004],[24.382765800000072,37.35658419999997],[24.391015,37.405031900000026],[24.371310200000096,37.4167236],[24.373309600000056,37.433934899999954]]]},"properties":{"cat":177,"name_en":"Greece","ISO3166_1_":"GRC"}},
{"type":"Feature","geometry":{"type":"Polygon","coordinates":[[[25.07926240000006,37.586992399999986],[25.043090300000074,37.61512480000002],[24.9975539000001,37.637003],[24.972831400000047,37.669885900000025],[25.026397200000076,37.678137],[25.054694200000057,37.673828900000046],[25.059979500000026,37.647221100000024],[25.121203500000092,37.651746],[25.150120600000037,37.632245],[25.17841640000009,37.640262800000016],[25.206614000000116,37.63317529999996],[25.23699480000002,37.6106987],[25.252786,37.58342670000002],[25.22047180000007,37.53548870000003],[25.194999200000098,37.5257617],[25.107586600000076,37.55463380000003],[25.109880300000043,37.57239],[25.07926240000006,37.586992399999986]]]},"properties":{"cat":177,"name_en":"Greece","ISO3166_1_":"GRC"}},
{"type":"Feature","geometry":{"type":"Polygon","coordinates":[[[26.278805100000028,37.6687086],[26.304349500000058,37.6826497],[26.335756900000092,37.6822056],[26.334678300000036,37.648271100000045],[26.29272670000003,37.6098881],[26.196428600000047,37.56225320000004],[26.108373800000095,37.55327460000002],[26.07527580000007,37.521471],[25.990341700000016,37.512253800000025],[25.977857,37.53633210000001],[26.00823230000006,37.57490590000003],[26.054564400000032,37.61985960000001],[26.08263030000009,37.63615890000001],[26.107343100000065,37.6309975],[26.148628700000017,37.6381318],[26.198610400000092,37.626172],[26.278805100000028,37.6687086]]]},"properties":{"cat":177,"name_en":"Greece","ISO3166_1_":"GRC"}},
{"type":"Feature","geometry":{"type":"Polygon","coordinates":[[[26.86723130000007,37.637961800000056],[26.80270760000002,37.63956],[26.784468200000077,37.650621700000016],[26.75276160000007,37.6966414],[26.72273830000006,37.7097911],[26.640928400000064,37.70222170000004],[26.619686,37.6832619],[26.587250400000073,37.6813018],[26.585306500000087,37.70343490000006],[26.566083700000036,37.73078410000004],[26.611793100000114,37.76939839999996],[26.64337190000009,37.77240160000002],[26.67298230000003,37.796342],[26.69036230000009,37.79573450000005],[26.741398500000088,37.8131079],[26.848149800000073,37.80606740000003],[26.88020940000007,37.7795872],[26.922820900000033,37.77308079999999],[26.977920500000067,37.793190599999974],[26.998601900000097,37.777112400000064],[27.029880400000025,37.77364270000004],[27.024795,37.75097],[27.06704060000007,37.72572290000005],[27.06596430000002,37.7114465],[27.010877,37.703706],[26.98005210000005,37.706762],[26.96041560000006,37.6913858],[26.913000100000062,37.684079400000044],[26.887186700000058,37.6701486],[26.88303710000008,37.6452756],[26.86723130000007,37.637961800000056]]]},"properties":{"cat":177,"name_en":"Greece","ISO3166_1_":"GRC"}},
{"type":"Feature","geometry":{"type":"Polygon","coordinates":[[[20.771738900000088,37.68416520000004],[20.75187420000003,37.71205159999998],[20.711473100000063,37.726060900000036],[20.673092600000047,37.76717660000007],[20.6806998000001,37.783663799999985],[20.64768090000007,37.7960421],[20.627199300000058,37.818200099999984],[20.62399910000002,37.85927720000002],[20.645071100000052,37.8997041],[20.69950240000003,37.9338519],[20.710486200000048,37.92276450000003],[20.715474100000108,37.88995269999998],[20.741769900000037,37.85931280000004],[20.774504,37.84048349999996],[20.78696860000005,37.84704310000002],[20.82340810000005,37.838334699999976],[20.905166100000116,37.80473980000005],[20.897459,37.78099360000003],[20.94028520000012,37.76097739999997],[20.94979260000008,37.74521020000003],[20.989898,37.729666],[20.98892680000003,37.708557200000044],[20.94658460000005,37.72101829999998],[20.918998,37.737000799999976],[20.87331240000009,37.72765060000003],[20.84130680000004,37.6975871],[20.83641330000009,37.681584899999976],[20.85912010000007,37.656366800000015],[20.832215200000093,37.64540420000007],[20.805118200000095,37.65392170000004],[20.802490500000033,37.669710399999985],[20.771738900000088,37.68416520000004]]]},"properties":{"cat":177,"name_en":"Greece","ISO3166_1_":"GRC"}},
{"type":"Feature","geometry":{"type":"Polygon","coordinates":[[[24.936708800000048,37.69377590000005],[24.91009850000009,37.717801],[24.896095600000024,37.75311019999998],[24.849065200000013,37.78015789999998],[24.845759100000095,37.79425630000004],[24.808667,37.8233893],[24.767003200000033,37.8755674],[24.712946300000027,37.878912199999974],[24.69705900000011,37.902100800000056],[24.69378960000003,37.96626490000001],[24.74912360000002,37.9930528],[24.78481910000002,37.983019600000034],[24.79879360000004,37.96754729999998],[24.832014400000077,37.95901119999998],[24.825579100000084,37.93611910000001],[24.850641800000062,37.91057540000003],[24.87654610000004,37.901413900000065],[24.95231850000002,37.9018629],[24.957213,37.871254299999976],[24.940436600000027,37.856899],[24.980191600000097,37.8134599],[24.951390100000026,37.775189699999956],[24.99559320000006,37.77358030000002],[24.982936400000085,37.7334919],[24.961244700000037,37.707024799999985],[24.936708800000048,37.69377590000005]]]},"properties":{"cat":177,"name_en":"Greece","ISO3166_1_":"GRC"}},
{"type":"Feature","geometry":{"type":"Polygon","coordinates":[[[23.428345100000058,37.97628179999997],[23.473528300000083,37.98034690000006],[23.49572120000002,38.002101],[23.531061,37.98757880000005],[23.52732080000007,37.95838949999997],[23.544404,37.95658870000001],[23.533100500000074,37.9217164],[23.509083700000048,37.89567480000002],[23.49077740000007,37.900989400000014],[23.449191300000024,37.87316130000002],[23.402248600000064,37.908187299999966],[23.419507,37.9261183],[23.469798,37.92445880000007],[23.500044500000058,37.96306860000006],[23.462868900000075,37.952053700000036],[23.43631670000005,37.95558120000004],[23.428345100000058,37.97628179999997]]]},"properties":{"cat":177,"name_en":"Greece","ISO3166_1_":"GRC"}},
{"type":"Feature","geometry":{"type":"Polygon","coordinates":[[[20.64258,38.10791],[20.61102660000006,38.1177825],[20.55527180000007,38.09125839999999],[20.513383800000014,38.10214],[20.487457300000045,38.1206475],[20.495650500000096,38.134810300000055],[20.479689400000098,38.161454],[20.488183400000082,38.183880500000015],[20.471051300000028,38.231280399999974],[20.45127080000003,38.26355310000001],[20.428350600000044,38.27834120000003],[20.43966580000003,38.22625449999997],[20.439032100000077,38.161658100000025],[20.381267200000053,38.1495866],[20.377361800000045,38.163010900000046],[20.343260100000037,38.17476839999996],[20.33710650000006,38.18950360000004],[20.357950300000027,38.22480850000005],[20.35398630000006,38.24970150000003],[20.387660800000077,38.27351239999999],[20.399609,38.3457494],[20.439469600000052,38.35776160000002],[20.449504200000035,38.324932500000045],[20.47700430000009,38.309390299999976],[20.53366530000008,38.341261600000024],[20.547281500000025,38.357200100000014],[20.548732200000074,38.38622980000004],[20.53622880000009,38.43903070000003],[20.53693880000003,38.470172600000026],[20.57386850000009,38.466207300000036],[20.60754220000004,38.403393400000056],[20.624811,38.3461724],[20.62400050000005,38.31367759999998],[20.610582900000026,38.29270070000001],[20.631805300000025,38.25295679999998],[20.65412120000002,38.25648079999998],[20.68105040000009,38.276474800000045],[20.711063200000098,38.226465600000026],[20.7664343000001,38.1700801],[20.769404700000024,38.156729099999964],[20.816034,38.11263130000002],[20.797147400000057,38.06495170000002],[20.766868600000066,38.0689404],[20.74615140000003,38.0612566],[20.70063440000007,38.06949790000003],[20.64258,38.10791]]]},"properties":{"cat":177,"name_en":"Greece","ISO3166_1_":"GRC"}},
{"type":"Feature","geometry":{"type":"Polygon","coordinates":[[[20.647555200000056,38.498296900000014],[20.670957500000043,38.47950850000004],[20.67912670000007,38.45421020000002],[20.708271500000023,38.435793499999974],[20.68463120000007,38.39027],[20.701538800000037,38.37979090000002],[20.734798400000017,38.385405],[20.74822910000006,38.35443109999997],[20.74382280000009,38.3089923],[20.71369480000004,38.30262920000003],[20.697845700000073,38.31222189999997],[20.687276,38.344300899999965],[20.670102,38.3558121],[20.639216400000038,38.433546500000034],[20.61488070000007,38.46583170000004],[20.653209900000036,38.47776620000003],[20.647555200000056,38.498296900000014]]]},"properties":{"cat":177,"name_en":"Greece","ISO3166_1_":"GRC"}},
{"type":"Feature","geometry":{"type":"Polygon","coordinates":[[[26.07434470000004,38.20686479999998],[26.037719,38.19817529999999],[26.023687600000045,38.1789979],[26.022773800000095,38.156983599999975],[25.998727300000013,38.1552611],[25.970455300000054,38.16945379999997],[25.948357700000088,38.19562240000005],[25.924956400000013,38.1948661],[25.864307,38.243873],[25.876138800000092,38.27306],[25.934585600000048,38.300759],[25.96415810000002,38.298076],[25.972934300000105,38.32219520000004],[25.99605740000007,38.34238919999997],[25.990530400000097,38.3834996],[25.965371,38.40389059999998],[25.95637940000009,38.442745900000034],[25.924123300000076,38.469216200000034],[25.890906500000085,38.47441350000001],[25.865323600000067,38.4903423],[25.83242930000003,38.538533699999974],[25.85692030000004,38.58040689999997],[25.890606200000036,38.58882960000001],[25.93525580000008,38.5873385],[26.00798670000009,38.60445869999998],[26.04123530000004,38.58963360000001],[26.05984780000003,38.59323269999999],[26.08660290000006,38.554908],[26.16022080000002,38.5509786],[26.150796100000036,38.52271119999999],[26.15393220000007,38.50130740000006],[26.14327540000002,38.47710820000003],[26.154363,38.459297400000025],[26.1344912000001,38.42094759999996],[26.14262830000004,38.3403887],[26.160086300000074,38.3125463],[26.1020740000001,38.2689437],[26.116176900000085,38.23445579999998],[26.100282600000043,38.21058989999999],[26.07434470000004,38.20686479999998]]]},"properties":{"cat":177,"name_en":"Greece","ISO3166_1_":"GRC"}},
{"type":"Feature","geometry":{"type":"Polygon","coordinates":[[[20.55611980000006,38.620168100000015],[20.55602170000003,38.680244],[20.577306100000044,38.71592279999999],[20.601241300000083,38.781683],[20.624445,38.793946200000036],[20.64633550000002,38.83177160000004],[20.674824700000016,38.83198730000004],[20.68614,38.8507141],[20.71085,38.83585420000007],[20.72732970000004,38.80713939999998],[20.720433800000023,38.7980808],[20.72205610000006,38.751608200000035],[20.733125400000063,38.73992629999998],[20.71959510000002,38.700802],[20.725095500000094,38.67946580000003],[20.712807600000104,38.66575330000002],[20.724842,38.63159649999997],[20.671834100000098,38.60246820000005],[20.616443600000082,38.59803040000003],[20.594815500000067,38.6320274],[20.568731400000047,38.58606540000001],[20.549541300000044,38.592635699999974],[20.55611980000006,38.620168100000015]]]},"properties":{"cat":177,"name_en":"Greece","ISO3166_1_":"GRC"}},
{"type":"Feature","geometry":{"type":"Polygon","coordinates":[[[24.525470700000085,38.845244200000025],[24.48595490000008,38.85566330000003],[24.430865200000085,38.88102020000002],[24.466575400000067,38.917148200000014],[24.448393900000013,38.9456516],[24.47540400000011,38.97724980000001],[24.505319700000058,38.97097069999998],[24.534851100000054,38.94807890000003],[24.582633100000095,38.92480030000006],[24.57147390000003,38.91258320000004],[24.576506400000028,38.87995690000005],[24.666344500000037,38.82409170000001],[24.682388600000053,38.80649720000005],[24.68133780000005,38.78224030000004],[24.653118800000044,38.766512299999974],[24.60718970000002,38.77164469999998],[24.59706330000006,38.78825240000002],[24.55184140000003,38.77938480000003],[24.568225700000028,38.83718849999998],[24.54153510000009,38.83487509999996],[24.525470700000085,38.845244200000025]]]},"properties":{"cat":177,"name_en":"Greece","ISO3166_1_":"GRC"}},
{"type":"Feature","geometry":{"type":"Polygon","coordinates":[[[23.781207600000073,38.700119200000046],[23.815089500000028,38.69347049999999],[23.858431400000057,38.672359],[23.89146230000003,38.67814950000002],[23.956610500000068,38.661187100000035],[23.988726500000013,38.67764870000006],[24.038281400000017,38.68424180000005],[24.075801900000016,38.6799227],[24.127670700000067,38.66545539999997],[24.14014190000006,38.6457663],[24.122674800000084,38.62953879999998],[24.11977810000002,38.6100528],[24.130579900000015,38.58631480000004],[24.15472820000008,38.56914],[24.231858100000096,38.525291],[24.18747460000006,38.48439130000001],[24.180967100000032,38.435190299999974],[24.203800200000018,38.420504],[24.182001,38.393533300000016],[24.211199400000083,38.38087960000003],[24.219161,38.3646348],[24.217307500000118,38.3268234],[24.255668600000035,38.287433],[24.246203500000092,38.23906279999996],[24.271683900000085,38.1980338],[24.29609860000008,38.19438760000003],[24.352864700000055,38.15433810000002],[24.396656800000017,38.16661670000006],[24.403296500000067,38.153667200000015],[24.433250400000077,38.14341150000003],[24.48063170000009,38.141245],[24.509245200000066,38.14620470000003],[24.55722810000003,38.1407929],[24.593018500000056,38.15000680000003],[24.574357400000054,38.10956079999998],[24.58779220000008,38.06702250000002],[24.5797649000001,38.019532299999966],[24.56696770000005,38.01050930000001],[24.5572667000001,37.97883620000002],[24.541032400000063,37.975094],[24.509445300000095,37.94935629999996],[24.47680490000002,37.95496189999996],[24.46822650000007,37.98736109999999],[24.450379,38.004498699999985],[24.41640780000006,38.01323270000002],[24.38579980000003,37.99429730000004],[24.385264900000067,37.9598145],[24.347597700000023,37.97875],[24.331710100000066,38.012074],[24.310566300000062,38.017531599999984],[24.319696200000067,38.04029089999999],[24.31285420000009,38.0614962],[24.278946,38.08690859999997],[24.207082600000092,38.09903659999998],[24.206692600000054,38.18108740000001],[24.192322,38.189340300000026],[24.184106800000023,38.2170566],[24.13970970000011,38.2494822],[24.15916160000009,38.26920459999998],[24.146135300000083,38.28172490000004],[24.116422500000027,38.286658500000044],[24.112220900000125,38.31199329999997],[24.084690900000084,38.32004769999999],[24.02735540000006,38.3246045],[24.059678200000064,38.340583499999966],[24.050129,38.370326400000025],[24.032468200000068,38.38924940000004],[23.987411300000076,38.401146],[23.96090190000004,38.38718449999999],[23.892001300000032,38.385594],[23.86017490000006,38.399184499999976],[23.817860700000097,38.4039788],[23.800854300000026,38.38799980000003],[23.774950800000028,38.39071059999996],[23.724754600000068,38.40937850000002],[23.690462600000018,38.413763500000016],[23.64780740000006,38.399508],[23.621461800000077,38.446251900000036],[23.589685100000054,38.46291160000001],[23.623091400000106,38.474183],[23.62661730000005,38.5413947],[23.59914160000008,38.57158089999997],[23.55740620000003,38.58230660000004],[23.525954200000058,38.577941],[23.508045500000037,38.589064],[23.492179200000066,38.633676800000046],[23.449233,38.64911480000002],[23.439598,38.67396770000005],[23.413015100000052,38.69198090000002],[23.388917800000087,38.69645589999999],[23.349818200000072,38.725667100000024],[23.320688,38.763992],[23.281778,38.768140500000044],[23.25201210000003,38.79477710000003],[23.233704300000028,38.79992290000001],[23.204113500000034,38.8306033],[23.129753400000027,38.852217700000054],[23.082516900000087,38.8386679],[23.04130870000006,38.85589850000004],[23.03283670000002,38.88153110000002],[22.989416400000096,38.8812927],[22.992400400000065,38.85059279999999],[22.960033500000065,38.83562010000006],[22.88551,38.838716700000035],[22.82970240000006,38.826576],[22.850471600000077,38.8712375],[22.898024800000087,38.877627200000035],[22.937141500000024,38.89538310000003],[22.981264600000088,38.90421650000002],[23.02361490000004,38.91962840000005],[23.048896100000064,38.9431997],[23.087645900000012,38.94799630000003],[23.092741200000063,38.98281050000003],[23.13076490000006,39.00822660000003],[23.20352520000003,39.00396160000001],[23.238412600000032,39.023673],[23.29953640000005,39.03957280000006],[23.32339250000004,39.03512239999998],[23.33640340000008,39.01633909999998],[23.37711950000002,39.0070186],[23.37129630000004,38.98555110000004],[23.384934600000037,38.962442099999976],[23.43026270000007,38.9544333],[23.426557400000092,38.90539650000005],[23.444342100000085,38.8643804],[23.470642800000093,38.8356258],[23.51649,38.82088479999997],[23.51835840000004,38.80851930000003],[23.57694980000008,38.78249120000001],[23.59249550000007,38.76408610000004],[23.680988900000074,38.75250690000006],[23.715424400000018,38.7610939],[23.7489676000001,38.72681660000002],[23.75808360000002,38.705861700000014],[23.781207600000073,38.700119200000046]]]},"properties":{"cat":177,"name_en":"Greece","ISO3166_1_":"GRC"}},
{"type":"Feature","geometry":{"type":"Polygon","coordinates":[[[26.523193900000052,39.045699900000045],[26.5284544000001,39.08247329999996],[26.489913600000023,39.11845060000002],[26.463271700000035,39.1165567],[26.441324300000076,39.1023379],[26.465549400000043,39.068444399999976],[26.491054400000024,39.0604356],[26.529284700000034,39.0232793],[26.54487960000003,38.99020890000004],[26.520793500000025,38.97205469999996],[26.49536690000005,38.977286],[26.418526800000024,38.96168629999997],[26.359060800000037,38.9772862],[26.328108500000013,38.976636100000036],[26.286958500000054,39.0011092],[26.237542700000034,39.01523920000001],[26.201683400000064,39.019171],[26.167268600000057,39.01317759999996],[26.14230910000009,39.029764300000025],[26.11926630000002,39.06236750000005],[26.103119400000082,39.07243840000004],[26.10603380000009,39.09472259999998],[26.133466500000054,39.086497],[26.169019900000023,39.100760700000066],[26.188488300000046,39.12626550000003],[26.223055300000027,39.13112349999999],[26.286042,39.15976570000002],[26.295599800000076,39.18303490000001],[26.252284700000047,39.2057272],[26.20228780000008,39.20666740000006],[26.164411,39.193639],[26.15711390000007,39.16295],[26.12269,39.138375],[26.113946600000048,39.11690980000007],[26.06761190000003,39.08755690000004],[25.99345790000004,39.1086495],[25.960833500000035,39.1068154],[25.932123500000074,39.133932],[25.875803100000013,39.149933500000074],[25.855094300000047,39.19332390000001],[25.857176800000047,39.21969379999997],[25.845768100000043,39.22875910000006],[25.874249,39.270549],[25.904884,39.2830682],[25.95168910000004,39.27412720000004],[25.96986810000007,39.28539329999997],[25.99601890000008,39.27822829999998],[26.017336500000084,39.29009280000004],[26.062970200000024,39.2932899],[26.081716200000045,39.30360330000005],[26.113041700000025,39.30526570000002],[26.16510050000008,39.322529],[26.169409200000075,39.37281410000004],[26.224672800000093,39.383516],[26.31765120000003,39.373378],[26.34989040000005,39.38199850000004],[26.365993,39.37253080000005],[26.350267700000074,39.353420700000015],[26.42276940000005,39.335511700000055],[26.377130600000072,39.278808799999965],[26.475401,39.223961],[26.499777900000055,39.18027550000005],[26.535884500000066,39.17021790000001],[26.530055900000093,39.14094519999996],[26.547084600000034,39.1252347],[26.560606300000074,39.092411],[26.593672900000087,39.069635099999985],[26.615952,39.0284318],[26.607123600000023,39.00918210000005],[26.56382750000006,39.018799499999986],[26.53720590000006,39.0138971],[26.523193900000052,39.045699900000045]]]},"properties":{"cat":177,"name_en":"Greece","ISO3166_1_":"GRC"}},
{"type":"Feature","geometry":{"type":"Polygon","coordinates":[[[19.963538200000016,39.46341990000005],[20.000494,39.45738710000005],[20.022193300000083,39.43345909999998],[20.06774180000005,39.4537733],[20.09477490000009,39.42299150000004],[20.099073600000054,39.40442690000002],[20.122473200000087,39.379290900000015],[20.1156505000001,39.36354580000004],[20.083293300000093,39.3658587],[20.03108640000005,39.39139860000003],[20.001442100000048,39.398581],[19.97919760000002,39.416476],[19.93170630000006,39.431727],[19.910973600000034,39.43066660000004],[19.873059800000078,39.453920700000026],[19.852123800000044,39.491321399999975],[19.84329870000002,39.534978599999974],[19.850265900000068,39.54455279999998],[19.831184700000023,39.57311170000004],[19.773556200000087,39.6122181],[19.740853900000047,39.624727799999974],[19.726438700000045,39.653430899999975],[19.72848920000007,39.67439180000004],[19.67304850000008,39.68027410000002],[19.683661,39.70866480000002],[19.657369800000083,39.726023900000044],[19.64099310000006,39.7546867],[19.67410920000009,39.796745],[19.715183600000074,39.78940150000004],[19.748835900000017,39.798894199999964],[19.79632250000006,39.7903521],[19.84769100000011,39.8222218],[19.87420860000003,39.81566069999998],[19.888118900000052,39.796623400000016],[19.954270900000097,39.77868720000002],[19.955407500000092,39.769026300000036],[19.926979700000032,39.73271340000002],[19.884287500000028,39.72365670000002],[19.838061800000077,39.694311100000064],[19.864317600000078,39.64056630000003],[19.921190600000045,39.61674640000004],[19.909495200000038,39.56701990000005],[19.922875,39.528272],[19.924091600000082,39.5028387],[19.93722440000002,39.47227770000002],[19.963538200000016,39.46341990000005]]]},"properties":{"cat":177,"name_en":"Greece","ISO3166_1_":"GRC"}},
{"type":"Feature","geometry":{"type":"Polygon","coordinates":[[[25.196111,39.84574280000004],[25.224386500000037,39.80603079999999],[25.15713,39.7993649],[25.14222010000003,39.8094659],[25.155706200000083,39.829034400000026],[25.14693290000008,39.84359719999998],[25.120019100000064,39.8515796],[25.091587900000064,39.83890290000005],[25.06574990000007,39.84124960000007],[25.04968180000003,39.8656055],[25.07303280000005,39.918139400000015],[25.044506500000097,39.95919079999997],[25.046398800000077,39.98447810000006],[25.12130480000002,39.99729949999997],[25.15152260000005,39.99004729999997],[25.23603860000003,40.00497870000004],[25.262671200000057,39.9876967],[25.263790200000102,39.96660810000003],[25.278823500000044,39.942147100000014],[25.304609500000026,39.95523460000001],[25.341818800000027,39.962923100000054],[25.338881600000093,39.9760915],[25.370445800000056,40.00080639999997],[25.400811900000065,40.00517930000002],[25.432316300000053,40.0190319],[25.44308060000003,39.980328700000015],[25.41377280000009,39.96792229999997],[25.385356900000033,39.94134630000002],[25.38230850000005,39.9219564],[25.35416,39.9001942],[25.34012210000006,39.8760447],[25.346121,39.83431450000002],[25.372316200000085,39.809921800000055],[25.353318200000075,39.803365499999984],[25.341213800000077,39.783108700000014],[25.306162500000084,39.79349],[25.28857530000002,39.8077077],[25.293729300000052,39.823024100000026],[25.260205600000063,39.83761570000004],[25.248575600000038,39.852428100000026],[25.27704960000011,39.89670429999998],[25.255329400000022,39.91220929999999],[25.233270600000054,39.91072469999999],[25.203340900000086,39.8917289],[25.196111,39.84574280000004]]]},"properties":{"cat":177,"name_en":"Greece","ISO3166_1_":"GRC"}},
{"type":"Feature","geometry":{"type":"Polygon","coordinates":[[[23.442364200000043,39.97017749999996],[23.4173526000001,39.9605759],[23.359773800000028,39.96054070000001],[23.382424,39.997742],[23.331464500000095,40.073575],[23.311698500000062,40.08069709999998],[23.30671330000004,40.1020526],[23.32118250000005,40.12470849999997],[23.317333300000087,40.147481500000026],[23.326848,40.18277980000002],[23.347409800000037,40.1826615],[23.354640800000055,40.15628969999999],[23.374472100000077,40.140528900000035],[23.417073,40.12661619999997],[23.470411700000056,40.0514715],[23.494283,40.033568],[23.589983100000097,39.997196],[23.671637800000042,39.97420290000005],[23.691319300000032,39.93411370000004],[23.74466060000006,39.9281438],[23.715774800000048,39.9078276],[23.683748,39.91730310000001],[23.648805100000033,39.915578300000035],[23.591722300000043,39.92198990000003],[23.479277,39.966698200000025],[23.442364200000043,39.97017749999996]]]},"properties":{"cat":177,"name_en":"Greece","ISO3166_1_":"GRC"}},
{"type":"Feature","geometry":{"type":"Polygon","coordinates":[[[24.511531700000063,40.657512],[24.533841,40.71337829999999],[24.57889480000003,40.75846639999999],[24.65126920000006,40.8010108],[24.666590200000115,40.7848392],[24.71248410000007,40.780565],[24.762123700000046,40.73171570000005],[24.760038800000046,40.70933559999999],[24.782977300000027,40.68790729999998],[24.762690200000037,40.67489289999999],[24.77712040000003,40.61989849999996],[24.71551050000008,40.595156200000034],[24.695493,40.5982057],[24.64723770000009,40.5693242],[24.598012500000095,40.616961],[24.576280400000087,40.62596770000005],[24.53001770000006,40.6197979],[24.51336680000003,40.6362131],[24.511531700000063,40.657512]]]},"properties":{"cat":177,"name_en":"Greece","ISO3166_1_":"GRC"}}
]}