{"type":"FeatureCollection","crs":{"type":"name","properties":{"name":"urn:ogc:def:crs:EPSG::32632"}},"features":[
{"type":"Feature","geometry":null,"properties":{"cat":71,"name_en":"Myanmar","ISO3166_1_":"MMR"}},
{"type":"Feature","geometry":null,"properties":{"cat":71,"name_en":"Myanmar","ISO3166_1_":"MMR"}},
{"type":"Feature","geometry":null,"properties":{"cat":71,"name_en":"Myanmar","ISO3166_1_":"MMR"}},
{"type":"Feature","geometry":null,"properties":{"cat":71,"name_en":"Myanmar","ISO3166_1_":"MMR"}},
{"type":"Feature","geometry":null,"properties":{"cat":71,"name_en":"Myanmar","ISO3166_1_":"MMR"}},
{"type":"Feature","geometry":null,"properties":{"cat":71,"name_en":"Myanmar","ISO3166_1_":"MMR"}},
{"type":"Feature","geometry":null,"properties":{"cat":71,"name_en":"Myanmar","ISO3166_1_":"MMR"}},
{"type":"Feature","geometry":null,"properties":{"cat":71,"name_en":"Myanmar","ISO3166_1_":"MMR"}},
{"type":"Feature","geometry":null,"properties":{"cat":71,"name_en":"Myanmar","ISO3166_1_":"MMR"}},
{"type":"Feature","geometry":null,"properties":{"cat":71,"name_en":"Myanmar","ISO3166_1_":"MMR"}},
{"type":"Feature","geometry":null,"properties":{"cat":71,"name_en":"Myanmar","ISO3166_1_":"MMR"}},
{"type":"Feature","geometry":null,"properties":{"cat":71,"name_en":"Myanmar","ISO3166_1_":"MMR"}},
{"type":"Feature","geometry":null,"properties":{"cat":71,"name_en":"Myanmar","ISO3166_1_":"MMR"}},
{"type":"Feature","geometry":null,"properties":{"cat":71,"name_en":"Myanmar","ISO3166_1_":"MMR"}},
{"type":"Feature","geometry":null,"properties":{"cat":71,"name_en":"Myanmar","ISO3166_1_":"MMR"}},
{"type":"Feature","geometry":null,"properties":{"cat":71,"name_en":"Myanmar","ISO3166_1_":"MMR"}},
{"type":"Feature","geometry":null,"properties":{"cat":71,"name_en":"Myanmar","ISO3166_1_":"MMR"}},
{"type":"Feature","geometry":null,"properties":{"cat":71,"name_en":"Myanmar","ISO3166_1_":"MMR"}},
{"type":"Feature","geometry":null,"properties":{"cat":71,"name_en":"Myanmar","ISO3166_1_":"MMR"}},
{"type":"Feature","geometry":null,"properties":{"cat":71,"name_en":"Myanmar","ISO3166_1_":"MMR"}},
{"type":"Feature","geometry":null,"properties":{"cat":71,"name_en":"Myanmar","ISO3166_1_":"MMR"}},
{"type":"Feature","geometry":null,"properties":{"cat":71,"name_en":"Myanmar","ISO3166_1_":"MMR"}},
{"type":"Feature","geometry":null,"properties":{"cat":71,"name_en":"Myanmar","ISO3166_1_":"MMR"}},
{"type":"Feature","geometry":null,"properties":{"cat":71,"name_en":"Myanmar","ISO3166_1_":"MMR"}},
{"type":"Feature","geometry":null,"properties":{"cat":71,"name_en":"Myanmar","ISO3166_1_":"MMR"}},
{"type":"Feature","geometry":null,"properties":{"cat":71,"name_en":"Myanmar","ISO3166_1_":"MMR"}},
{"type":"Feature","geometry":null,"properties":{"cat":71,"name_en":"Myanmar","ISO3166_1_":"MMR"}},
{"type":"Feature","geometry":null,"properties":{"cat":71,"name_en":"Myanmar","ISO3166_1_":"MMR"}},
{"type":"Feature","geometry":null,"properties":{"cat":71,"name_en":"Myanmar","ISO3166_1_":"MMR"}},
{"type":"Feature","geometry":null,"properties":{"cat":71,"name_en":"Myanmar","ISO3166_1_":"MMR"}},
{"type":"Feature","geometry":null,"properties":{"cat":71,"name_en":"Myanmar","ISO3166_1_":"MMR"}},
{"type":"Feature","geometry":null,"properties":{"cat":71,"name_en":"Myanmar","ISO3166_1_":"MMR"}},
{"type":"Feature","geometry":null,"properties":{"cat":71,"name_en":"Myanmar","ISO3166_1_":"MMR"}},
{"type":"Feature","geometry":null,"properties":{"cat":71,"name_en":"Myanmar","ISO3166_1_":"MMR"}},
{"type":"Feature","geometry":null,"properties":{"cat":71,"name_en":"Myanmar","ISO3166_1_":"MMR"}},
{"type":"Feature","geometry":null,"properties":{"cat":71,"name_en":"Myanmar","ISO3166_1_":"MMR"}},
{"type":"Feature","geometry":null,"properties":{"cat":71,"name_en":"Myanmar","ISO3166_1_":"MMR"}},
{"type":"Feature","geometry":null,"properties":{"cat":71,"name_en":"Myanmar","ISO3166_1_":"MMR"}},
{"type":"Feature","geometry":null,"properties":{"cat":71,"name_en":"Myanmar","ISO3166_1_":"MMR"}},
{"type":"Feature","geometry":null,"properties":{"cat":71,"name_en":"Myanmar","ISO3166_1_":"MMR"}},
{"type":"Feature","geometry":null,"properties":{"cat":71,"name_en":"Myanmar","ISO3166_1_":"MMR"}},
{"type":"Feature","geometry":null,"properties":{"cat":71,"name_en":"Myanmar","ISO3166_1_":"MMR"}},
{"type":"Feature","geometry":null,"properties":{"cat":71,"name_en":"Myanmar","ISO3166_1_":"MMR"}},
{"type":"Feature","geometry":null,"properties":{"cat":71,"name_en":"Myanmar","ISO3166_1_":"MMR"}},
{"type":"Feature","geometry":null,"properties":{"cat":71,"name_en":"Myanmar","ISO3166_1_":"MMR"}},
{"type":"Feature","geometry":null,"properties":{"cat":71,"name_en":"Myanmar","ISO3166_1_":"MMR"}},
{"type":"Feature","geometry":null,"properties":{"cat":71,"name_en":"Myanmar","ISO3166_1_":"MMR"}},
{"type":"Feature","geometry":null,"properties":{"cat":71,"name_en":"Myanmar","ISO3166_1_":"MMR"}},
{"type":"Feature","geometry":null,"properties":{"cat":71,"name_en":"Myanmar","ISO3166_1_":"MMR"}},
{"type":"Feature","geometry":null,"properties":{"cat":71,"name_en":"Myanmar","ISO3166_1_":"MMR"}},
{"type":"Feature","geometry":null,"properties":{"cat":71,"name_en":"Myanmar","ISO3166_1_":"MMR"}},
{"type":"Feature","geometry":null,"properties":{"cat":71,"name_en":"Myanmar","ISO3166_1_":"MMR"}},
{"type":"Feature","geometry":null,"properties":{"cat":71,"name_en":"Myanmar","ISO3166_1_":"MMR"}},
{"type":"Feature","geometry":null,"properties":{"cat":71,"name_en":"Myanmar","ISO3166_1_":"MMR"}},
{"type":"Feature","geometry":null,"properties":{"cat":71,"name_en":"Myanmar","ISO3166_1_":"MMR"}},
{"type":"Feature","geometry":null,"properties":{"cat":71,"name_en":"Myanmar","ISO3166_1_":"MMR"}},
{"type":"Feature","geometry":null,"properties":{"cat":71,"name_en":"Myanmar","ISO3166_1_":"MMR"}},
{"type":"Feature","geometry":null,"properties":{"cat":71,"name_en":"Myanmar","ISO3166_1_":"MMR"}},
{"type":"Feature","geometry":null,"properties":{"cat":71,"name_en":"Myanmar","ISO3166_1_":"MMR"}},
{"type":"Feature","geometry":null,"properties":{"cat":71,"name_en":"Myanmar","ISO3166_1_":"MMR"}},
{"type":"Feature","geometry":null,"properties":{"cat":71,"name_en":"Myanmar","ISO3166_1_":"MMR"}},
{"type":"Feature","geometry":null,"properties":{"cat":71,"name_en":"Myanmar","ISO3166_1_":"MMR"}},
{"type":"Feature","geometry":null,"properties":{"cat":71,"name_en":"Myanmar","ISO3166_1_":"MMR"}},
{"type":"Feature","geometry":null,"properties":{"cat":71,"name_en":"Myanmar","ISO3166_1_":"MMR"}},
{"type":"Feature","geometry":null,"properties":{"cat":71,"name_en":"Myanmar","ISO3166_1_":"MMR"}},
{"type":"Feature","geometry":null,"properties":{"cat":71,"name_en":"Myanmar","ISO3166_1_":"MMR"}},
{"type":"Feature","geometry":null,"properties":{"cat":71,"name_en":"Myanmar","ISO3166_1_":"MMR"}},
{"type":"Feature","geometry":null,"properties":{"cat":71,"name_en":"Myanmar","ISO3166_1_":"MMR"}},
{"type":"Feature","geometry":null,"properties":{"cat":71,"name_en":"Myanmar","ISO3166_1_":"MMR"}},
{"type":"Feature","geometry":null,"properties":{"cat":71,"name_en":"Myanmar","ISO3166_1_":"MMR"}},
{"type":"Feature","geometry":null,"properties":{"cat":71,"name_en":"Myanmar","ISO3166_1_":"MMR"}},
{"type":"Feature","geometry":null,"properties":{"cat":71,"name_en":"Myanmar","ISO3166_1_":"MMR"}},
{"type":"Feature","geometry":null,"properties":{"cat":71,"name_en":"Myanmar","ISO3166_1_":"MMR"}},
{"type":"Feature","geometry":null,"properties":{"cat":71,"name_en":"Myanmar","ISO3166_1_":"MMR"}},
{"type":"Feature","geometry":null,"properties":{"cat":71,"name_en":"Myanmar","ISO3166_1_":"MMR"}},
{"type":"Feature","geometry":null,"properties":{"cat":71,"name_en":"Myanmar","ISO3166_1_":"MMR"}},
{"type":"Feature","geometry":null,"properties":{"cat":71,"name_en":"Myanmar","ISO3166_1_":"MMR"}},
{"type":"Feature","geometry":null,"properties":{"cat":71,"name_en":"Myanmar","ISO3166_1_":"MMR"}},
{"type":"Feature","geometry":null,"properties":{"cat":71,"name_en":"Myanmar","ISO3166_1_":"MMR"}},
{"type":"Feature","geometry":null,"properties":{"cat":71,"name_en":"Myanmar","ISO3166_1_":"MMR"}},
{"type":"Feature","geometry":null,"properties":{"cat":71,"name_en":"Myanmar","ISO3166_1_":"MMR"}},
{"type":"Feature","geometry":null,"properties":{"cat":71,"name_en":"Myanmar","ISO3166_1_":"MMR"}},
{"type":"Feature","geometry":null,"properties":{"cat":71,"name_en":"Myanmar","ISO3166_1_":"MMR"}},
{"type":"Feature","geometry":null,"properties":{"cat":71,"name_en":"Myanmar","ISO3166_1_":"MMR"}},
{"type":"Feature","geometry":null,"properties":{"cat":71,"name_en":"Myanmar","ISO3166_1_":"MMR"}},
{"type":"Feature","geometry":null,"properties":{"cat":71,"name_en":"Myanmar","ISO3166_1_":"MMR"}},
{"type":"Feature","geometry":null,"properties":{"cat":71,"name_en":"Myanmar","ISO3166_1_":"MMR"}},
{"type":"Feature","geometry":null,"properties":{"cat":71,"name_en":"Myanmar","ISO3166_1_":"MMR"}},
{"type":"Feature","geometry":null,"properties":{"cat":71,"name_en":"Myanmar","ISO3166_1_":"MMR"}},
{"type":"Feature","geometry":null,"properties":{"cat":71,"name_en":"Myanmar","ISO3166_1_":"MMR"}},
{"type":"Feature","geometry":null,"properties":{"cat":71,"name_en":"Myanmar","ISO3166_1_":"MMR"}},
{"type":"Feature","geometry":null,"properties":{"cat":71,"name_en":"Myanmar","ISO3166_1_":"MMR"}},
{"type":"Feature","geometry":null,"properties":{"cat":71,"name_en":"Myanmar","ISO3166_1_":"MMR"}},
{"type":"Feature","geometry":null,"properties":{"cat":71,"name_en":"Myanmar","ISO3166_1_":"MMR"}},
{"type":"Feature","geometry":null,"properties":{"cat":71,"name_en":"Myanmar","ISO3166_1_":"MMR"}},
{"type":"Feature","geometry":null,"properties":{"cat":71,"name_en":"Myanmar","ISO3166_1_":"MMR"}},
{"type":"Feature","geometry":null,"properties":{"cat":71,"name_en":"Myanmar","ISO3166_1_":"MMR"}},
{"type":"Feature","geometry":null,"properties":{"cat":71,"name_en":"Myanmar","ISO3166_1_":"MMR"}},
{"type":"Feature","geometry":null,"properties":{"cat":71,"name_en":"Myanmar","ISO3166_1_":"MMR"}},
{"type":"Feature","geometry":null,"properties":{"cat":71,"name_en":"Myanmar","ISO3166_1_":"MMR"}},
{"type":"Feature","geometry":null,"properties":{"cat":71,"name_en":"Myanmar","ISO3166_1_":"MMR"}},
{"type":"Feature","geometry":null,"properties":{"cat":71,"name_en":"Myanmar","ISO3166_1_":"MMR"}},
{"type":"Feature","geometry":null,"properties":{"cat":71,"name_en":"Myanmar","ISO3166_1_":"MMR"}},
{"type":"Feature","geometry":null,"properties":{"cat":71,"name_en":"Myanmar","ISO3166_1_":"MMR"}},
{"type":"Feature","geometry":null,"properties":{"cat":71,"name_en":"Myanmar","ISO3166_1_":"MMR"}},
{"type":"Feature","geometry":null,"properties":{"cat":71,"name_en":"Myanmar","ISO3166_1_":"MMR"}},
{"type":"Feature","geometry":{"type":"Polygon","coordinates":[[[98.08124030000008,12.2987267],[98.13897970000002,12.27212150000004],[98.12293430000008,12.164485899999988],[98.046232,12.203696],[98.08124030000008,12.2987267]]]},"properties":{"cat":71,"name_en":"Myanmar","ISO3166_1_":"MMR"}},
{"type":"Feature","geometry":null,"properties":{"cat":71,"name_en":"Myanmar","ISO3166_1_":"MMR"}},
{"type":"Feature","geometry":null,"properties":{"cat":71,"name_en":"Myanmar","ISO3166_1_":"MMR"}},
{"type":"Feature","geometry":null,"properties":{"cat":71,"name_en":"Myanmar","ISO3166_1_":"MMR"}},
{"type":"Feature","geometry":null,"properties":{"cat":71,"name_en":"Myanmar","ISO3166_1_":"MMR"}},
{"type":"Feature","geometry":null,"properties":{"cat":71,"name_en":"Myanmar","ISO3166_1_":"MMR"}},
{"type":"Feature","geometry":null,"properties":{"cat":71,"name_en":"Myanmar","ISO3166_1_":"MMR"}},
{"type":"Feature","geometry":null,"properties":{"cat":71,"name_en":"Myanmar","ISO3166_1_":"MMR"}},
{"type":"Feature","geometry":null,"properties":{"cat":71,"name_en":"Myanmar","ISO3166_1_":"MMR"}},
{"type":"Feature","geometry":null,"properties":{"cat":71,"name_en":"Myanmar","ISO3166_1_":"MMR"}},
{"type":"Feature","geometry":null,"properties":{"cat":71,"name_en":"Myanmar","ISO3166_1_":"MMR"}},
{"type":"Feature","geometry":null,"properties":{"cat":71,"name_en":"Myanmar","ISO3166_1_":"MMR"}},
{"type":"Feature","geometry":null,"properties":{"cat":71,"name_en":"Myanmar","ISO3166_1_":"MMR"}},
{"type":"Feature","geometry":null,"properties":{"cat":71,"name_en":"Myanmar","ISO3166_1_":"MMR"}},
{"type":"Feature","geometry":null,"properties":{"cat":71,"name_en":"Myanmar","ISO3166_1_":"MMR"}},
{"type":"Feature","geometry":null,"properties":{"cat":71,"name_en":"Myanmar","ISO3166_1_":"MMR"}},
{"type":"Feature","geometry":null,"properties":{"cat":71,"name_en":"Myanmar","ISO3166_1_":"MMR"}},
{"type":"Feature","geometry":null,"properties":{"cat":71,"name_en":"Myanmar","ISO3166_1_":"MMR"}},
{"type":"Feature","geometry":null,"properties":{"cat":71,"name_en":"Myanmar","ISO3166_1_":"MMR"}},
{"type":"Feature","geometry":null,"properties":{"cat":71,"name_en":"Myanmar","ISO3166_1_":"MMR"}},
{"type":"Feature","geometry":null,"properties":{"cat":71,"name_en":"Myanmar","ISO3166_1_":"MMR"}},
{"type":"Feature","geometry":null,"properties":{"cat":71,"name_en":"Myanmar","ISO3166_1_":"MMR"}},
{"type":"Feature","geometry":null,"properties":{"cat":71,"name_en":"Myanmar","ISO3166_1_":"MMR"}},
{"type":"Feature","geometry":null,"properties":{"cat":71,"name_en":"Myanmar","ISO3166_1_":"MMR"}},
{"type":"Feature","geometry":null,"properties":{"cat":71,"name_en":"Myanmar","ISO3166_1_":"MMR"}},
{"type":"Feature","geometry":null,"properties":{"cat":71,"name_en":"Myanmar","ISO3166_1_":"MMR"}},
{"type":"Feature","geometry":null,"properties":{"cat":71,"name_en":"Myanmar","ISO3166_1_":"MMR"}},
{"type":"Feature","geometry":null,"properties":{"cat":71,"name_en":"Myanmar","ISO3166_1_":"MMR"}},
{"type":"Feature","geometry":null,"properties":{"cat":71,"name_en":"Myanmar","ISO3166_1_":"MMR"}},
{"type":"Feature","geometry":null,"properties":{"cat":71,"name_en":"Myanmar","ISO3166_1_":"MMR"}},
{"type":"Feature","geometry":null,"properties":{"cat":71,"name_en":"Myanmar","ISO3166_1_":"MMR"}},
{"type":"Feature","geometry":null,"properties":{"cat":71,"name_en":"Myanmar","ISO3166_1_":"MMR"}},
{"type":"Feature","geometry":null,"properties":{"cat":71,"name_en":"Myanmar","ISO3166_1_":"MMR"}},
{"type":"Feature","geometry":null,"properties":{"cat":71,"name_en":"Myanmar","ISO3166_1_":"MMR"}},
{"type":"Feature","geometry":null,"properties":{"cat":71,"name_en":"Myanmar","ISO3166_1_":"MMR"}},
{"type":"Feature","geometry":null,"properties":{"cat":71,"name_en":"Myanmar","ISO3166_1_":"MMR"}},
{"type":"Feature","geometry":null,"properties":{"cat":71,"name_en":"Myanmar","ISO3166_1_":"MMR"}},
{"type":"Feature","geometry":null,"properties":{"cat":71,"name_en":"Myanmar","ISO3166_1_":"MMR"}},
{"type":"Feature","geometry":null,"properties":{"cat":71,"name_en":"Myanmar","ISO3166_1_":"MMR"}},
{"type":"Feature","geometry":null,"properties":{"cat":71,"name_en":"Myanmar","ISO3166_1_":"MMR"}},
{"type":"Feature","geometry":null,"properties":{"cat":71,"name_en":"Myanmar","ISO3166_1_":"MMR"}},
{"type":"Feature","geometry":null,"properties":{"cat":71,"name_en":"Myanmar","ISO3166_1_":"MMR"}},
{"type":"Feature","geometry":null,"properties":{"cat":71,"name_en":"Myanmar","ISO3166_1_":"MMR"}},
{"type":"Feature","geometry":null,"properties":{"cat":71,"name_en":"Myanmar","ISO3166_1_":"MMR"}},
{"type":"Feature","geometry":null,"properties":{"cat":71,"name_en":"Myanmar","ISO3166_1_":"MMR"}},
{"type":"Feature","geometry":null,"properties":{"cat":71,"name_en":"Myanmar","ISO3166_1_":"MMR"}},
{"type":"Feature","geometry":null,"properties":{"cat":71,"name_en":"Myanmar","ISO3166_1_":"MMR"}},
{"type":"Feature","geometry":null,"properties":{"cat":71,"name_en":"Myanmar","ISO3166_1_":"MMR"}},
{"type":"Feature","geometry":null,"properties":{"cat":71,"name_en":"Myanmar","ISO3166_1_":"MMR"}},
{"type":"Feature","geometry":null,"properties":{"cat":71,"name_en":"Myanmar","ISO3166_1_":"MMR"}},
{"type":"Feature","geometry":null,"properties":{"cat":71,"name_en":"Myanmar","ISO3166_1_":"MMR"}},
{"type":"Feature","geometry":null,"properties":{"cat":71,"name_en":"Myanmar","ISO3166_1_":"MMR"}},
{"type":"Feature","geometry":null,"properties":{"cat":71,"name_en":"Myanmar","ISO3166_1_":"MMR"}},
{"type":"Feature","geometry":null,"properties":{"cat":71,"name_en":"Myanmar","ISO3166_1_":"MMR"}},
{"type":"Feature","geometry":null,"properties":{"cat":71,"name_en":"Myanmar","ISO3166_1_":"MMR"}},
{"type":"Feature","geometry":null,"properties":{"cat":71,"name_en":"Myanmar","ISO3166_1_":"MMR"}},
{"type":"Feature","geometry":null,"properties":{"cat":71,"name_en":"Myanmar","ISO3166_1_":"MMR"}},
{"type":"Feature","geometry":null,"properties":{"cat":71,"name_en":"Myanmar","ISO3166_1_":"MMR"}},
{"type":"Feature","geometry":null,"properties":{"cat":71,"name_en":"Myanmar","ISO3166_1_":"MMR"}},
{"type":"Feature","geometry":null,"properties":{"cat":71,"name_en":"Myanmar","ISO3166_1_":"MMR"}},
{"type":"Feature","geometry":null,"properties":{"cat":71,"name_en":"Myanmar","ISO3166_1_":"MMR"}},
{"type":"Feature","geometry":null,"properties":{"cat":71,"name_en":"Myanmar","ISO3166_1_":"MMR"}},
{"type":"Feature","geometry":null,"properties":{"cat":71,"name_en":"Myanmar","ISO3166_1_":"MMR"}},
{"type":"Feature","geometry":null,"properties":{"cat":71,"name_en":"Myanmar","ISO3166_1_":"MMR"}},
{"type":"Feature","geometry":null,"properties":{"cat":71,"name_en":"Myanmar","ISO3166_1_":"MMR"}},
{"type":"Feature","geometry":null,"properties":{"cat":71,"name_en":"Myanmar","ISO3166_1_":"MMR"}},
{"type":"Feature","geometry":null,"properties":{"cat":71,"name_en":"Myanmar","ISO3166_1_":"MMR"}},
{"type":"Feature","geometry":null,"properties":{"cat":71,"name_en":"Myanmar","ISO3166_1_":"MMR"}},
{"type":"Feature","geometry":null,"properties":{"cat":71,"name_en":"Myanmar","ISO3166_1_":"MMR"}},
{"type":"Feature","geometry":null,"properties":{"cat":71,"name_en":"Myanmar","ISO3166_1_":"MMR"}},
{"type":"Feature","geometry":null,"properties":{"cat":71,"name_en":"Myanmar","ISO3166_1_":"MMR"}},
{"type":"Feature","geometry":null,"properties":{"cat":71,"name_en":"Myanmar","ISO3166_1_":"MMR"}},
{"type":"Feature","geometry":null,"properties":{"cat":71,"name_en":"Myanmar","ISO3166_1_":"MMR"}},
{"type":"Feature","geometry":null,"properties":{"cat":71,"name_en":"Myanmar","ISO3166_1_":"MMR"}},
{"type":"Feature","geometry":null,"properties":{"cat":71,"name_en":"Myanmar","ISO3166_1_":"MMR"}},
{"type":"Feature","geometry":null,"properties":{"cat":71,"name_en":"Myanmar","ISO3166_1_":"MMR"}},
{"type":"Feature","geometry":null,"properties":{"cat":71,"name_en":"Myanmar","ISO3166_1_":"MMR"}},
{"type":"Feature","geometry":null,"properties":{"cat":71,"name_en":"Myanmar","ISO3166_1_":"MMR"}},
{"type":"Feature","geometry":null,"properties":{"cat":71,"name_en":"Myanmar","ISO3166_1_":"MMR"}},
{"type":"Feature","geometry":null,"properties":{"cat":71,"name_en":"Myanmar","ISO3166_1_":"MMR"}},
{"type":"Feature","geometry":null,"properties":{"cat":71,"name_en":"Myanmar","ISO3166_1_":"MMR"}},
{"type":"Feature","geometry":null,"properties":{"cat":71,"name_en":"Myanmar","ISO3166_1_":"MMR"}},
{"type":"Feature","geometry":null,"properties":{"cat":71,"name_en":"Myanmar","ISO3166_1_":"MMR"}},
{"type":"Feature","geometry":null,"properties":{"cat":71,"name_en":"Myanmar","ISO3166_1_":"MMR"}},
{"type":"Feature","geometry":null,"properties":{"cat":71,"name_en":"Myanmar","ISO3166_1_":"MMR"}},
{"type":"Feature","geometry":null,"properties":{"cat":71,"name_en":"Myanmar","ISO3166_1_":"MMR"}},
{"type":"Feature","geometry":null,"properties":{"cat":71,"name_en":"Myanmar","ISO3166_1_":"MMR"}},
{"type":"Feature","geometry":null,"properties":{"cat":71,"name_en":"Myanmar","ISO3166_1_":"MMR"}},
{"type":"Feature","geometry":null,"properties":{"cat":71,"name_en":"Myanmar","ISO3166_1_":"MMR"}},
{"type":"Feature","geometry":null,"properties":{"cat":71,"name_en":"Myanmar","ISO3166_1_":"MMR"}},
{"type":"Feature","geometry":null,"properties":{"cat":71,"name_en":"Myanmar","ISO3166_1_":"MMR"}},
{"type":"Feature","geometry":null,"properties":{"cat":71,"name_en":"Myanmar","ISO3166_1_":"MMR"}},
{"type":"Feature","geometry":null,"properties":{"cat":71,"name_en":"Myanmar","ISO3166_1_":"MMR"}},
{"type":"Feature","geometry":null,"properties":{"cat":71,"name_en":"Myanmar","ISO3166_1_":"MMR"}},
{"type":"Feature","geometry":null,"properties":{"cat":71,"name_en":"Myanmar","ISO3166_1_":"MMR"}},
{"type":"Feature","geometry":null,"properties":{"cat":71,"name_en":"Myanmar","ISO3166_1_":"MMR"}},
{"type":"Feature","geometry":null,"properties":{"cat":71,"name_en":"Myanmar","ISO3166_1_":"MMR"}},
{"type":"Feature","geometry":null,"properties":{"cat":71,"name_en":"Myanmar","ISO3166_1_":"MMR"}},
{"type":"Feature","geometry":null,"properties":{"cat":71,"name_en":"Myanmar","ISO3166_1_":"MMR"}},
{"type":"Feature","geometry":null,"properties":{"cat":71,"name_en":"Myanmar","ISO3166_1_":"MMR"}},
{"type":"Feature","geometry":null,"properties":{"cat":71,"name_en":"Myanmar","ISO3166_1_":"MMR"}},
{"type":"Feature","geometry":null,"properties":{"cat":71,"name_en":"Myanmar","ISO3166_1_":"MMR"}},
{"type":"Feature","geometry":null,"properties":{"cat":71,"name_en":"Myanmar","ISO3166_1_":"MMR"}},
{"type":"Feature","geometry":null,"properties":{"cat":71,"name_en":"Myanmar","ISO3166_1_":"MMR"}},
{"type":"Feature","geometry":null,"properties":{"cat":71,"name_en":"Myanmar","ISO3166_1_":"MMR"}},
{"type":"Feature","geometry":null,"properties":{"cat":71,"name_en":"Myanmar","ISO3166_1_":"MMR"}},
{"type":"Feature","geometry":null,"properties":{"cat":71,"name_en":"Myanmar","ISO3166_1_":"MMR"}},
{"type":"Feature","geometry":null,"properties":{"cat":71,"name_en":"Myanmar","ISO3166_1_":"MMR"}},
{"type":"Feature","geometry":null,"properties":{"cat":71,"name_en":"Myanmar","ISO3166_1_":"MMR"}},
{"type":"Feature","geometry":null,"properties":{"cat":71,"name_en":"Myanmar","ISO3166_1_":"MMR"}},
{"type":"Feature","geometry":null,"properties":{"cat":71,"name_en":"Myanmar","ISO3166_1_":"MMR"}},
{"type":"Feature","geometry":null,"properties":{"cat":71,"name_en":"Myanmar","ISO3166_1_":"MMR"}},
{"type":"Feature","geometry":null,"properties":{"cat":71,"name_en":"Myanmar","ISO3166_1_":"MMR"}},
{"type":"Feature","geometry":null,"properties":{"cat":71,"name_en":"Myanmar","ISO3166_1_":"MMR"}},
{"type":"Feature","geometry":{"type":"Polygon","coordinates":[[[93.8745408,19.47251889999997],[93.97441720000009,19.410650300000043],[93.868697,19.36808350000004],[93.8745408,19.47251889999997]]]},"properties":{"cat":71,"name_en":"Myanmar","ISO3166_1_":"MMR"}},
{"type":"Feature","geometry":null,"properties":{"cat":71,"name_en":"Myanmar","ISO3166_1_":"MMR"}},
{"type":"Feature","geometry":null,"properties":{"cat":71,"name_en":"Myanmar","ISO3166_1_":"MMR"}},
{"type":"Feature","geometry":null,"properties":{"cat":71,"name_en":"Myanmar","ISO3166_1_":"MMR"}},
{"type":"Feature","geometry":null,"properties":{"cat":71,"name_en":"Myanmar","ISO3166_1_":"MMR"}},
{"type":"Feature","geometry":null,"properties":{"cat":71,"name_en":"Myanmar","ISO3166_1_":"MMR"}},
{"type":"Feature","geometry":null,"properties":{"cat":71,"name_en":"Myanmar","ISO3166_1_":"MMR"}},
{"type":"Feature","geometry":null,"properties":{"cat":71,"name_en":"Myanmar","ISO3166_1_":"MMR"}},
{"type":"Feature","geometry":null,"properties":{"cat":71,"name_en":"Myanmar","ISO3166_1_":"MMR"}},
{"type":"Feature","geometry":null,"properties":{"cat":71,"name_en":"Myanmar","ISO3166_1_":"MMR"}},
{"type":"Feature","geometry":null,"properties":{"cat":71,"name_en":"Myanmar","ISO3166_1_":"MMR"}},
{"type":"Feature","geometry":null,"properties":{"cat":71,"name_en":"Myanmar","ISO3166_1_":"MMR"}},
{"type":"Feature","geometry":{"type":"Polygon","coordinates":[[[93.68814179999995,19.564884900000038],[93.7396831,19.547038900000047],[93.72384809999997,19.499071800000053],[93.7453555000001,19.480699],[93.7415842,19.427660300000056],[93.69409110000007,19.4309387],[93.69532890000008,19.4666035],[93.65849430000006,19.489920500000053],[93.68814179999995,19.564884900000038]]]},"properties":{"cat":71,"name_en":"Myanmar","ISO3166_1_":"MMR"}},
{"type":"Feature","geometry":null,"properties":{"cat":71,"name_en":"Myanmar","ISO3166_1_":"MMR"}},
{"type":"Feature","geometry":null,"properties":{"cat":71,"name_en":"Myanmar","ISO3166_1_":"MMR"}},
{"type":"Feature","geometry":null,"properties":{"cat":71,"name_en":"Myanmar","ISO3166_1_":"MMR"}},
{"type":"Feature","geometry":null,"properties":{"cat":71,"name_en":"Myanmar","ISO3166_1_":"MMR"}},
{"type":"Feature","geometry":null,"properties":{"cat":71,"name_en":"Myanmar","ISO3166_1_":"MMR"}},
{"type":"Feature","geometry":null,"properties":{"cat":71,"name_en":"Myanmar","ISO3166_1_":"MMR"}},
{"type":"Feature","geometry":null,"properties":{"cat":71,"name_en":"Myanmar","ISO3166_1_":"MMR"}},
{"type":"Feature","geometry":null,"properties":{"cat":71,"name_en":"Myanmar","ISO3166_1_":"MMR"}},
{"type":"Feature","geometry":null,"properties":{"cat":71,"name_en":"Myanmar","ISO3166_1_":"MMR"}},
{"type":"Feature","geometry":null,"properties":{"cat":71,"name_en":"Myanmar","ISO3166_1_":"MMR"}},
{"type":"Feature","geometry":null,"properties":{"cat":71,"name_en":"Myanmar","ISO3166_1_":"MMR"}},
{"type":"Feature","geometry":null,"properties":{"cat":71,"name_en":"Myanmar","ISO3166_1_":"MMR"}},
{"type":"Feature","geometry":null,"properties":{"cat":71,"name_en":"Myanmar","ISO3166_1_":"MMR"}},
{"type":"Feature","geometry":null,"properties":{"cat":71,"name_en":"Myanmar","ISO3166_1_":"MMR"}},
{"type":"Feature","geometry":null,"properties":{"cat":71,"name_en":"Myanmar","ISO3166_1_":"MMR"}},
{"type":"Feature","geometry":null,"properties":{"cat":71,"name_en":"Myanmar","ISO3166_1_":"MMR"}},
{"type":"Feature","geometry":null,"properties":{"cat":71,"name_en":"Myanmar","ISO3166_1_":"MMR"}},
{"type":"Feature","geometry":null,"properties":{"cat":71,"name_en":"Myanmar","ISO3166_1_":"MMR"}},
{"type":"Feature","geometry":null,"properties":{"cat":71,"name_en":"Myanmar","ISO3166_1_":"MMR"}},
{"type":"Feature","geometry":null,"properties":{"cat":71,"name_en":"Myanmar","ISO3166_1_":"MMR"}},
{"type":"Feature","geometry":null,"properties":{"cat":71,"name_en":"Myanmar","ISO3166_1_":"MMR"}},
{"type":"Feature","geometry":null,"properties":{"cat":71,"name_en":"Myanmar","ISO3166_1_":"MMR"}},
{"type":"Feature","geometry":null,"properties":{"cat":71,"name_en":"Myanmar","ISO3166_1_":"MMR"}},
{"type":"Feature","geometry":null,"properties":{"cat":71,"name_en":"Myanmar","ISO3166_1_":"MMR"}},
{"type":"Feature","geometry":null,"properties":{"cat":71,"name_en":"Myanmar","ISO3166_1_":"MMR"}},
{"type":"Feature","geometry":null,"properties":{"cat":71,"name_en":"Myanmar","ISO3166_1_":"MMR"}},
{"type":"Feature","geometry":null,"properties":{"cat":71,"name_en":"Myanmar","ISO3166_1_":"MMR"}},
{"type":"Feature","geometry":null,"properties":{"cat":71,"name_en":"Myanmar","ISO3166_1_":"MMR"}},
{"type":"Feature","geometry":null,"properties":{"cat":71,"name_en":"Myanmar","ISO3166_1_":"MMR"}},
{"type":"Feature","geometry":null,"properties":{"cat":71,"name_en":"Myanmar","ISO3166_1_":"MMR"}},
{"type":"Feature","geometry":null,"properties":{"cat":71,"name_en":"Myanmar","ISO3166_1_":"MMR"}},
{"type":"Feature","geometry":null,"properties":{"cat":71,"name_en":"Myanmar","ISO3166_1_":"MMR"}},
{"type":"Feature","geometry":null,"properties":{"cat":71,"name_en":"Myanmar","ISO3166_1_":"MMR"}},
{"type":"Feature","geometry":null,"properties":{"cat":71,"name_en":"Myanmar","ISO3166_1_":"MMR"}},
{"type":"Feature","geometry":null,"properties":{"cat":71,"name_en":"Myanmar","ISO3166_1_":"MMR"}},
{"type":"Feature","geometry":null,"properties":{"cat":71,"name_en":"Myanmar","ISO3166_1_":"MMR"}},
{"type":"Feature","geometry":null,"properties":{"cat":71,"name_en":"Myanmar","ISO3166_1_":"MMR"}},
{"type":"Feature","geometry":null,"properties":{"cat":71,"name_en":"Myanmar","ISO3166_1_":"MMR"}},
{"type":"Feature","geometry":null,"properties":{"cat":71,"name_en":"Myanmar","ISO3166_1_":"MMR"}},
{"type":"Feature","geometry":null,"properties":{"cat":71,"name_en":"Myanmar","ISO3166_1_":"MMR"}},
{"type":"Feature","geometry":null,"properties":{"cat":71,"name_en":"Myanmar","ISO3166_1_":"MMR"}},
{"type":"Feature","geometry":null,"properties":{"cat":71,"name_en":"Myanmar","ISO3166_1_":"MMR"}},
{"type":"Feature","geometry":null,"properties":{"cat":71,"name_en":"Myanmar","ISO3166_1_":"MMR"}},
{"type":"Feature","geometry":null,"properties":{"cat":71,"name_en":"Myanmar","ISO3166_1_":"MMR"}},
{"type":"Feature","geometry":null,"properties":{"cat":71,"name_en":"Myanmar","ISO3166_1_":"MMR"}},
{"type":"Feature","geometry":null,"properties":{"cat":71,"name_en":"Myanmar","ISO3166_1_":"MMR"}},
{"type":"Feature","geometry":null,"properties":{"cat":71,"name_en":"Myanmar","ISO3166_1_":"MMR"}},
{"type":"Feature","geometry":null,"properties":{"cat":71,"name_en":"Myanmar","ISO3166_1_":"MMR"}},
{"type":"Feature","geometry":null,"properties":{"cat":71,"name_en":"Myanmar","ISO3166_1_":"MMR"}},
{"type":"Feature","geometry":null,"properties":{"cat":71,"name_en":"Myanmar","ISO3166_1_":"MMR"}},
{"type":"Feature","geometry":null,"properties":{"cat":71,"name_en":"Myanmar","ISO3166_1_":"MMR"}},
{"type":"Feature","geometry":null,"properties":{"cat":71,"name_en":"Myanmar","ISO3166_1_":"MMR"}},
{"type":"Feature","geometry":null,"properties":{"cat":71,"name_en":"Myanmar","ISO3166_1_":"MMR"}},
{"type":"Feature","geometry":null,"properties":{"cat":71,"name_en":"Myanmar","ISO3166_1_":"MMR"}},
{"type":"Feature","geometry":null,"properties":{"cat":71,"name_en":"Myanmar","ISO3166_1_":"MMR"}},
{"type":"Feature","geometry":{"type":"Polygon","coordinates":[[[93.3986836,19.965212600000015],[93.50404989999996,19.89744819999997],[93.50515769999996,19.74113739999997],[93.44353860000004,19.7866287],[93.3986836,19.965212600000015]]]},"properties":{"cat":71,"name_en":"Myanmar","ISO3166_1_":"MMR"}},
{"type":"Feature","geometry":null,"properties":{"cat":71,"name_en":"Myanmar","ISO3166_1_":"MMR"}},
{"type":"Feature","geometry":null,"properties":{"cat":71,"name_en":"Myanmar","ISO3166_1_":"MMR"}},
{"type":"Feature","geometry":null,"properties":{"cat":71,"name_en":"Myanmar","ISO3166_1_":"MMR"}},
{"type":"Feature","geometry":null,"properties":{"cat":71,"name_en":"Myanmar","ISO3166_1_":"MMR"}},
{"type":"Feature","geometry":null,"properties":{"cat":71,"name_en":"Myanmar","ISO3166_1_":"MMR"}},
{"type":"Feature","geometry":null,"properties":{"cat":71,"name_en":"Myanmar","ISO3166_1_":"MMR"}},
{"type":"Feature","geometry":null,"properties":{"cat":71,"name_en":"Myanmar","ISO3166_1_":"MMR"}},
{"type":"Feature","geometry":null,"properties":{"cat":71,"name_en":"Myanmar","ISO3166_1_":"MMR"}},
{"type":"Feature","geometry":null,"properties":{"cat":71,"name_en":"Myanmar","ISO3166_1_":"MMR"}},
{"type":"Feature","geometry":null,"properties":{"cat":71,"name_en":"Myanmar","ISO3166_1_":"MMR"}},
{"type":"Feature","geometry":null,"properties":{"cat":71,"name_en":"Myanmar","ISO3166_1_":"MMR"}},
{"type":"Feature","geometry":null,"properties":{"cat":71,"name_en":"Myanmar","ISO3166_1_":"MMR"}},
{"type":"Feature","geometry":null,"properties":{"cat":71,"name_en":"Myanmar","ISO3166_1_":"MMR"}},
{"type":"Feature","geometry":null,"properties":{"cat":71,"name_en":"Myanmar","ISO3166_1_":"MMR"}},
{"type":"Feature","geometry":null,"properties":{"cat":71,"name_en":"Myanmar","ISO3166_1_":"MMR"}},
{"type":"Feature","geometry":null,"properties":{"cat":71,"name_en":"Myanmar","ISO3166_1_":"MMR"}},
{"type":"Feature","geometry":null,"properties":{"cat":71,"name_en":"Myanmar","ISO3166_1_":"MMR"}},
{"type":"Feature","geometry":null,"properties":{"cat":71,"name_en":"Myanmar","ISO3166_1_":"MMR"}},
{"type":"Feature","geometry":null,"properties":{"cat":71,"name_en":"Myanmar","ISO3166_1_":"MMR"}},
{"type":"Feature","geometry":null,"properties":{"cat":71,"name_en":"Myanmar","ISO3166_1_":"MMR"}},
{"type":"Feature","geometry":null,"properties":{"cat":71,"name_en":"Myanmar","ISO3166_1_":"MMR"}},
{"type":"Feature","geometry":null,"properties":{"cat":71,"name_en":"Myanmar","ISO3166_1_":"MMR"}},
{"type":"Feature","geometry":null,"properties":{"cat":71,"name_en":"Myanmar","ISO3166_1_":"MMR"}},
{"type":"Feature","geometry":null,"properties":{"cat":71,"name_en":"Myanmar","ISO3166_1_":"MMR"}},
{"type":"Feature","geometry":null,"properties":{"cat":71,"name_en":"Myanmar","ISO3166_1_":"MMR"}},
{"type":"Feature","geometry":null,"properties":{"cat":71,"name_en":"Myanmar","ISO3166_1_":"MMR"}},
{"type":"Feature","geometry":null,"properties":{"cat":71,"name_en":"Myanmar","ISO3166_1_":"MMR"}},
{"type":"Feature","geometry":null,"properties":{"cat":71,"name_en":"Myanmar","ISO3166_1_":"MMR"}},
{"type":"Feature","geometry":null,"properties":{"cat":71,"name_en":"Myanmar","ISO3166_1_":"MMR"}},
{"type":"Feature","geometry":null,"properties":{"cat":71,"name_en":"Myanmar","ISO3166_1_":"MMR"}},
{"type":"Feature","geometry":null,"properties":{"cat":71,"name_en":"Myanmar","ISO3166_1_":"MMR"}},
{"type":"Feature","geometry":null,"properties":{"cat":71,"name_en":"Myanmar","ISO3166_1_":"MMR"}},
{"type":"Feature","geometry":{"type":"Polygon","coordinates":[[[93.249809,20.2733328],[93.30090070000008,20.182254699999987],[93.23632450000005,20.137412199999986],[93.2124696,20.24213250000004],[93.24986350000009,20.24865],[93.25273140000004,20.250577799999988],[93.25164690000011,20.25495749999999],[93.2413437000001,20.2703357],[93.2466873000001,20.2731697],[93.249809,20.2733328]]]},"properties":{"cat":71,"name_en":"Myanmar","ISO3166_1_":"MMR"}},
{"type":"Feature","geometry":null,"properties":{"cat":71,"name_en":"Myanmar","ISO3166_1_":"MMR"}},
{"type":"Feature","geometry":null,"properties":{"cat":71,"name_en":"Myanmar","ISO3166_1_":"MMR"}},
{"type":"Feature","geometry":null,"properties":{"cat":71,"name_en":"Myanmar","ISO3166_1_":"MMR"}},
{"type":"Feature","geometry":null,"properties":{"cat":71,"name_en":"Myanmar","ISO3166_1_":"MMR"}},
{"type":"Feature","geometry":null,"properties":{"cat":71,"name_en":"Myanmar","ISO3166_1_":"MMR"}},
{"type":"Feature","geometry":null,"properties":{"cat":71,"name_en":"Myanmar","ISO3166_1_":"MMR"}},
{"type":"Feature","geometry":{"type":"Polygon","coordinates":[[[92.97450410000002,20.371542700000063],[92.98215370000005,20.347335399999977],[93.01300559999996,20.30741769999996],[92.95570010000009,20.2309239],[92.92700370000003,20.331096299999984],[92.97450410000002,20.371542700000063]]]},"properties":{"cat":71,"name_en":"Myanmar","ISO3166_1_":"MMR"}},
{"type":"Feature","geometry":null,"properties":{"cat":71,"name_en":"Myanmar","ISO3166_1_":"MMR"}},
{"type":"Feature","geometry":null,"properties":{"cat":71,"name_en":"Myanmar","ISO3166_1_":"MMR"}},
{"type":"Feature","geometry":null,"properties":{"cat":71,"name_en":"Myanmar","ISO3166_1_":"MMR"}},
{"type":"Feature","geometry":null,"properties":{"cat":71,"name_en":"Myanmar","ISO3166_1_":"MMR"}},
{"type":"Feature","geometry":null,"properties":{"cat":71,"name_en":"Myanmar","ISO3166_1_":"MMR"}},
{"type":"Feature","geometry":null,"properties":{"cat":71,"name_en":"Myanmar","ISO3166_1_":"MMR"}},
{"type":"Feature","geometry":{"type":"Polygon","coordinates":[[[92.7960741,20.444692900000035],[92.85395989999998,20.340064200000015],[92.7635961,20.3312092],[92.7960741,20.444692900000035]]]},"properties":{"cat":71,"name_en":"Myanmar","ISO3166_1_":"MMR"}},
{"type":"Feature","geometry":null,"properties":{"cat":71,"name_en":"Myanmar","ISO3166_1_":"MMR"}},
{"type":"Feature","geometry":null,"properties":{"cat":71,"name_en":"Myanmar","ISO3166_1_":"MMR"}},
{"type":"Feature","geometry":null,"properties":{"cat":71,"name_en":"Myanmar","ISO3166_1_":"MMR"}},
{"type":"Feature","geometry":null,"properties":{"cat":71,"name_en":"Myanmar","ISO3166_1_":"MMR"}},
{"type":"Feature","geometry":null,"properties":{"cat":71,"name_en":"Myanmar","ISO3166_1_":"MMR"}},
{"type":"Feature","geometry":null,"properties":{"cat":71,"name_en":"Myanmar","ISO3166_1_":"MMR"}},
{"type":"Feature","geometry":null,"properties":{"cat":71,"name_en":"Myanmar","ISO3166_1_":"MMR"}},
{"type":"Feature","geometry":null,"properties":{"cat":71,"name_en":"Myanmar","ISO3166_1_":"MMR"}},
{"type":"Feature","geometry":null,"properties":{"cat":71,"name_en":"Myanmar","ISO3166_1_":"MMR"}},
{"type":"Feature","geometry":null,"properties":{"cat":71,"name_en":"Myanmar","ISO3166_1_":"MMR"}},
{"type":"Feature","geometry":null,"properties":{"cat":71,"name_en":"Myanmar","ISO3166_1_":"MMR"}},
{"type":"Feature","geometry":null,"properties":{"cat":71,"name_en":"Myanmar","ISO3166_1_":"MMR"}},
{"type":"Feature","geometry":null,"properties":{"cat":71,"name_en":"Myanmar","ISO3166_1_":"MMR"}},
{"type":"Feature","geometry":null,"properties":{"cat":71,"name_en":"Myanmar","ISO3166_1_":"MMR"}},
{"type":"Feature","geometry":null,"properties":{"cat":71,"name_en":"Myanmar","ISO3166_1_":"MMR"}},
{"type":"Feature","geometry":null,"properties":{"cat":71,"name_en":"Myanmar","ISO3166_1_":"MMR"}},
{"type":"Feature","geometry":{"type":"Polygon","coordinates":[[[100.58935520000006,21.028226],[100.5808227,21.0287039],[100.55009960000001,20.9872701],[100.54739490000003,20.98332440000003],[100.52073990000002,20.932256700000025],[100.51679290000004,20.91847170000004],[100.509407,20.887940500000028],[100.51236160000002,20.883718600000023],[100.63967940000009,20.8976925],[100.64492089999999,20.896989],[100.6077977,20.8410506],[100.49409400000013,20.8150505],[100.36156790000007,20.824898900000036],[100.22354220000005,20.713783099999986],[100.175278,20.635278],[100.13598009999998,20.490302500000027],[100.13358460000006,20.4672038],[100.10144340000005,20.37764060000002],[100.09707380000009,20.3740677],[100.08432470000002,20.356719200000057],[100.08515210000002,20.352143300000066],[99.9656484,20.462699],[99.86194480000003,20.443266599999973],[99.826765,20.357139299999986],[99.730143,20.350117],[99.681463,20.316183],[99.519651,20.361267],[99.522875,20.232935],[99.562387,20.206994],[99.4990920000001,20.117769],[99.400053,20.086079],[99.159197,20.132822],[99.076954,20.101131],[99.044023,20.035508],[99.033996,19.855545],[98.98467450000001,19.739131],[98.829768,19.795836],[98.777369,19.752245],[98.672355,19.751885],[98.6081,19.709137],[98.473763,19.69513],[98.238021,19.707821],[98.135426,19.788187],[98.036021,19.800778],[98.025904,19.637372],[97.975041,19.602046],[97.861743,19.57583],[97.876242,19.506264],[97.791823,19.395103],[97.841517,19.225142],[97.835451,19.093046],[97.735789,19.040689],[97.738324,18.978735],[97.690483,18.948481],[97.7368890000001,18.886979],[97.77402,18.688763],[97.767785,18.577877],[97.650468,18.576854],[97.60482500000015,18.53702],[97.443973,18.49501],[97.3867695000001,18.50542930000003],[97.44410629999996,18.3403469],[97.50181830000005,18.26743960000003],[97.55121020000004,18.33408],[97.6394601000001,18.287668900000043],[97.61366469999999,18.2249122],[97.67590040000007,18.161707900000053],[97.6772296,18.114978300000047],[97.7364896,17.98656980000004],[97.67198020000015,17.88245690000005],[97.79378580000005,17.67936079999997],[97.99264830000007,17.509874500000052],[98.10137010000003,17.390961300000015],[98.1130555,17.319150400000012],[98.2478211000001,17.208305399999986],[98.28005830000004,17.1158159],[98.34680720000009,17.0478352],[98.43751880000005,17.0368459],[98.48993350000003,16.96864720000005],[98.53622380000004,16.82956630000004],[98.4639683,16.732458800000046],[98.51151620000005,16.6490811],[98.57381130000002,16.620330299999964],[98.63915220000015,16.431223499999973],[98.666009,16.291652],[98.88239600000011,16.422484],[98.931746,16.328888],[98.903343,16.254498],[98.852227,16.214154],[98.851388,16.136285],[98.805414,16.104573],[98.700248,16.135963],[98.625149,16.042404],[98.584024,15.918621],[98.609219,15.87361],[98.5482870000001,15.685239],[98.585365,15.471216],[98.580282,15.375598],[98.470938,15.371226],[98.39426,15.342747],[98.39418900000013,15.262692],[98.30597,15.313504],[98.212311,15.177787],[98.183678,15.096308],[98.231354,15.044423],[98.256978,14.863546],[98.245773,14.831211],[98.323328,14.710363],[98.436118,14.60834],[98.549332,14.434453],[98.59715,14.327643],[98.878635,14.123509],[98.968132,14.082289],[99.020783,13.945622],[99.076802,13.894831],[99.121356,13.773287],[99.166965,13.726142],[99.172518,13.563008],[99.20692,13.380519],[99.186935,13.291117],[99.210701,13.207613],[99.139064,13.205733],[99.099511,13.072735],[99.180142,12.993252],[99.188567,12.846989],[99.232509,12.739988],[99.294581,12.67778],[99.412563,12.615256],[99.43552,12.566143],[99.400994,12.459914],[99.441806,12.400537],[99.433841,12.342799],[99.515224,12.14767],[99.53801,12.014243],[99.592249,11.992515],[99.579791,11.906382],[99.625051,11.831659],[99.638213,11.732646],[99.565462,11.626675],[99.467636,11.614762],[99.4744,11.533174],[99.39372800000015,11.46122],[99.402019,11.38872],[99.312387,11.316381],[99.3245820000001,11.282154],[99.26363,11.214809],[99.22879,11.112943],[99.15837,11.033836],[99.023852,10.970734],[99.01149,10.856696],[98.912855,10.809942],[98.77990190000006,10.6780798],[98.8187970000001,10.508235600000049],[98.75546980000004,10.3932457],[98.70749489999994,10.23075630000001],[98.57947010000007,9.986286700000065],[98.52700080000002,10.012084900000048],[98.51677160000011,10.160172099999983],[98.4790373000001,10.2022529],[98.51795610000008,10.252338200000025],[98.53680550000004,10.347216899999978],[98.49102510000003,10.450267],[98.497574,10.524561600000041],[98.45634950000007,10.6290231],[98.47308650000005,10.734334300000015],[98.56366370000009,10.743975100000029],[98.615088,10.897103400000049],[98.6912639,10.928938899999977],[98.68557660000013,11.136821200000043],[98.7375716,11.189570600000039],[98.75834030000001,11.274306],[98.7234336000001,11.31609630000004],[98.71967850000001,11.558133399999988],[98.7391067,11.67464059999999],[98.8181786000001,11.841062600000015],[98.7557894,11.885935599999982],[98.74451419999994,11.994041500000037],[98.638643,12.0688457],[98.64131290000009,12.17666770000001],[98.53800709999999,12.219467099999989],[98.57489,12.304280100000042],[98.53581110000007,12.355483400000011],[98.60130170000005,12.482569700000042],[98.673664,12.751326700000035],[98.63531960000003,12.814988900000031],[98.62247129999994,12.903367599999967],[98.583132,12.938414799999975],[98.59677890000009,13.062562899999989],[98.58090929999995,13.168280400000043],[98.48948950000002,13.249811499999979],[98.42003930000001,13.478059599999966],[98.35660970000006,13.614530700000046],[98.28379780000009,13.669965600000026],[98.2809048,13.709742600000041],[98.1704437000001,13.757376900000025],[98.18374090000006,13.650059500000026],[98.093383,13.704148099999983],[98.067404,13.767851899999968],[98.09554310000007,13.8926905],[98.05561130000004,14.0324572],[98.099784,14.116273299999989],[98.0722324000001,14.188488100000015],[97.96858330000012,14.3639211],[97.953602,14.495283100000037],[97.84456530000003,14.71136949999999],[97.79168320000011,14.882558800000027],[97.8094305,14.960739700000047],[97.80329950000007,15.150218099999975],[97.72927990000008,15.2720724],[97.74008640000008,15.487448200000031],[97.76109620000008,15.5340388],[97.72703,15.611303200000037],[97.69828320000002,15.758044200000043],[97.71554189999998,15.853942800000013],[97.6085868000001,15.952061800000024],[97.4982507,16.2490364],[97.44285020000004,16.54219929999998],[97.37220490000001,16.507482499999966],[97.3232983,16.622016400000035],[97.2402766000001,16.6881118],[97.24700570000007,16.810335500000036],[97.1730228000001,16.9592635],[97.17321280000002,17.018791],[97.06206630000011,17.012545199999977],[97.08944270000009,17.14889250000003],[96.9608559000001,17.274021099999985],[96.8978892000001,17.271714],[96.85752170000004,17.225239500000015],[96.9099,17.0911651],[96.92502430000005,16.998604299999982],[96.75743839999998,16.872909499999977],[96.77476459999994,16.783080200000015],[96.70010770000007,16.6229703],[96.56164029999994,16.51218930000003],[96.4025748,16.48272820000001],[96.3483343,16.5275877],[96.32093990000001,16.4091912],[96.26156550000005,16.36563070000001],[96.11716520000007,16.321018400000042],[96.0200768,16.2483398],[95.84084010000007,16.184446],[95.74871070000003,16.127454699999973],[95.65078780000002,15.932789400000047],[95.48870160000004,15.760336399999986],[95.39238730000008,15.7136468],[95.28430460000007,15.7198384],[95.26800789999996,15.804094400000054],[95.17770350000009,15.771675700000017],[95.12089510000007,15.796867500000019],[95.1098441,15.881340199999983],[95.12821190000008,15.978566],[95.06795880000007,15.980216300000023],[95.05199430000008,15.852609199999975],[95.02163020000003,15.79041320000006],[94.955531,15.743609100000015],[94.74473140000006,15.797864600000011],[94.7190342000001,15.85360030000001],[94.63537520000003,15.871210800000043],[94.55244660000002,15.964520799999974],[94.48277470000008,15.966904],[94.3935263000001,15.908189],[94.38405849999995,16.005133300000026],[94.24083990000005,15.954864199999989],[94.20002070000007,16.041147899999956],[94.22033990000003,16.173357],[94.227519,16.33646],[94.27027560000002,16.5050656],[94.33740749999996,16.552883399999985],[94.32211270000002,16.601358100000056],[94.36093080000009,16.663390899999982],[94.3544514000001,16.724458100000035],[94.400566,16.793257900000043],[94.37420469999998,16.8844001],[94.43377160000009,16.9231656],[94.44859410000007,17.054922300000015],[94.535773,17.173772900000017],[94.49848230000012,17.21744970000003],[94.4991658000001,17.302049500000024],[94.58978290000007,17.2707044],[94.56376240000006,17.37933290000005],[94.56129009999998,17.4985917],[94.53705120000009,17.55234860000003],[94.59018850000004,17.657516299999983],[94.48219339999994,17.787255799999983],[94.480719,17.89964949999998],[94.43947240000003,17.97364620000002],[94.47920170000012,18.025194700000043],[94.46697980000008,18.09435090000005],[94.37283530000016,18.280341799999974],[94.39737850000009,18.3489248],[94.34268450000005,18.370133700000054],[94.31812530000005,18.440732899999986],[94.2544045000001,18.5113972],[94.23904740000009,18.659794],[94.27285680000008,18.7599216],[94.2198126000001,18.8085632],[94.08792650000007,18.823298],[94.03183790000006,18.8750549],[94.05997750000009,19.0335758],[94.02968490000009,19.145389],[94.05223030000005,19.237165200000035],[94.03773930000003,19.3109214],[94.06841430000011,19.364481900000015],[93.9918122,19.4577572],[93.9110008000001,19.48674649999998],[93.72507580000004,19.62178520000002],[93.8368980000001,19.7228977],[93.79618910000002,19.76737890000004],[93.77115250000011,19.906428600000055],[93.73198,19.9483613],[93.66118720000011,19.915855400000027],[93.54573940000003,19.991883],[93.4377714,20.1128185],[93.35735680000008,20.059560800000042],[93.31577,20.11629880000001],[93.30679410000008,20.202276100000034],[93.241508,20.315750099999974],[93.23397560000004,20.299535799999987],[93.22739060000006,20.276366299999978],[93.23979149999994,20.264760600000017],[93.25068450000006,20.250194100000044],[93.22803280000008,20.248679700000068],[93.21493,20.245348400000026],[93.20973929999994,20.2408481],[93.20507730000011,20.22308360000001],[93.07784110000003,20.18687120000004],[93.01299150000003,20.137055100000012],[92.99921980000008,20.226036199999967],[93.03498110000001,20.3094749],[93.03623770000004,20.42845570000003],[93.02134830000003,20.431291099999967],[93.01546470000002,20.329308],[92.988433,20.3596975],[92.97764540000006,20.3633021],[92.97614250000007,20.3715429],[92.9695876000001,20.37450320000005],[92.96412720000004,20.367033600000013],[92.95484170000012,20.368576699999963],[92.93421119999996,20.395483],[92.85743140000002,20.425053299999973],[92.84221280000011,20.480667],[92.74042320000004,20.555098800000067],[92.72888440000006,20.27450120000003],[92.64795380000007,20.41745649999997],[92.53156220000002,20.5447457],[92.5152464,20.603415899999973],[92.38522270000001,20.699055700000017],[92.38839580000004,20.7606126],[92.34132969999999,20.849794400000036],[92.38431259999996,20.923344100000037],[92.27644240000004,20.9849791],[92.26091080000006,21.076582099999982],[92.17194229999998,21.18122930000004],[92.21809820000001,21.23537330000005],[92.19755880000005,21.327942600000057],[92.25852840000002,21.36287230000002],[92.381229,21.4796142],[92.47507740000006,21.354485899999972],[92.5639596,21.3720865],[92.59472950000011,21.2493437],[92.67408430000003,21.28344279999999],[92.618056,21.469722],[92.598611,21.66],[92.599444,21.794722],[92.621667,21.875556],[92.60083300000011,21.981944],[92.67972200000011,22.026944],[92.67805600000011,22.099722],[92.718611,22.159722],[92.9275,22.015],[93.009722,22.1075],[93.052778,22.118889],[93.044167,22.201944],[93.140833,22.183889],[93.19809150000006,22.2718099],[93.18606790000004,22.42855150000001],[93.13218610000004,22.467519599999974],[93.1095303000001,22.5458648],[93.14127680000004,22.593594299999964],[93.09234810000007,22.709494],[93.0953615,22.806921],[93.1460059,22.9276789],[93.1398118,23.053845399999958],[93.2350198,23.01123379999997],[93.3197559000001,23.02900870000002],[93.38758080000005,23.21583819999998],[93.35563770000002,23.353284],[93.4183065,23.541403200000047],[93.436281,23.687105],[93.394504,23.754218],[93.393977,23.922545],[93.331532,23.984816],[93.332402,24.086684],[93.406835,24.081179],[93.465316,23.972085],[93.509795,23.94627],[93.626484,24.011684],[93.756605,24.006105],[93.815039,23.923948],[93.894053,23.951685],[94.022069,23.925905],[94.156096,23.847133],[94.1690760000001,23.927559],[94.238196,24.033173],[94.260365,24.164131],[94.4084030000001,24.439772],[94.455551,24.570742],[94.509656,24.59267],[94.546724,24.706968],[94.606808,24.711173],[94.6331650000001,24.835094],[94.71372000000011,24.930192],[94.745244,25.06278],[94.725449,25.133778],[94.603572,25.184559],[94.5856,25.267766],[94.686378,25.466217],[94.807863,25.495518],[94.844971,25.560366],[94.918018,25.614276],[94.940282,25.672092],[95.044793,25.743868],[95.019784,25.871778],[95.184789,26.075147],[95.120042,26.099463],[95.12384300000011,26.356703],[95.0726706,26.47367650000004],[95.153134,26.582595],[95.257137,26.657894],[95.439786,26.702217],[95.503694,26.806471],[95.60925000000012,26.813944],[95.657968,26.891409],[95.713392,26.883154],[95.81022,27.015886],[95.948099,27.053045],[96.045327,27.191034],[96.106775,27.225966],[96.314149,27.293635],[96.433355,27.305025],[96.526308,27.289244],[96.606187,27.362764],[96.676404,27.335615],[96.715391,27.376177],[96.829449,27.311873],[96.890107,27.176336],[97.010564,27.144812],[97.0767683,27.095742100000038],[97.145589,27.092577],[97.176678,27.139986],[96.914719,27.460752],[96.933721,27.507956],[96.899801,27.608354],[96.9949500000001,27.671163],[97.026151,27.735353],[97.112714,27.769671],[97.292989,27.913454],[97.37913629999994,27.892063700000065],[97.39425280000003,28.0185194],[97.325095,28.083581],[97.355171,28.155851],[97.349728,28.240734],[97.424837,28.297899],[97.50423750000002,28.31517369999999],[97.4781899,28.3797035],[97.52356650000004,28.447013899999973],[97.501872,28.494954],[97.565827,28.546425],[97.663623,28.538381],[97.73726800000011,28.465859],[97.735664,28.398311],[97.7971150000001,28.329639],[97.90894700000015,28.368307],[98.14117800000011,28.143531],[98.1606,28.089426],[98.132047,27.986052],[98.206033,27.891913],[98.170309,27.854236],[98.226889,27.79646],[98.233457,27.694457],[98.30093,27.63482],[98.308678,27.546714],[98.3764120000001,27.510932],[98.430303,27.553592],[98.42993100000015,27.658289],[98.564319,27.640398],[98.586259,27.592775],[98.6984810000001,27.548809],[98.684377,27.488475],[98.707301,27.364667],[98.741054,27.332113],[98.69169000000014,27.20004],[98.733545,27.006221],[98.762343,26.802153],[98.74302,26.712973],[98.782192,26.605907],[98.733901,26.354742],[98.6817730000001,26.309775],[98.672215,26.245374],[98.73591700000011,26.189999],[98.7093990000001,26.121075],[98.650206,26.146171],[98.573156,26.121955],[98.616768,25.977068],[98.68165700000011,25.941681],[98.707927,25.859875],[98.63228,25.799809],[98.531574,25.846429],[98.474895,25.782829],[98.460409,25.691454],[98.409263,25.611052],[98.30234,25.552188],[98.2048060000001,25.620211],[98.15522,25.527274],[98.136352,25.386195],[98.070726,25.314768],[97.939113,25.217056],[97.839723,25.2727],[97.720241,25.021671],[97.730164,24.915214],[97.707126,24.83845],[97.56813250000008,24.7236033],[97.5708958000001,24.603349599999987],[97.53083589999997,24.438625],[97.66441639999996,24.45277289999997],[97.7136925,24.377389],[97.660954,24.338771900000026],[97.7686749000001,24.264455199999986],[97.72837050000012,24.229352100000057],[97.72835960000012,24.118612],[97.63652390000007,24.05044529999998],[97.5281828,23.929390500000025],[97.7005674000001,23.864875900000015],[97.76816339999996,23.931915799999985],[97.8878397,23.97462040000002],[98.03949249999997,24.0736451],[98.222487,24.116913],[98.29652700000011,24.101945],[98.547857,24.130241],[98.61756359999995,24.090935300000012],[98.71377169999997,24.129538399999987],[98.85877170000006,24.1353718],[98.863608,24.06693],[98.678609,23.957589],[98.694922,23.788344],[98.789177,23.783771],[98.851407,23.634683],[98.803594,23.542169],[98.87690300000011,23.488954],[98.920737,23.414262],[98.93081,23.268956],[98.884284,23.190861],[99.002301,23.163137],[99.103167,23.091722],[99.146101,23.109118],[99.24920200000011,23.079957],[99.344644,23.137506],[99.384147,23.102107],[99.522205,23.077137],[99.495792,22.911996],[99.390623,22.815734],[99.386035,22.76591],[99.314749,22.739341],[99.36057190000005,22.663806],[99.38057190000009,22.506306100000018],[99.29798460000009,22.4144398],[99.16769600000012,22.149641],[99.272564,22.101073],[99.408638,22.099727],[99.473304,22.136119],[99.515469,22.103893],[99.642119,22.105818],[99.85428300000015,22.025993],[99.9039250000001,22.069564],[99.962613,22.052688],[99.997068,21.976787499999958],[99.9435227000001,21.824938199999977],[99.9909584000001,21.7062738],[100.11861900000011,21.706034],[100.16882970000003,21.6662554],[100.11130680000005,21.6029152],[100.12602870000009,21.511268600000037],[100.2050131,21.5128665],[100.24683220000011,21.4663593],[100.34527650000004,21.528524],[100.43093019999995,21.541469200000037],[100.47961249999994,21.458777900000044],[100.57204240000007,21.4509368],[100.72229010000004,21.51225549999998],[100.88654530000011,21.687926099999984],[101.01410420000005,21.709908900000045],[101.08758770000011,21.77617950000004],[101.16940130000003,21.59551479999999],[101.144749,21.513490900000065],[101.1437416,21.512629500000017],[100.98244690000001,21.38854540000007],[100.9725788000001,21.388384200000047],[100.89143350000006,21.351464099999973],[100.8867335000001,21.349680700000036],[100.86938120000002,21.3228074],[100.8640555,21.319446500000012],[100.810396,21.2932501],[100.732151,21.31596660000001],[100.69604590000006,21.173287099999968],[100.58935520000006,21.028226]]]},"properties":{"cat":71,"name_en":"Myanmar","ISO3166_1_":"MMR"}},
{"type":"Feature","geometry":null,"properties":{"cat":71,"name_en":"Myanmar","ISO3166_1_":"MMR"}},
{"type":"Feature","geometry":null,"properties":{"cat":71,"name_en":"Myanmar","ISO3166_1_":"MMR"}},
{"type":"Feature","geometry":null,"properties":{"cat":71,"name_en":"Myanmar","ISO3166_1_":"MMR"}},
{"type":"Feature","geometry":null,"properties":{"cat":71,"name_en":"Myanmar","ISO3166_1_":"MMR"}},
{"type":"Feature","geometry":null,"properties":{"cat":71,"name_en":"Myanmar","ISO3166_1_":"MMR"}},
{"type":"Feature","geometry":null,"properties":{"cat":71,"name_en":"Myanmar","ISO3166_1_":"MMR"}},
{"type":"Feature","geometry":null,"properties":{"cat":71,"name_en":"Myanmar","ISO3166_1_":"MMR"}},
{"type":"Feature","geometry":null,"properties":{"cat":71,"name_en":"Myanmar","ISO3166_1_":"MMR"}},
{"type":"Feature","geometry":null,"properties":{"cat":71,"name_en":"Myanmar","ISO3166_1_":"MMR"}},
{"type":"Feature","geometry":null,"properties":{"cat":71,"name_en":"Myanmar","ISO3166_1_":"MMR"}},
{"type":"Feature","geometry":null,"properties":{"cat":71,"name_en":"Myanmar","ISO3166_1_":"MMR"}},
{"type":"Feature","geometry":{"type":"Polygon","coordinates":[[[98.2412686000001,10.06251990000004],[98.29279360000001,10.04950449999997],[98.2507954000001,9.9545053],[98.1660744000001,9.914546600000037],[98.1283263,9.944582199999985],[98.17095850000001,10.012202600000023],[98.2412686000001,10.06251990000004]]]},"properties":{"cat":71,"name_en":"Myanmar","ISO3166_1_":"MMR"}},
{"type":"Feature","geometry":{"type":"Polygon","coordinates":[[[98.14662360000003,10.92398110000002],[98.21753670000001,10.957457],[98.26429680000004,10.860615400000029],[98.28620850000007,10.70901849999997],[98.23767,10.699629500000015],[98.24496170000012,10.803409800000011],[98.20832750000008,10.886642400000042],[98.14662360000003,10.92398110000002]]]},"properties":{"cat":71,"name_en":"Myanmar","ISO3166_1_":"MMR"}},
{"type":"Feature","geometry":{"type":"Polygon","coordinates":[[[98.1941120000001,11.5845137],[98.26774760000009,11.735688699999969],[98.29347440000006,11.6956073],[98.27037750000002,11.4780821],[98.18725150000009,11.524917],[98.1941120000001,11.5845137]]]},"properties":{"cat":71,"name_en":"Myanmar","ISO3166_1_":"MMR"}},
{"type":"Feature","geometry":{"type":"Polygon","coordinates":[[[98.42533940000007,11.727529],[98.3649419,11.776566899999978],[98.51426710000001,11.810322400000047],[98.54722060000009,11.763370700000038],[98.53963530000007,11.608773399999976],[98.48744490000004,11.5556109],[98.4251338,11.5775672],[98.37448639999994,11.701808],[98.42533940000007,11.727529]]]},"properties":{"cat":71,"name_en":"Myanmar","ISO3166_1_":"MMR"}},
{"type":"Feature","geometry":null,"properties":{"cat":71,"name_en":"Myanmar","ISO3166_1_":"MMR"}},
{"type":"Feature","geometry":{"type":"Polygon","coordinates":[[[98.65191230000008,11.8327686],[98.75303939999995,11.885091600000038],[98.80290789999995,11.809813799999972],[98.71666420000011,11.741310299999967],[98.68950930000003,11.679711299999965],[98.60263909999995,11.721788699999976],[98.59017280000009,11.760516100000018],[98.65191230000008,11.8327686]]]},"properties":{"cat":71,"name_en":"Myanmar","ISO3166_1_":"MMR"}},
{"type":"Feature","geometry":{"type":"Polygon","coordinates":[[[98.43783780000004,12.012249899999986],[98.55881349999996,11.99642320000001],[98.66451170000002,11.927091599999969],[98.553632,11.917756400000016],[98.47442040000001,11.875385100000017],[98.43783780000004,12.012249899999986]]]},"properties":{"cat":71,"name_en":"Myanmar","ISO3166_1_":"MMR"}},
{"type":"Feature","geometry":null,"properties":{"cat":71,"name_en":"Myanmar","ISO3166_1_":"MMR"}},
{"type":"Feature","geometry":{"type":"Polygon","coordinates":[[[98.33221890000007,12.452135499999969],[98.29522550000004,12.646946300000025],[98.38271480000006,12.663188800000043],[98.38881870000014,12.576008200000018],[98.46238120000007,12.530803399999968],[98.43538880000003,12.4370635],[98.3634716,12.3217006],[98.3048438000001,12.33416680000002],[98.33221890000007,12.452135499999969]]]},"properties":{"cat":71,"name_en":"Myanmar","ISO3166_1_":"MMR"}},
{"type":"Feature","geometry":{"type":"Polygon","coordinates":[[[93.48435430000004,18.867299700000032],[93.59988030000002,18.9041811],[93.68198170000008,18.8632029],[93.74377510000002,18.8878213],[93.749972,18.729396],[93.6660711000001,18.669827899999987],[93.5444997000001,18.7661661],[93.48435430000004,18.867299700000032]]]},"properties":{"cat":71,"name_en":"Myanmar","ISO3166_1_":"MMR"}},
{"type":"Feature","geometry":{"type":"Polygon","coordinates":[[[93.6289052000001,19.20993810000003],[93.74297520000007,19.25522610000003],[93.82862380000009,19.219446],[93.89102230000006,19.100939900000043],[93.94877320000009,19.0612473],[93.98656070000007,18.97013640000003],[93.93683179999996,18.884324700000036],[93.66621820000009,19.0158659],[93.63651210000003,19.14346230000001],[93.59645750000007,19.158535],[93.48301559999996,19.338902700000034],[93.48799420000003,19.416156199999975],[93.53977139999998,19.436740400000033],[93.60767170000005,19.4067811],[93.59487070000003,19.320028200000024],[93.6289052000001,19.20993810000003]]]},"properties":{"cat":71,"name_en":"Myanmar","ISO3166_1_":"MMR"}},
{"type":"Feature","geometry":{"type":"Polygon","coordinates":[[[93.78923960000006,19.31774539999998],[93.72817030000002,19.372084399999963],[93.72173790000008,19.421044],[93.742938,19.4268822],[93.75984520000006,19.443294900000026],[93.79046529999997,19.431188],[93.79769639999998,19.466568799999976],[93.844665,19.465454],[93.78923960000006,19.31774539999998]]]},"properties":{"cat":71,"name_en":"Myanmar","ISO3166_1_":"MMR"}},
{"type":"Feature","geometry":{"type":"Polygon","coordinates":[[[93.14211460000016,19.838890100000043],[93.0504288,19.9581844],[92.9881816000001,20.072283699999986],[93.0664322000001,20.119581500000024],[93.13789780000005,19.99831519999998],[93.10189860000006,19.942452],[93.14211460000016,19.838890100000043]]]},"properties":{"cat":71,"name_en":"Myanmar","ISO3166_1_":"MMR"}},
{"type":"Feature","geometry":{"type":"Polygon","coordinates":[[[92.8173889,20.20945880000005],[92.92255679999997,20.191873599999965],[92.86029739999995,20.123479799999984],[92.8173889,20.20945880000005]]]},"properties":{"cat":71,"name_en":"Myanmar","ISO3166_1_":"MMR"}}
]}